<?xml version='1.0' encoding='utf-8'?>
<osm generator="OSM Conflator 1.3.1" version="0.6"><changeset><tag k="created_by" v="OSM Conflator 1.3.1"/><tag k="type" v="import"/><tag k="source" v="RAFVG"/></changeset><node id="2469713893" version="1" lat="45.916857" lon="13.4679156" action="modify"><tag k="tower:type" v="communication"/><tag k="start_date" v="2014-08-21"/><tag k="communication:mobile_phone" v="yes"/><tag k="operator" v="Vodafone Omnitel"/><tag k="source" v="RAFVG"/><tag k="man_made" v="tower"/></node><node id="2552304733" version="1" lat="45.8539563" lon="13.4736368" action="modify"><tag k="tower:type" v="communication"/><tag k="source" v="ARPA FVG;RAFVG"/><tag k="communication:mobile_phone" v="yes"/><tag k="operator" v="Wind-Tre"/><tag k="start_date" v="2017-05-03"/><tag k="man_made" v="tower"/></node><node id="2552298332" version="2" lat="45.8472863" lon="13.4645334" action="modify"><tag k="tower:type" v="communication"/><tag k="source" v="ARPA FVG;RAFVG"/><tag k="communication:mobile_phone" v="yes"/><tag k="operator" v="Omnitel;Wind"/><tag k="start_date" v="2014-09-17"/><tag k="man_made" v="mast"/></node><node id="2584775067" version="1" lat="45.8610206" lon="13.4755691" action="modify"><tag k="tower:type" v="tower"/><tag k="start_date" v="2015-03-11"/><tag k="man_made" v="tower"/><tag k="communication:mobile_phone" v="yes"/><tag k="operator" v="Telecom;Omnitel"/><tag k="source" v="RAFVG"/><tag k="height" v="20"/></node><node id="2314098145" version="1" lat="45.8873834" lon="13.4965524" action="modify"><tag k="tower:type" v="communication"/><tag k="start_date" v="2013-08-09"/><tag k="communication:mobile_phone" v="yes"/><tag k="operator" v="Telecom Italia Mobile"/><tag k="source" v="RAFVG"/><tag k="man_made" v="tower"/></node><node id="3280877528" version="1" lat="45.9532992" lon="13.6342602" action="modify"><tag k="tower:type" v="communication"/><tag k="start_date" v="2019-01-08"/><tag k="communication:mobile_phone" v="yes"/><tag k="operator" v="Wind-Tre"/><tag k="source" v="RAFVG"/><tag k="man_made" v="tower"/></node><node id="1776460807" version="2" lat="45.8158364" lon="13.4487274" action="modify"><tag k="tower:type" v="communication"/><tag k="start_date" v="2015-03-04"/><tag k="communication:mobile_phone" v="yes"/><tag k="operator" v="Vodafone Omnitel"/><tag k="source" v="RAFVG"/><tag k="man_made" v="mast"/></node><node id="2469713896" version="3" lat="45.9472289" lon="13.4634032" action="modify"><tag k="ref:cellid" v="707"/><tag k="tower:type" v="communication"/><tag k="communication:mobile_phone" v="yes"/><tag k="start_date" v="2018-03-23"/><tag k="fixme" v="unire"/><tag k="ref:lac" v="25052"/><tag k="operator" v="Wind"/><tag k="source" v="RAFVG"/><tag k="ref:mcc" v="222"/><tag k="man_made" v="tower"/><tag k="ref:mnc" v="88"/></node><node id="2531261680" version="1" lat="45.816699" lon="13.4506775" action="modify"><tag k="tower:type" v="communication"/><tag k="start_date" v="2018-03-01"/><tag k="fixme" v="unire"/><tag k="communication:mobile_phone" v="yes"/><tag k="operator" v="Wind-Tre"/><tag k="source" v="RAFVG"/><tag k="man_made" v="mast"/></node><node id="6718589303" version="1" lat="45.9077272" lon="13.5092019" action="modify"><tag k="tower:type" v="communication"/><tag k="start_date" v="2018-02-19"/><tag k="tower:construction" v="mast"/><tag k="communication:mobile_phone" v="yes"/><tag k="operator" v="Wind-Tre"/><tag k="source" v="RAFVG"/><tag k="man_made" v="mast"/></node><way id="307280321" version="1" action="modify"><tag k="tower:type" v="Telecomunicazioni"/><tag k="start_date" v="2015-06-30"/><tag k="communication:mobile_phone" v="yes"/><tag k="operator" v="Vodafone Omnitel"/><tag k="source" v="RAFVG"/><tag k="man_made" v="tower"/><nd ref="3123696611"/><nd ref="3123696612"/><nd ref="3123696613"/><nd ref="3123696614"/><nd ref="3123696611"/></way><way id="36428745" version="3" action="modify"><tag k="tower:type" v="bell_tower"/><tag k="start_date" v="2019-10-14"/><tag k="building" v="yes"/><tag k="operator" v="Iliad Italia"/><tag k="it:fvg:ctrn:code" v="4ATO"/><tag k="communication:mobile_phone" v="yes"/><tag k="man_made" v="tower"/><tag k="it:fvg:ctrn:revision" v="1A0"/><tag k="source" v="RAFVG"/><tag k="height" v="29 m"/><nd ref="424904019"/><nd ref="424904018"/><nd ref="424904017"/><nd ref="424904016"/><nd ref="424762722"/><nd ref="424762724"/><nd ref="424904019"/></way><node id="-1" version="1" lat="45.901897" lon="13.414744"><tag k="tower:type" v="communication"/><tag k="start_date" v="2018-01-30"/><tag k="communication:mobile_phone" v="yes"/><tag k="operator" v="Wind-Tre"/><tag k="source" v="RAFVG"/><tag k="man_made" v="mast"/></node><node id="-2" version="1" lat="45.810651" lon="13.505592"><tag k="tower:type" v="communication"/><tag k="start_date" v="2014-06-09"/><tag k="communication:mobile_phone" v="yes"/><tag k="operator" v="Telecom Italia Mobile"/><tag k="source" v="RAFVG"/><tag k="man_made" v="mast"/></node><node id="-3" version="1" lat="45.93183" lon="13.621638"><tag k="tower:type" v="communication"/><tag k="start_date" v="2019-07-19"/><tag k="communication:mobile_phone" v="yes"/><tag k="operator" v="Telecom Italia Mobile"/><tag k="source" v="RAFVG"/><tag k="man_made" v="mast"/></node><node id="-4" version="1" lat="45.886428" lon="13.495606"><tag k="communication:mobile_phone" v="yes"/><tag k="source" v="RAFVG"/><tag k="tower:type" v="communication"/><tag k="start_date" v="2016-07-13"/><tag k="man_made" v="mast"/></node><node id="-5" version="1" lat="45.696747" lon="13.4548"><tag k="tower:type" v="communication"/><tag k="start_date" v="2017-12-07"/><tag k="communication:mobile_phone" v="yes"/><tag k="operator" v="Telecom Italia Mobile"/><tag k="source" v="RAFVG"/><tag k="man_made" v="mast"/></node><node id="-6" version="1" lat="45.857545" lon="13.56316"><tag k="tower:type" v="communication"/><tag k="start_date" v="2018-03-28"/><tag k="communication:mobile_phone" v="yes"/><tag k="operator" v="Wind-Tre"/><tag k="source" v="RAFVG"/><tag k="man_made" v="mast"/></node><node id="-7" version="1" lat="45.960999" lon="13.470796"><tag k="tower:type" v="communication"/><tag k="start_date" v="2019-02-12"/><tag k="communication:mobile_phone" v="yes"/><tag k="operator" v="Wind-Tre"/><tag k="source" v="RAFVG"/><tag k="man_made" v="mast"/></node><node id="-8" version="1" lat="45.698167" lon="13.457631"><tag k="tower:type" v="communication"/><tag k="start_date" v="2018-01-30"/><tag k="communication:mobile_phone" v="yes"/><tag k="operator" v="Wind-Tre"/><tag k="source" v="RAFVG"/><tag k="man_made" v="mast"/></node><node id="-9" version="1" lat="45.806853" lon="13.464963"><tag k="tower:type" v="communication"/><tag k="start_date" v="2007-06-07"/><tag k="communication:mobile_phone" v="yes"/><tag k="operator" v="Vodafone Omnitel"/><tag k="source" v="RAFVG"/><tag k="man_made" v="mast"/></node><node id="-10" version="1" lat="45.791341" lon="13.568968"><tag k="tower:type" v="communication"/><tag k="start_date" v="2015-06-30"/><tag k="communication:mobile_phone" v="yes"/><tag k="operator" v="Vodafone Omnitel"/><tag k="source" v="RAFVG"/><tag k="man_made" v="mast"/></node><node id="-11" version="1" lat="45.959507" lon="13.607309"><tag k="tower:type" v="communication"/><tag k="start_date" v="2014-09-03"/><tag k="communication:mobile_phone" v="yes"/><tag k="operator" v="Vodafone Omnitel"/><tag k="source" v="RAFVG"/><tag k="man_made" v="mast"/></node><node id="-12" version="1" lat="45.929761" lon="13.544029"><tag k="tower:type" v="communication"/><tag k="start_date" v="2019-08-26"/><tag k="communication:mobile_phone" v="yes"/><tag k="operator" v="Telecom Italia Mobile"/><tag k="source" v="RAFVG"/><tag k="man_made" v="mast"/></node><node id="-13" version="1" lat="45.955328" lon="13.468051"><tag k="tower:type" v="communication"/><tag k="start_date" v="2014-10-20"/><tag k="fixme" v="tower"/><tag k="communication:mobile_phone" v="yes"/><tag k="operator" v="Vodafone Omnitel"/><tag k="source" v="RAFVG"/><tag k="man_made" v="mast"/></node><node id="-14" version="1" lat="45.863467" lon="13.435817"><tag k="tower:type" v="communication"/><tag k="start_date" v="2019-08-29"/><tag k="communication:mobile_phone" v="yes"/><tag k="operator" v="Telecom Italia Mobile"/><tag k="source" v="RAFVG"/><tag k="man_made" v="mast"/></node><node id="-15" version="1" lat="45.912837" lon="13.58679"><tag k="communication:mobile_phone" v="yes"/><tag k="operator" v="Vodafone Omnitel"/><tag k="tower:type" v="communication"/><tag k="source" v="RAFVG"/><tag k="man_made" v="mast"/></node><node id="-16" version="1" lat="45.8155784" lon="13.4521392"><tag k="communication:mobile_phone" v="yes"/><tag k="source" v="RAFVG"/><tag k="tower:type" v="communication"/><tag k="start_date" v="2016-05-27"/><tag k="man_made" v="mast"/></node><node id="-17" version="1" lat="45.935889" lon="13.551766"><tag k="tower:type" v="communication"/><tag k="start_date" v="2018-02-27"/><tag k="communication:mobile_phone" v="yes"/><tag k="operator" v="Wind-Tre"/><tag k="source" v="RAFVG"/><tag k="man_made" v="mast"/></node><node id="-18" version="1" lat="45.947207" lon="13.609207"><tag k="tower:type" v="communication"/><tag k="start_date" v="2018-05-22"/><tag k="communication:mobile_phone" v="yes"/><tag k="operator" v="Wind-Tre"/><tag k="source" v="RAFVG"/><tag k="man_made" v="mast"/></node><node id="-19" version="1" lat="45.945914" lon="13.607416"><tag k="tower:type" v="communication"/><tag k="start_date" v="2014-07-01"/><tag k="communication:mobile_phone" v="yes"/><tag k="operator" v="Vodafone Omnitel"/><tag k="source" v="RAFVG"/><tag k="man_made" v="mast"/></node><node id="-20" version="1" lat="45.917065" lon="13.603443"><tag k="tower:type" v="communication"/><tag k="start_date" v="2014-10-23"/><tag k="communication:mobile_phone" v="yes"/><tag k="operator" v="Vodafone Omnitel"/><tag k="source" v="RAFVG"/><tag k="man_made" v="mast"/></node><node id="-21" version="1" lat="45.854462" lon="13.485455"><tag k="communication:mobile_phone" v="yes"/><tag k="source" v="RAFVG"/><tag k="tower:type" v="communication"/><tag k="start_date" v="2003-12-12"/><tag k="man_made" v="mast"/></node><node id="-22" version="1" lat="45.678027" lon="13.430891"><tag k="tower:type" v="communication"/><tag k="start_date" v="2018-01-30"/><tag k="communication:mobile_phone" v="yes"/><tag k="operator" v="Wind-Tre"/><tag k="source" v="RAFVG"/><tag k="man_made" v="mast"/></node><node id="-23" version="1" lat="45.961275" lon="13.634208"><tag k="tower:type" v="communication"/><tag k="start_date" v="2018-05-02"/><tag k="communication:mobile_phone" v="yes"/><tag k="operator" v="Wind-Tre"/><tag k="source" v="RAFVG"/><tag k="man_made" v="mast"/></node><node id="-24" version="1" lat="45.928879" lon="13.618382"><tag k="tower:type" v="communication"/><tag k="start_date" v="2018-02-12"/><tag k="communication:mobile_phone" v="yes"/><tag k="operator" v="Wind-Tre"/><tag k="source" v="RAFVG"/><tag k="man_made" v="mast"/></node><node id="-25" version="1" lat="45.678315" lon="13.398749"><tag k="tower:type" v="communication"/><tag k="start_date" v="2017-05-12"/><tag k="fixme" v="4 corners"/><tag k="communication:mobile_phone" v="yes"/><tag k="operator" v="Telecom Italia Mobile"/><tag k="source" v="RAFVG"/><tag k="man_made" v="mast"/></node><node id="-26" version="1" lat="45.817331" lon="13.510073"><tag k="tower:type" v="communication"/><tag k="start_date" v="2019-02-19"/><tag k="communication:mobile_phone" v="yes"/><tag k="operator" v="Wind-Tre"/><tag k="source" v="RAFVG"/><tag k="man_made" v="mast"/></node><node id="-27" version="1" lat="45.942374" lon="13.625508"><tag k="tower:type" v="communication"/><tag k="start_date" v="2018-05-08"/><tag k="communication:mobile_phone" v="yes"/><tag k="operator" v="Wind-Tre"/><tag k="source" v="RAFVG"/><tag k="man_made" v="mast"/></node><node id="-28" version="1" lat="45.797951" lon="13.564929"><tag k="tower:type" v="communication"/><tag k="start_date" v="2019-07-31"/><tag k="communication:mobile_phone" v="yes"/><tag k="operator" v="Wind-Tre"/><tag k="source" v="RAFVG"/><tag k="man_made" v="mast"/></node><node id="-29" version="1" lat="45.902232" lon="13.489404"><tag k="tower:type" v="communication"/><tag k="start_date" v="2018-02-12"/><tag k="communication:mobile_phone" v="yes"/><tag k="operator" v="Wind-Tre"/><tag k="source" v="RAFVG"/><tag k="man_made" v="mast"/></node><node id="-30" version="1" lat="45.916432" lon="13.456793"><tag k="tower:type" v="communication"/><tag k="start_date" v="2019-04-08"/><tag k="communication:mobile_phone" v="yes"/><tag k="operator" v="Wind-Tre"/><tag k="source" v="RAFVG"/><tag k="man_made" v="mast"/></node><node id="-31" version="1" lat="45.937158" lon="13.595588"><tag k="tower:type" v="communication"/><tag k="start_date" v="2019-06-14"/><tag k="communication:mobile_phone" v="yes"/><tag k="operator" v="Telecom Italia Mobile"/><tag k="source" v="RAFVG"/><tag k="man_made" v="mast"/></node><node id="-32" version="1" lat="45.897156" lon="13.416826"><tag k="tower:type" v="communication"/><tag k="start_date" v="2014-09-17"/><tag k="communication:mobile_phone" v="yes"/><tag k="operator" v="Telecom Italia Mobile"/><tag k="source" v="RAFVG"/><tag k="man_made" v="mast"/></node><node id="-33" version="1" lat="45.937448" lon="13.612848"><tag k="tower:type" v="communication"/><tag k="start_date" v="2018-03-21"/><tag k="communication:mobile_phone" v="yes"/><tag k="operator" v="Wind-Tre"/><tag k="source" v="RAFVG"/><tag k="man_made" v="mast"/></node><node id="-34" version="1" lat="46.010412" lon="13.473002"><tag k="tower:type" v="communication"/><tag k="start_date" v="2018-03-28"/><tag k="communication:mobile_phone" v="yes"/><tag k="operator" v="Wind-Tre"/><tag k="source" v="RAFVG"/><tag k="man_made" v="mast"/></node><node id="-35" version="1" lat="45.801436" lon="13.503512"><tag k="tower:type" v="communication"/><tag k="start_date" v="2018-04-04"/><tag k="communication:mobile_phone" v="yes"/><tag k="operator" v="Wind-Tre"/><tag k="source" v="RAFVG"/><tag k="man_made" v="mast"/></node><node id="-36" version="1" lat="45.947808" lon="13.631228"><tag k="tower:type" v="communication"/><tag k="start_date" v="2017-12-22"/><tag k="communication:mobile_phone" v="yes"/><tag k="operator" v="Wind-Tre"/><tag k="source" v="RAFVG"/><tag k="man_made" v="mast"/></node><node id="-37" version="1" lat="45.675994" lon="13.388982"><tag k="tower:type" v="communication"/><tag k="start_date" v="2017-12-22"/><tag k="communication:mobile_phone" v="yes"/><tag k="operator" v="Wind-Tre"/><tag k="source" v="RAFVG"/><tag k="man_made" v="mast"/></node><node id="-38" version="1" lat="45.913336" lon="13.59227"><tag k="tower:type" v="communication"/><tag k="start_date" v="2018-01-30"/><tag k="communication:mobile_phone" v="yes"/><tag k="operator" v="Wind-Tre"/><tag k="source" v="RAFVG"/><tag k="man_made" v="mast"/></node><node id="-39" version="1" lat="45.817714" lon="13.522141"><tag k="tower:type" v="communication"/><tag k="start_date" v="2014-06-06"/><tag k="communication:mobile_phone" v="yes"/><tag k="operator" v="Vodafone Omnitel"/><tag k="source" v="RAFVG"/><tag k="man_made" v="mast"/></node><node id="-40" version="1" lat="46.010357" lon="13.472783"><tag k="tower:type" v="communication"/><tag k="start_date" v="2009-07-21"/><tag k="communication:mobile_phone" v="yes"/><tag k="operator" v="Vodafone Omnitel"/><tag k="source" v="RAFVG"/><tag k="man_made" v="mast"/></node><node id="-41" version="1" lat="45.820641" lon="13.577846"><tag k="tower:type" v="communication"/><tag k="start_date" v="2018-02-16"/><tag k="communication:mobile_phone" v="yes"/><tag k="operator" v="Wind-Tre"/><tag k="source" v="RAFVG"/><tag k="man_made" v="mast"/></node><node id="-42" version="1" lat="45.887584" lon="13.456936"><tag k="tower:type" v="communication"/><tag k="start_date" v="2002-10-04"/><tag k="communication:mobile_phone" v="yes"/><tag k="operator" v="Telecom Italia Mobile"/><tag k="source" v="RAFVG"/><tag k="man_made" v="mast"/></node><node id="-43" version="1" lat="45.813088" lon="13.559015"><tag k="communication:mobile_phone" v="yes"/><tag k="operator" v="Vodafone Omnitel"/><tag k="tower:type" v="communication"/><tag k="source" v="RAFVG"/><tag k="man_made" v="mast"/></node><node id="-44" version="1" lat="45.808041" lon="13.532968"><tag k="tower:type" v="communication"/><tag k="start_date" v="2016-06-03"/><tag k="communication:mobile_phone" v="yes"/><tag k="operator" v="Vodafone Omnitel"/><tag k="source" v="RAFVG"/><tag k="man_made" v="mast"/></node><node id="-45" version="1" lat="45.933744" lon="13.629423"><tag k="tower:type" v="communication"/><tag k="start_date" v="2014-07-17"/><tag k="communication:mobile_phone" v="yes"/><tag k="operator" v="Telecom Italia Mobile"/><tag k="source" v="RAFVG"/><tag k="man_made" v="mast"/></node><node id="-46" version="1" lat="45.820365" lon="13.509018"><tag k="tower:type" v="communication"/><tag k="start_date" v="2019-02-12"/><tag k="communication:mobile_phone" v="yes"/><tag k="operator" v="Wind-Tre"/><tag k="source" v="RAFVG"/><tag k="man_made" v="mast"/></node><node id="-47" version="1" lat="45.951407" lon="13.62622"><tag k="tower:type" v="communication"/><tag k="start_date" v="2014-05-21"/><tag k="communication:mobile_phone" v="yes"/><tag k="operator" v="Telecom Italia Mobile"/><tag k="source" v="RAFVG"/><tag k="man_made" v="mast"/></node><node id="-48" version="1" lat="45.889807" lon="13.519071"><tag k="communication:mobile_phone" v="yes"/><tag k="source" v="RAFVG"/><tag k="tower:type" v="communication"/><tag k="start_date" v="2003-11-27"/><tag k="man_made" v="mast"/></node><node id="-49" version="1" lat="45.935941" lon="13.613674"><tag k="communication:mobile_phone" v="yes"/><tag k="source" v="RAFVG"/><tag k="tower:type" v="communication"/><tag k="start_date" v="2006-10-13"/><tag k="man_made" v="mast"/></node><node id="-50" version="1" lat="45.677267" lon="13.382469"><tag k="tower:type" v="communication"/><tag k="start_date" v="2014-10-16"/><tag k="communication:mobile_phone" v="yes"/><tag k="operator" v="Vodafone Omnitel"/><tag k="source" v="RAFVG"/><tag k="man_made" v="mast"/></node><node id="-51" version="1" lat="45.917226" lon="13.419077"><tag k="tower:type" v="communication"/><tag k="start_date" v="2018-03-28"/><tag k="communication:mobile_phone" v="yes"/><tag k="operator" v="Wind-Tre"/><tag k="source" v="RAFVG"/><tag k="man_made" v="mast"/></node><node id="-52" version="1" lat="45.7942" lon="13.465867"><tag k="tower:type" v="communication"/><tag k="start_date" v="2018-12-14"/><tag k="communication:mobile_phone" v="yes"/><tag k="operator" v="Wind-Tre"/><tag k="source" v="RAFVG"/><tag k="man_made" v="mast"/></node><node id="-53" version="1" lat="45.941975" lon="13.59206"><tag k="tower:type" v="communication"/><tag k="source" v="RAFVG"/><tag k="fixme" v="tower"/><tag k="communication:mobile_phone" v="yes"/><tag k="start_date" v="2006-10-06"/><tag k="man_made" v="mast"/></node><node id="-54" version="1" lat="45.680447" lon="13.384849"><tag k="tower:type" v="communication"/><tag k="start_date" v="2017-04-27"/><tag k="communication:mobile_phone" v="yes"/><tag k="operator" v="Vodafone Omnitel"/><tag k="source" v="RAFVG"/><tag k="man_made" v="mast"/></node><node id="-55" version="1" lat="45.933919" lon="13.570471"><tag k="tower:type" v="communication"/><tag k="start_date" v="2014-04-29"/><tag k="communication:mobile_phone" v="yes"/><tag k="operator" v="Telecom Italia Mobile"/><tag k="source" v="RAFVG"/><tag k="man_made" v="mast"/></node><node id="-56" version="1" lat="45.941025" lon="13.517884"><tag k="tower:type" v="communication"/><tag k="start_date" v="2018-02-23"/><tag k="communication:mobile_phone" v="yes"/><tag k="operator" v="Wind-Tre"/><tag k="source" v="RAFVG"/><tag k="man_made" v="mast"/></node><node id="-57" version="1" lat="45.8004397" lon="13.5334343"><tag k="tower:type" v="communication"/><tag k="start_date" v="2018-11-05"/><tag k="communication:mobile_phone" v="yes"/><tag k="operator" v="Wind-Tre"/><tag k="source" v="RAFVG"/><tag k="man_made" v="mast"/></node><node id="-58" version="1" lat="45.95896" lon="13.45884"><tag k="communication:mobile_phone" v="yes"/><tag k="source" v="RAFVG"/><tag k="tower:type" v="communication"/><tag k="start_date" v="2003-09-09"/><tag k="man_made" v="mast"/></node><node id="-59" version="1" lat="45.831309" lon="13.509413"><tag k="tower:type" v="communication"/><tag k="start_date" v="2015-12-10"/><tag k="communication:mobile_phone" v="yes"/><tag k="operator" v="Telecom Italia Mobile"/><tag k="source" v="RAFVG"/><tag k="man_made" v="mast"/></node><node id="-60" version="1" lat="45.675757" lon="13.386679"><tag k="communication:mobile_phone" v="yes"/><tag k="operator" v="Wind-Tre"/><tag k="tower:type" v="communication"/><tag k="source" v="RAFVG"/><tag k="man_made" v="mast"/></node><node id="-61" version="1" lat="45.930061" lon="13.609336"><tag k="communication:mobile_phone" v="yes"/><tag k="source" v="RAFVG"/><tag k="tower:type" v="communication"/><tag k="start_date" v="2014-07-22"/><tag k="man_made" v="mast"/></node><node id="-62" version="1" lat="45.941527" lon="13.634344"><tag k="tower:type" v="communication"/><tag k="start_date" v="2018-02-15"/><tag k="communication:mobile_phone" v="yes"/><tag k="operator" v="Wind-Tre"/><tag k="source" v="RAFVG"/><tag k="man_made" v="mast"/></node><node id="-63" version="1" lat="45.81142" lon="13.535377"><tag k="tower:type" v="communication"/><tag k="start_date" v="2018-01-30"/><tag k="communication:mobile_phone" v="yes"/><tag k="operator" v="Wind-Tre"/><tag k="source" v="RAFVG"/><tag k="man_made" v="mast"/></node><node id="-64" version="1" lat="45.945423" lon="13.61592"><tag k="tower:type" v="communication"/><tag k="start_date" v="2014-05-30"/><tag k="communication:mobile_phone" v="yes"/><tag k="operator" v="Telecom Italia Mobile"/><tag k="source" v="RAFVG"/><tag k="man_made" v="mast"/></node><node id="-65" version="1" lat="45.940284" lon="13.616679"><tag k="tower:type" v="communication"/><tag k="start_date" v="2013-07-11"/><tag k="communication:mobile_phone" v="yes"/><tag k="operator" v="Telecom Italia Mobile"/><tag k="source" v="RAFVG"/><tag k="man_made" v="mast"/></node><node id="-66" version="1" lat="45.794749" lon="13.524735"><tag k="tower:type" v="communication"/><tag k="start_date" v="2014-08-21"/><tag k="fixme" v="tower"/><tag k="communication:mobile_phone" v="yes"/><tag k="operator" v="Vodafone Omnitel"/><tag k="source" v="RAFVG"/><tag k="man_made" v="mast"/></node><node id="-67" version="1" lat="45.775327" lon="13.527169"><tag k="tower:type" v="communication"/><tag k="start_date" v="2018-03-27"/><tag k="communication:mobile_phone" v="yes"/><tag k="operator" v="Wind-Tre"/><tag k="source" v="RAFVG"/><tag k="man_made" v="mast"/></node><node id="-68" version="1" lat="45.943925" lon="13.621812"><tag k="tower:type" v="communication"/><tag k="start_date" v="2014-12-10"/><tag k="communication:mobile_phone" v="yes"/><tag k="operator" v="Telecom Italia Mobile"/><tag k="source" v="RAFVG"/><tag k="man_made" v="mast"/></node><node id="-69" version="1" lat="45.94324" lon="13.633483"><tag k="tower:type" v="communication"/><tag k="start_date" v="2014-09-19"/><tag k="communication:mobile_phone" v="yes"/><tag k="operator" v="Vodafone Omnitel"/><tag k="source" v="RAFVG"/><tag k="man_made" v="mast"/></node><node id="-70" version="1" lat="45.796716" lon="13.494469"><tag k="tower:type" v="communication"/><tag k="start_date" v="2018-03-28"/><tag k="communication:mobile_phone" v="yes"/><tag k="operator" v="Wind-Tre"/><tag k="source" v="RAFVG"/><tag k="man_made" v="mast"/></node><node id="-71" version="1" lat="45.86448" lon="13.44348"><tag k="tower:type" v="communication"/><tag k="start_date" v="2019-04-09"/><tag k="communication:mobile_phone" v="yes"/><tag k="operator" v="Telecom Italia Mobile"/><tag k="source" v="RAFVG"/><tag k="man_made" v="mast"/></node><node id="-72" version="1" lat="45.806863" lon="13.545993"><tag k="communication:mobile_phone" v="yes"/><tag k="source" v="RAFVG"/><tag k="tower:type" v="communication"/><tag k="start_date" v="2003-12-11"/><tag k="man_made" v="mast"/></node><node id="-73" version="1" lat="45.801801" lon="13.543174"><tag k="tower:type" v="communication"/><tag k="start_date" v="2014-05-29"/><tag k="communication:mobile_phone" v="yes"/><tag k="operator" v="Telecom Italia Mobile"/><tag k="source" v="RAFVG"/><tag k="man_made" v="mast"/></node><node id="-74" version="1" lat="45.67951" lon="13.387277"><tag k="tower:type" v="communication"/><tag k="start_date" v="2019-02-19"/><tag k="communication:mobile_phone" v="yes"/><tag k="operator" v="Wind-Tre"/><tag k="source" v="RAFVG"/><tag k="man_made" v="mast"/></node><node id="-75" version="1" lat="45.934879" lon="13.626749"><tag k="tower:type" v="communication"/><tag k="start_date" v="2019-06-12"/><tag k="communication:mobile_phone" v="yes"/><tag k="operator" v="Iliad Italia"/><tag k="source" v="RAFVG"/><tag k="man_made" v="mast"/></node><node id="-76" version="1" lat="45.813411" lon="13.558756"><tag k="tower:type" v="communication"/><tag k="start_date" v="2020-09-11"/><tag k="communication:mobile_phone" v="yes"/><tag k="operator" v="Iliad Italia"/><tag k="source" v="RAFVG"/><tag k="man_made" v="mast"/></node><node id="-77" version="1" lat="45.81253" lon="13.525151"><tag k="tower:type" v="communication"/><tag k="start_date" v="2019-10-31"/><tag k="communication:mobile_phone" v="yes"/><tag k="operator" v="Iliad Italia"/><tag k="source" v="RAFVG"/><tag k="man_made" v="mast"/></node><node id="-78" version="1" lat="45.681653" lon="13.390933"><tag k="tower:type" v="communication"/><tag k="start_date" v="2019-06-03"/><tag k="communication:mobile_phone" v="yes"/><tag k="operator" v="Wind-Tre"/><tag k="source" v="RAFVG"/><tag k="man_made" v="mast"/></node><node id="-79" version="1" lat="45.681345" lon="13.405803"><tag k="tower:type" v="communication"/><tag k="start_date" v="2017-05-30"/><tag k="communication:mobile_phone" v="yes"/><tag k="operator" v="Telecom Italia Mobile"/><tag k="source" v="RAFVG"/><tag k="man_made" v="mast"/></node><node id="-80" version="1" lat="45.807068" lon="13.521733"><tag k="tower:type" v="communication"/><tag k="start_date" v="2018-05-08"/><tag k="communication:mobile_phone" v="yes"/><tag k="operator" v="Wind-Tre"/><tag k="source" v="RAFVG"/><tag k="man_made" v="mast"/></node><node id="-81" version="1" lat="45.813503" lon="13.520353"><tag k="tower:type" v="communication"/><tag k="start_date" v="2018-04-17"/><tag k="communication:mobile_phone" v="yes"/><tag k="operator" v="Wind-Tre"/><tag k="source" v="RAFVG"/><tag k="man_made" v="mast"/></node><node id="-82" version="1" lat="45.896529" lon="13.495088"><tag k="tower:type" v="communication"/><tag k="start_date" v="2020-02-04"/><tag k="communication:mobile_phone" v="yes"/><tag k="operator" v="Telecom Italia Mobile"/><tag k="source" v="RAFVG"/><tag k="man_made" v="mast"/></node><node id="-83" version="1" lat="45.855036" lon="13.434038"><tag k="tower:type" v="communication"/><tag k="start_date" v="2018-02-23"/><tag k="communication:mobile_phone" v="yes"/><tag k="operator" v="Wind-Tre"/><tag k="source" v="RAFVG"/><tag k="man_made" v="mast"/></node><node id="-84" version="1" lat="45.844945" lon="13.53733"><tag k="tower:type" v="communication"/><tag k="start_date" v="2019-09-23"/><tag k="communication:mobile_phone" v="yes"/><tag k="operator" v="Telecom Italia Mobile"/><tag k="source" v="RAFVG"/><tag k="man_made" v="mast"/></node><node id="-85" version="1" lat="45.953792" lon="13.615843"><tag k="tower:type" v="communication"/><tag k="start_date" v="2019-09-27"/><tag k="communication:mobile_phone" v="yes"/><tag k="operator" v="Telecom Italia Mobile"/><tag k="source" v="RAFVG"/><tag k="man_made" v="mast"/></node><node id="-86" version="1" lat="45.875945" lon="13.49266"><tag k="tower:type" v="communication"/><tag k="start_date" v="2019-04-16"/><tag k="communication:mobile_phone" v="yes"/><tag k="operator" v="Wind-Tre"/><tag k="source" v="RAFVG"/><tag k="man_made" v="mast"/></node><node id="-87" version="1" lat="45.679562" lon="13.400604"><tag k="tower:type" v="communication"/><tag k="start_date" v="2020-02-12"/><tag k="communication:mobile_phone" v="yes"/><tag k="operator" v="Wind-Tre"/><tag k="source" v="RAFVG"/><tag k="man_made" v="mast"/></node><node id="-88" version="1" lat="45.679335" lon="13.401388"><tag k="tower:type" v="communication"/><tag k="start_date" v="2019-06-14"/><tag k="communication:mobile_phone" v="yes"/><tag k="operator" v="Iliad Italia"/><tag k="source" v="RAFVG"/><tag k="man_made" v="mast"/></node><node id="-89" version="1" lat="45.681207" lon="13.383103"><tag k="tower:type" v="communication"/><tag k="start_date" v="2019-12-30"/><tag k="communication:mobile_phone" v="yes"/><tag k="operator" v="Wind-Tre"/><tag k="source" v="RAFVG"/><tag k="man_made" v="mast"/></node><node id="-90" version="1" lat="45.82148" lon="13.485094"><tag k="tower:type" v="communication"/><tag k="start_date" v="2019-10-31"/><tag k="communication:mobile_phone" v="yes"/><tag k="operator" v="Wind-Tre"/><tag k="source" v="RAFVG"/><tag k="man_made" v="mast"/></node><node id="-91" version="1" lat="45.883737" lon="13.472494"><tag k="tower:type" v="communication"/><tag k="start_date" v="2020-01-17"/><tag k="communication:mobile_phone" v="yes"/><tag k="operator" v="Iliad Italia"/><tag k="source" v="RAFVG"/><tag k="man_made" v="mast"/></node><node id="-92" version="1" lat="45.80626" lon="13.544422"><tag k="tower:type" v="communication"/><tag k="start_date" v="2019-07-23"/><tag k="communication:mobile_phone" v="yes"/><tag k="operator" v="Iliad Italia"/><tag k="source" v="RAFVG"/><tag k="man_made" v="mast"/></node><node id="-93" version="1" lat="45.929579" lon="13.541776"><tag k="tower:type" v="communication"/><tag k="start_date" v="2020-03-06"/><tag k="communication:mobile_phone" v="yes"/><tag k="operator" v="Iliad Italia"/><tag k="source" v="RAFVG"/><tag k="man_made" v="mast"/></node><node id="-94" version="1" lat="45.897021" lon="13.492136"><tag k="tower:type" v="communication"/><tag k="start_date" v="2020-01-23"/><tag k="communication:mobile_phone" v="yes"/><tag k="operator" v="Iliad Italia"/><tag k="source" v="RAFVG"/><tag k="man_made" v="mast"/></node><node id="-95" version="1" lat="45.792856" lon="13.534329"><tag k="tower:type" v="communication"/><tag k="start_date" v="2020-06-19"/><tag k="communication:mobile_phone" v="yes"/><tag k="operator" v="Vodafone Omnitel"/><tag k="source" v="RAFVG"/><tag k="man_made" v="mast"/></node><node id="-96" version="1" lat="45.955853" lon="13.629893"><tag k="tower:type" v="communication"/><tag k="start_date" v="2014-04-02"/><tag k="communication:mobile_phone" v="yes"/><tag k="operator" v="Telecom Italia Mobile"/><tag k="source" v="RAFVG"/><tag k="man_made" v="mast"/></node><node id="-97" version="1" lat="45.807901" lon="13.535074"><tag k="tower:type" v="communication"/><tag k="start_date" v="2015-06-21"/><tag k="communication:mobile_phone" v="yes"/><tag k="operator" v="Telecom Italia Mobile"/><tag k="source" v="RAFVG"/><tag k="man_made" v="mast"/></node><node id="-98" version="1" lat="45.93251" lon="13.567885"><tag k="tower:type" v="communication"/><tag k="start_date" v="2019-01-24"/><tag k="communication:mobile_phone" v="yes"/><tag k="operator" v="Wind-Tre"/><tag k="source" v="RAFVG"/><tag k="man_made" v="mast"/></node><node id="-99" version="1" lat="45.913541" lon="13.596282"><tag k="tower:type" v="communication"/><tag k="start_date" v="2014-03-26"/><tag k="communication:mobile_phone" v="yes"/><tag k="operator" v="Vodafone Omnitel"/><tag k="source" v="RAFVG"/><tag k="man_made" v="mast"/></node><node id="-100" version="1" lat="45.930344" lon="13.603794"><tag k="tower:type" v="communication"/><tag k="start_date" v="2016-09-14"/><tag k="communication:mobile_phone" v="yes"/><tag k="operator" v="Telecom Italia Mobile"/><tag k="source" v="RAFVG"/><tag k="man_made" v="mast"/></node><node id="-101" version="1" lat="45.682139" lon="13.412966"><tag k="tower:type" v="communication"/><tag k="start_date" v="2018-03-01"/><tag k="communication:mobile_phone" v="yes"/><tag k="operator" v="Wind-Tre"/><tag k="source" v="RAFVG"/><tag k="man_made" v="mast"/></node><node id="-102" version="1" lat="45.678374" lon="13.398766"><tag k="tower:type" v="communication"/><tag k="start_date" v="2015-09-25"/><tag k="communication:mobile_phone" v="yes"/><tag k="operator" v="Vodafone Omnitel"/><tag k="source" v="RAFVG"/><tag k="man_made" v="mast"/></node><node id="-103" version="1" lat="45.802685" lon="13.544947"><tag k="tower:type" v="communication"/><tag k="start_date" v="2018-02-28"/><tag k="communication:mobile_phone" v="yes"/><tag k="operator" v="Wind-Tre"/><tag k="source" v="RAFVG"/><tag k="man_made" v="mast"/></node><node id="-104" version="1" lat="45.846785" lon="13.533405"><tag k="tower:type" v="communication"/><tag k="start_date" v="2018-02-07"/><tag k="communication:mobile_phone" v="yes"/><tag k="operator" v="Wind-Tre"/><tag k="source" v="RAFVG"/><tag k="man_made" v="mast"/></node><node id="-105" version="1" lat="45.813031" lon="13.508266"><tag k="tower:type" v="communication"/><tag k="start_date" v="2019-01-11"/><tag k="communication:mobile_phone" v="yes"/><tag k="operator" v="Wind-Tre"/><tag k="source" v="RAFVG"/><tag k="man_made" v="mast"/></node></osm>