<?xml version='1.0' encoding='utf-8'?>
<osm generator="OSM Conflator 1.3.1" version="0.6"><changeset><tag k="type" v="import"/><tag k="created_by" v="OSM Conflator 1.3.1"/><tag k="source" v="RAFVG"/></changeset><node id="6573952529" version="2" lat="46.04672" lon="12.54008" action="modify"><tag k="man_made" v="tower"/><tag k="source" v="RAFVG"/><tag k="tower:type" v="communication"/><tag k="ref" v="121"/><tag k="operator" v="Wind-Tre"/><tag k="communication:mobile_phone" v="yes"/><tag k="start_date" v="2019-08-22"/></node><node id="7419700209" version="1" lat="45.916136" lon="12.7586473" action="modify"><tag k="man_made" v="mast"/><tag k="tower:construction" v="traliccio"/><tag k="fixme" v="fix tag"/><tag k="source" v="RAFVG"/><tag k="tower:type" v="communication"/><tag k="operator" v="Vodafone Omnitel"/><tag k="communication:mobile_phone" v="yes"/><tag k="start_date" v="2014-04-14"/></node><node id="2495055713" version="3" lat="45.8490047" lon="12.8921769" action="modify"><tag k="man_made" v="tower"/><tag k="owner" v="WIND"/><tag k="source" v="RAFVG"/><tag k="tower:type" v="communication"/><tag k="operator" v="Wind-tre"/><tag k="communication:mobile_phone" v="yes"/><tag k="start_date" v="2019-04-11"/></node><node id="7419700232" version="1" lat="45.9299609" lon="12.7335182" action="modify"><tag k="man_made" v="mast"/><tag k="tower:construction" v="traliccio"/><tag k="fixme" v="fix tag"/><tag k="source" v="RAFVG"/><tag k="tower:type" v="communication"/><tag k="operator" v="Wind-tre"/><tag k="communication:mobile_phone" v="yes"/><tag k="start_date" v="2019-06-10"/></node><node id="6341112933" version="2" lat="45.8462761" lon="12.8844436" action="modify"><tag k="man_made" v="tower"/><tag k="source" v="RAFVG"/><tag k="tower:type" v="communication"/><tag k="operator" v="Wind-tre"/><tag k="communication:mobile_phone" v="yes"/><tag k="start_date" v="2019-04-02"/><tag k="description" v="H3G"/></node><node id="4144980076" version="1" lat="46.1417594" lon="12.783262" action="modify"><tag k="man_made" v="mast"/><tag k="source" v="RAFVG"/><tag k="tower:type" v="communication"/><tag k="operator" v="Wind-tre"/><tag k="communication:mobile_phone" v="yes"/><tag k="start_date" v="2019-09-17"/></node><node id="3506974370" version="4" lat="46.1154801" lon="12.6157301" action="modify"><tag k="man_made" v="tower"/><tag k="source" v="RAFVG"/><tag k="tower:type" v="communication"/><tag k="operator" v="Wind-tre"/><tag k="communication:mobile_phone" v="yes"/><tag k="start_date" v="2011-11-16"/></node><node id="7170349793" version="4" lat="45.8533246" lon="12.8106008" action="modify"><tag k="man_made" v="tower"/><tag k="start_date" v="2017-07-14"/><tag k="communication:mobile" v="yes"/><tag k="source" v="RAFVG"/><tag k="tower:type" v="communication"/><tag k="operator" v="Telecom Italia Mobile"/><tag k="communication:mobile_phone" v="yes"/><tag k="communication:gsm" v="yes"/><tag k="communication:antenna" v="yes"/></node><node id="-1" version="1" lat="46.1913" lon="12.561892"><tag k="man_made" v="mast"/><tag k="source" v="RAFVG"/><tag k="tower:type" v="communication"/><tag k="operator" v="Vodafone Omnitel"/><tag k="communication:mobile_phone" v="yes"/><tag k="start_date" v="2012-03-01"/></node><node id="-2" version="1" lat="45.892388" lon="12.682247"><tag k="man_made" v="mast"/><tag k="source" v="RAFVG"/><tag k="tower:type" v="communication"/><tag k="operator" v="Telecom Italia Mobile"/><tag k="communication:mobile_phone" v="yes"/><tag k="start_date" v="2014-03-25"/></node><node id="-3" version="1" lat="45.953588" lon="12.506361"><tag k="man_made" v="mast"/><tag k="source" v="RAFVG"/><tag k="tower:type" v="communication"/><tag k="operator" v="Telecom Italia Mobile"/><tag k="communication:mobile_phone" v="yes"/><tag k="start_date" v="2014-07-07"/></node><node id="-4" version="1" lat="45.945525" lon="12.757693"><tag k="man_made" v="mast"/><tag k="source" v="RAFVG"/><tag k="tower:type" v="communication"/><tag k="operator" v="Altro Gestore"/><tag k="communication:mobile_phone" v="yes"/><tag k="start_date" v="2003-11-25"/></node><node id="-5" version="1" lat="46.108875" lon="12.899302"><tag k="man_made" v="mast"/><tag k="source" v="RAFVG"/><tag k="tower:type" v="communication"/><tag k="operator" v="Telecom Italia Mobile"/><tag k="communication:mobile_phone" v="yes"/><tag k="start_date" v="2015-02-24"/></node><node id="-6" version="1" lat="45.84997" lon="12.707461"><tag k="man_made" v="mast"/><tag k="source" v="RAFVG"/><tag k="tower:type" v="communication"/><tag k="operator" v="Telecom Italia Mobile"/><tag k="communication:mobile_phone" v="yes"/><tag k="start_date" v="2015-06-11"/></node><node id="-7" version="1" lat="46.0335433" lon="12.83676"><tag k="man_made" v="mast"/><tag k="source" v="RAFVG"/><tag k="tower:type" v="communication"/><tag k="operator" v="Telecom Italia Mobile"/><tag k="communication:mobile_phone" v="yes"/><tag k="start_date" v="2014-02-24"/></node><node id="-8" version="1" lat="46.109169" lon="12.877254"><tag k="man_made" v="mast"/><tag k="source" v="RAFVG"/><tag k="tower:type" v="communication"/><tag k="operator" v="Wind-tre"/><tag k="communication:mobile_phone" v="yes"/><tag k="start_date" v="2012-02-23"/></node><node id="-9" version="1" lat="46.156583" lon="12.836927"><tag k="man_made" v="mast"/><tag k="source" v="RAFVG"/><tag k="tower:type" v="communication"/><tag k="operator" v="Vodafone Omnitel"/><tag k="communication:mobile_phone" v="yes"/><tag k="start_date" v="2015-01-27"/></node><node id="-10" version="1" lat="45.9455" lon="12.654554"><tag k="man_made" v="mast"/><tag k="source" v="RAFVG"/><tag k="tower:type" v="communication"/><tag k="operator" v="Vodafone Omnitel"/><tag k="communication:mobile_phone" v="yes"/><tag k="start_date" v="2015-12-10"/></node><node id="-11" version="1" lat="45.944126" lon="12.665232"><tag k="man_made" v="mast"/><tag k="source" v="RAFVG"/><tag k="tower:type" v="communication"/><tag k="operator" v="Vodafone Omnitel"/><tag k="communication:mobile_phone" v="yes"/><tag k="start_date" v="2015-09-01"/></node><node id="-12" version="1" lat="46.215268" lon="12.918163"><tag k="man_made" v="mast"/><tag k="source" v="RAFVG"/><tag k="tower:type" v="communication"/><tag k="operator" v="Telecom Italia Mobile"/><tag k="communication:mobile_phone" v="yes"/><tag k="start_date" v="2014-01-09"/></node><node id="-13" version="1" lat="45.953947" lon="12.49502"><tag k="man_made" v="mast"/><tag k="source" v="RAFVG"/><tag k="tower:type" v="communication"/><tag k="operator" v="Vodafone Omnitel"/><tag k="communication:mobile_phone" v="yes"/><tag k="start_date" v="2014-10-02"/></node><node id="-14" version="1" lat="45.996217" lon="12.547207"><tag k="man_made" v="mast"/><tag k="source" v="RAFVG"/><tag k="tower:type" v="communication"/><tag k="operator" v="Vodafone Omnitel"/><tag k="communication:mobile_phone" v="yes"/><tag k="start_date" v="2015-01-13"/></node><node id="-15" version="1" lat="46.194671" lon="12.857491"><tag k="man_made" v="mast"/><tag k="source" v="RAFVG"/><tag k="tower:type" v="communication"/><tag k="operator" v="Wind-tre"/><tag k="communication:mobile_phone" v="yes"/><tag k="start_date" v="2017-03-16"/></node><node id="-16" version="1" lat="46.095613" lon="12.589932"><tag k="man_made" v="mast"/><tag k="source" v="RAFVG"/><tag k="tower:type" v="communication"/><tag k="operator" v="Telecom Italia Mobile"/><tag k="communication:mobile_phone" v="yes"/><tag k="start_date" v="2014-10-17"/></node><node id="-17" version="1" lat="45.9614857" lon="12.6438662"><tag k="man_made" v="mast"/><tag k="source" v="RAFVG"/><tag k="tower:type" v="communication"/><tag k="operator" v="Telecom Italia Mobile"/><tag k="communication:mobile_phone" v="yes"/><tag k="start_date" v="2014-03-21"/></node><node id="-18" version="1" lat="45.985611" lon="12.560581"><tag k="man_made" v="mast"/><tag k="source" v="RAFVG"/><tag k="tower:type" v="communication"/><tag k="operator" v="Telecom Italia Mobile"/><tag k="communication:mobile_phone" v="yes"/><tag k="start_date" v="2014-07-21"/></node><node id="-19" version="1" lat="45.963223" lon="12.703299"><tag k="man_made" v="mast"/><tag k="source" v="RAFVG"/><tag k="tower:type" v="communication"/><tag k="operator" v="Telecom Italia Mobile"/><tag k="communication:mobile_phone" v="yes"/><tag k="start_date" v="2019-10-24"/></node><node id="-20" version="1" lat="45.9652332" lon="12.67156"><tag k="man_made" v="mast"/><tag k="source" v="RAFVG"/><tag k="tower:type" v="communication"/><tag k="operator" v="Vodafone Omnitel"/><tag k="communication:mobile_phone" v="yes"/><tag k="start_date" v="2014-12-01"/></node><node id="-21" version="1" lat="46.030747" lon="12.649072"><tag k="man_made" v="mast"/><tag k="source" v="RAFVG"/><tag k="tower:type" v="communication"/><tag k="operator" v="Vodafone Omnitel"/><tag k="communication:mobile_phone" v="yes"/><tag k="start_date" v="2014-10-28"/></node><node id="-22" version="1" lat="45.967356" lon="12.678534"><tag k="man_made" v="mast"/><tag k="source" v="RAFVG"/><tag k="tower:type" v="communication"/><tag k="operator" v="Telecom Italia Mobile"/><tag k="communication:mobile_phone" v="yes"/><tag k="start_date" v="2014-04-17"/></node><node id="-23" version="1" lat="45.928379" lon="12.731742"><tag k="man_made" v="mast"/><tag k="source" v="RAFVG"/><tag k="tower:type" v="communication"/><tag k="operator" v="Vodafone Omnitel"/><tag k="communication:mobile_phone" v="yes"/><tag k="start_date" v="2014-12-18"/></node><node id="-24" version="1" lat="46.026619" lon="12.61904"><tag k="man_made" v="mast"/><tag k="source" v="RAFVG"/><tag k="tower:type" v="communication"/><tag k="operator" v="Wind-tre"/><tag k="communication:mobile_phone" v="yes"/><tag k="start_date" v="2014-12-03"/></node><node id="-25" version="1" lat="46.012331" lon="12.628476"><tag k="man_made" v="mast"/><tag k="source" v="RAFVG"/><tag k="tower:type" v="communication"/><tag k="operator" v="Vodafone Omnitel"/><tag k="communication:mobile_phone" v="yes"/><tag k="start_date" v="2014-02-20"/></node><node id="-26" version="1" lat="46.203926" lon="12.797038"><tag k="man_made" v="mast"/><tag k="source" v="RAFVG"/><tag k="tower:type" v="communication"/><tag k="operator" v="Vodafone Omnitel"/><tag k="communication:mobile_phone" v="yes"/><tag k="start_date" v="2015-05-13"/></node><node id="-27" version="1" lat="45.947364" lon="12.490612"><tag k="man_made" v="mast"/><tag k="source" v="RAFVG"/><tag k="tower:type" v="communication"/><tag k="operator" v="Altro Gestore"/><tag k="communication:mobile_phone" v="yes"/><tag k="start_date" v="2005-06-17"/></node><node id="-28" version="1" lat="45.96812" lon="12.454793"><tag k="man_made" v="mast"/><tag k="source" v="RAFVG"/><tag k="tower:type" v="communication"/><tag k="operator" v="Vodafone Omnitel"/><tag k="communication:mobile_phone" v="yes"/><tag k="start_date" v="2014-04-02"/></node><node id="-29" version="1" lat="45.913076" lon="12.553046"><tag k="man_made" v="mast"/><tag k="source" v="RAFVG"/><tag k="tower:type" v="communication"/><tag k="operator" v="Telecom Italia Mobile"/><tag k="communication:mobile_phone" v="yes"/><tag k="start_date" v="2015-06-05"/></node><node id="-30" version="1" lat="45.982707" lon="12.472136"><tag k="man_made" v="mast"/><tag k="source" v="RAFVG"/><tag k="tower:type" v="communication"/><tag k="operator" v="Vodafone Omnitel"/><tag k="communication:mobile_phone" v="yes"/><tag k="start_date" v="2015-06-17"/></node><node id="-31" version="1" lat="45.913458" lon="12.665826"><tag k="man_made" v="mast"/><tag k="source" v="RAFVG"/><tag k="tower:type" v="communication"/><tag k="operator" v="Vodafone Omnitel"/><tag k="communication:mobile_phone" v="yes"/><tag k="start_date" v="2014-04-23"/></node><node id="-32" version="1" lat="45.954905" lon="12.774684"><tag k="man_made" v="mast"/><tag k="source" v="RAFVG"/><tag k="tower:type" v="communication"/><tag k="operator" v="Telecom Italia Mobile"/><tag k="communication:mobile_phone" v="yes"/><tag k="start_date" v="2014-04-15"/></node><node id="-33" version="1" lat="46.018478" lon="12.860621"><tag k="man_made" v="mast"/><tag k="source" v="RAFVG"/><tag k="tower:type" v="communication"/><tag k="operator" v="Vodafone Omnitel"/><tag k="communication:mobile_phone" v="yes"/><tag k="start_date" v="2015-01-08"/></node><node id="-34" version="1" lat="45.972857" lon="12.566895"><tag k="man_made" v="mast"/><tag k="source" v="RAFVG"/><tag k="tower:type" v="communication"/><tag k="operator" v="Vodafone Omnitel"/><tag k="communication:mobile_phone" v="yes"/><tag k="start_date" v="2014-07-21"/></node><node id="-35" version="1" lat="45.981858" lon="12.709061"><tag k="man_made" v="mast"/><tag k="source" v="RAFVG"/><tag k="tower:type" v="communication"/><tag k="operator" v="Telecom Italia Mobile"/><tag k="communication:mobile_phone" v="yes"/><tag k="start_date" v="2014-01-30"/></node><node id="-36" version="1" lat="45.94388" lon="12.60762"><tag k="man_made" v="mast"/><tag k="source" v="RAFVG"/><tag k="tower:type" v="communication"/><tag k="operator" v="Vodafone Omnitel"/><tag k="communication:mobile_phone" v="yes"/><tag k="start_date" v="2014-08-18"/></node><node id="-37" version="1" lat="45.981681" lon="12.476668"><tag k="man_made" v="mast"/><tag k="source" v="RAFVG"/><tag k="tower:type" v="communication"/><tag k="operator" v="Wind-tre"/><tag k="communication:mobile_phone" v="yes"/><tag k="start_date" v="2017-06-01"/></node><node id="-38" version="1" lat="45.968888" lon="12.772598"><tag k="man_made" v="mast"/><tag k="source" v="RAFVG"/><tag k="tower:type" v="communication"/><tag k="operator" v="Vodafone Omnitel"/><tag k="communication:mobile_phone" v="yes"/><tag k="start_date" v="2015-06-22"/></node><node id="-39" version="1" lat="46.164897" lon="12.711905"><tag k="man_made" v="mast"/><tag k="source" v="RAFVG"/><tag k="tower:type" v="communication"/><tag k="operator" v="Wind-tre"/><tag k="communication:mobile_phone" v="yes"/><tag k="start_date" v="2019-06-20"/></node><node id="-40" version="1" lat="45.945601" lon="12.878914"><tag k="man_made" v="mast"/><tag k="fixme" v="unire"/><tag k="source" v="RAFVG"/><tag k="tower:type" v="communication"/><tag k="operator" v="Telecom Italia Mobile"/><tag k="communication:mobile_phone" v="yes"/><tag k="start_date" v="2014-03-25"/></node><node id="-41" version="1" lat="45.978636" lon="12.578629"><tag k="man_made" v="mast"/><tag k="source" v="RAFVG"/><tag k="tower:type" v="communication"/><tag k="operator" v="Wind-tre"/><tag k="communication:mobile_phone" v="yes"/><tag k="start_date" v="2019-06-26"/></node><node id="-42" version="1" lat="45.896141" lon="12.543094"><tag k="man_made" v="mast"/><tag k="source" v="RAFVG"/><tag k="tower:type" v="communication"/><tag k="operator" v="Vodafone Omnitel"/><tag k="communication:mobile_phone" v="yes"/><tag k="start_date" v="2014-05-05"/></node><node id="-43" version="1" lat="45.814956" lon="12.681492"><tag k="man_made" v="mast"/><tag k="source" v="RAFVG"/><tag k="tower:type" v="communication"/><tag k="operator" v="Telecom Italia Mobile"/><tag k="communication:mobile_phone" v="yes"/><tag k="start_date" v="2017-09-07"/></node><node id="-44" version="1" lat="46.1992844" lon="12.9072136"><tag k="man_made" v="mast"/><tag k="fixme" v="unire"/><tag k="source" v="RAFVG"/><tag k="tower:type" v="communication"/><tag k="operator" v="Telecom Italia Mobile"/><tag k="communication:mobile_phone" v="yes"/><tag k="start_date" v="2014-03-14"/></node><node id="-45" version="1" lat="46.152993" lon="12.709662"><tag k="man_made" v="mast"/><tag k="source" v="RAFVG"/><tag k="tower:type" v="communication"/><tag k="operator" v="Vodafone Omnitel"/><tag k="communication:mobile_phone" v="yes"/><tag k="start_date" v="2014-04-02"/></node><node id="-46" version="1" lat="45.912587" lon="12.705734"><tag k="man_made" v="mast"/><tag k="source" v="RAFVG"/><tag k="tower:type" v="communication"/><tag k="operator" v="Telecom Italia Mobile"/><tag k="communication:mobile_phone" v="yes"/><tag k="start_date" v="2014-08-22"/></node><node id="-47" version="1" lat="46.107223" lon="12.520461"><tag k="man_made" v="mast"/><tag k="source" v="RAFVG"/><tag k="tower:type" v="communication"/><tag k="operator" v="Telecom Italia Mobile"/><tag k="communication:mobile_phone" v="yes"/><tag k="start_date" v="2014-07-11"/></node><node id="-48" version="1" lat="45.870018" lon="12.863632"><tag k="man_made" v="mast"/><tag k="source" v="RAFVG"/><tag k="tower:type" v="communication"/><tag k="operator" v="Telecom Italia Mobile"/><tag k="communication:mobile_phone" v="yes"/><tag k="start_date" v="2017-09-07"/></node><node id="-49" version="1" lat="46.109981" lon="12.785155"><tag k="man_made" v="mast"/><tag k="source" v="RAFVG"/><tag k="tower:type" v="communication"/><tag k="operator" v="Vodafone Omnitel"/><tag k="communication:mobile_phone" v="yes"/><tag k="start_date" v="2014-05-06"/></node><node id="-50" version="1" lat="45.87009" lon="12.563869"><tag k="man_made" v="mast"/><tag k="source" v="RAFVG"/><tag k="tower:type" v="communication"/><tag k="operator" v="Vodafone Omnitel"/><tag k="communication:mobile_phone" v="yes"/><tag k="start_date" v="2015-08-04"/></node><node id="-51" version="1" lat="45.953488" lon="12.608665"><tag k="man_made" v="mast"/><tag k="source" v="RAFVG"/><tag k="tower:type" v="communication"/><tag k="operator" v="Vodafone Omnitel"/><tag k="communication:mobile_phone" v="yes"/><tag k="start_date" v="2014-08-07"/></node><node id="-52" version="1" lat="46.070176" lon="12.585072"><tag k="man_made" v="mast"/><tag k="source" v="RAFVG"/><tag k="tower:type" v="communication"/><tag k="operator" v="Vodafone Omnitel"/><tag k="communication:mobile_phone" v="yes"/><tag k="start_date" v="2014-11-04"/></node><node id="-53" version="1" lat="45.967978" lon="12.668304"><tag k="man_made" v="mast"/><tag k="source" v="RAFVG"/><tag k="tower:type" v="communication"/><tag k="operator" v="Telecom Italia Mobile"/><tag k="communication:mobile_phone" v="yes"/><tag k="start_date" v="2014-03-21"/></node><node id="-54" version="1" lat="46.132514" lon="12.875343"><tag k="man_made" v="mast"/><tag k="source" v="RAFVG"/><tag k="tower:type" v="communication"/><tag k="operator" v="Vodafone Omnitel"/><tag k="communication:mobile_phone" v="yes"/><tag k="start_date" v="2014-08-25"/></node><node id="-55" version="1" lat="46.082964" lon="12.778081"><tag k="man_made" v="mast"/><tag k="source" v="RAFVG"/><tag k="tower:type" v="communication"/><tag k="operator" v="Wind-tre"/><tag k="communication:mobile_phone" v="yes"/><tag k="start_date" v="2017-04-05"/></node><node id="-56" version="1" lat="46.1896223" lon="12.9528004"><tag k="man_made" v="mast"/><tag k="source" v="RAFVG"/><tag k="tower:type" v="communication"/><tag k="operator" v="Altro Gestore"/><tag k="communication:mobile_phone" v="yes"/><tag k="start_date" v="2004-08-02"/></node><node id="-57" version="1" lat="46.262618" lon="12.468597"><tag k="man_made" v="mast"/><tag k="fixme" v="unire"/><tag k="source" v="RAFVG"/><tag k="tower:type" v="communication"/><tag k="operator" v="Wind-tre"/><tag k="communication:mobile_phone" v="yes"/><tag k="start_date" v="2017-03-13"/></node><node id="-58" version="1" lat="45.946952" lon="12.492785"><tag k="man_made" v="mast"/><tag k="source" v="RAFVG"/><tag k="tower:type" v="communication"/><tag k="operator" v="Telecom Italia Mobile"/><tag k="communication:mobile_phone" v="yes"/><tag k="start_date" v="2014-05-09"/></node><node id="-59" version="1" lat="46.245576" lon="12.924027"><tag k="man_made" v="mast"/><tag k="source" v="RAFVG"/><tag k="tower:type" v="communication"/><tag k="operator" v="Telecom Italia Mobile"/><tag k="communication:mobile_phone" v="yes"/><tag k="start_date" v="2017-09-05"/></node><node id="-60" version="1" lat="46.1491807" lon="12.665104"><tag k="man_made" v="mast"/><tag k="source" v="RAFVG"/><tag k="tower:type" v="communication"/><tag k="operator" v="Wind-tre"/><tag k="communication:mobile_phone" v="yes"/><tag k="start_date" v="2019-08-22"/></node><node id="-61" version="1" lat="45.985904" lon="12.586211"><tag k="man_made" v="mast"/><tag k="source" v="RAFVG"/><tag k="tower:type" v="communication"/><tag k="operator" v="Telecom Italia Mobile"/><tag k="communication:mobile_phone" v="yes"/><tag k="start_date" v="2017-10-25"/></node><node id="-62" version="1" lat="46.046487" lon="12.539535"><tag k="man_made" v="mast"/><tag k="source" v="RAFVG"/><tag k="tower:type" v="communication"/><tag k="operator" v="Telecom Italia Mobile"/><tag k="communication:mobile_phone" v="yes"/><tag k="start_date" v="2015-08-04"/></node><node id="-63" version="1" lat="46.028618" lon="12.682205"><tag k="man_made" v="mast"/><tag k="source" v="RAFVG"/><tag k="tower:type" v="communication"/><tag k="operator" v="Telecom Italia Mobile"/><tag k="communication:mobile_phone" v="yes"/><tag k="start_date" v="2015-11-25"/></node><node id="-64" version="1" lat="45.947087" lon="12.717159"><tag k="man_made" v="mast"/><tag k="source" v="RAFVG"/><tag k="tower:type" v="communication"/><tag k="operator" v="Vodafone Omnitel"/><tag k="communication:mobile_phone" v="yes"/><tag k="start_date" v="2014-08-19"/></node><node id="-65" version="1" lat="45.993215" lon="12.549321"><tag k="man_made" v="mast"/><tag k="source" v="RAFVG"/><tag k="tower:type" v="communication"/><tag k="operator" v="Vodafone Omnitel"/><tag k="communication:mobile_phone" v="yes"/><tag k="start_date" v="2015-12-29"/></node><node id="-66" version="1" lat="45.956304" lon="12.838914"><tag k="man_made" v="mast"/><tag k="source" v="RAFVG"/><tag k="tower:type" v="communication"/><tag k="operator" v="Telecom Italia Mobile"/><tag k="communication:mobile_phone" v="yes"/><tag k="start_date" v="2012-08-10"/></node><node id="-67" version="1" lat="45.878754" lon="12.889152"><tag k="man_made" v="mast"/><tag k="source" v="RAFVG"/><tag k="tower:type" v="communication"/><tag k="operator" v="Telecom Italia Mobile"/><tag k="communication:mobile_phone" v="yes"/><tag k="start_date" v="2012-11-19"/></node><node id="-68" version="1" lat="45.959805" lon="12.596171"><tag k="man_made" v="mast"/><tag k="source" v="RAFVG"/><tag k="tower:type" v="communication"/><tag k="operator" v="Telecom Italia Mobile"/><tag k="communication:mobile_phone" v="yes"/><tag k="start_date" v="2018-08-10"/></node><node id="-69" version="1" lat="45.986642" lon="12.618524"><tag k="man_made" v="mast"/><tag k="source" v="RAFVG"/><tag k="tower:type" v="communication"/><tag k="operator" v="Telecom Italia Mobile"/><tag k="communication:mobile_phone" v="yes"/><tag k="start_date" v="2015-05-07"/></node><node id="-70" version="1" lat="45.975353" lon="12.798059"><tag k="man_made" v="mast"/><tag k="source" v="RAFVG"/><tag k="tower:type" v="communication"/><tag k="operator" v="Vodafone Omnitel"/><tag k="communication:mobile_phone" v="yes"/><tag k="start_date" v="2014-06-17"/></node><node id="-71" version="1" lat="45.8546804" lon="12.6380673"><tag k="man_made" v="mast"/><tag k="source" v="RAFVG"/><tag k="tower:type" v="communication"/><tag k="operator" v="Telecom Italia Mobile"/><tag k="communication:mobile_phone" v="yes"/><tag k="start_date" v="2012-07-25"/></node><node id="-72" version="1" lat="46.016183" lon="12.602087"><tag k="man_made" v="mast"/><tag k="source" v="RAFVG"/><tag k="tower:type" v="communication"/><tag k="operator" v="Wind-tre"/><tag k="communication:mobile_phone" v="yes"/><tag k="start_date" v="2011-11-29"/></node><node id="-73" version="1" lat="46.099379" lon="12.678329"><tag k="man_made" v="mast"/><tag k="fixme" v="unire"/><tag k="source" v="RAFVG"/><tag k="tower:type" v="communication"/><tag k="operator" v="Telecom Italia Mobile"/><tag k="communication:mobile_phone" v="yes"/><tag k="start_date" v="2014-06-23"/></node><node id="-74" version="1" lat="46.099159" lon="12.86314"><tag k="man_made" v="mast"/><tag k="source" v="RAFVG"/><tag k="tower:type" v="communication"/><tag k="operator" v="Telecom Italia Mobile"/><tag k="communication:mobile_phone" v="yes"/><tag k="start_date" v="2015-02-24"/></node><node id="-75" version="1" lat="46.1417288" lon="12.7832928"><tag k="man_made" v="mast"/><tag k="fixme" v="unire"/><tag k="source" v="RAFVG"/><tag k="tower:type" v="communication"/><tag k="operator" v="Vodafone Omnitel"/><tag k="communication:mobile_phone" v="yes"/><tag k="start_date" v="2002-05-24"/></node><node id="-76" version="1" lat="45.950752" lon="12.673828"><tag k="man_made" v="mast"/><tag k="source" v="RAFVG"/><tag k="tower:type" v="communication"/><tag k="operator" v="Vodafone Omnitel"/><tag k="communication:mobile_phone" v="yes"/><tag k="start_date" v="2017-10-25"/></node><node id="-77" version="1" lat="46.022139" lon="12.612359"><tag k="man_made" v="mast"/><tag k="source" v="RAFVG"/><tag k="tower:type" v="communication"/><tag k="operator" v="Telecom Italia Mobile"/><tag k="communication:mobile_phone" v="yes"/><tag k="start_date" v="2012-08-10"/></node><node id="-78" version="1" lat="45.91201" lon="12.858559"><tag k="man_made" v="mast"/><tag k="source" v="RAFVG"/><tag k="tower:type" v="communication"/><tag k="operator" v="Vodafone Omnitel"/><tag k="communication:mobile_phone" v="yes"/><tag k="start_date" v="2015-06-05"/></node><node id="-79" version="1" lat="45.94854" lon="12.654781"><tag k="man_made" v="mast"/><tag k="source" v="RAFVG"/><tag k="tower:type" v="communication"/><tag k="operator" v="Telecom Italia Mobile"/><tag k="communication:mobile_phone" v="yes"/><tag k="start_date" v="2014-10-02"/></node><node id="-80" version="1" lat="45.899139" lon="12.532562"><tag k="man_made" v="mast"/><tag k="source" v="RAFVG"/><tag k="tower:type" v="communication"/><tag k="operator" v="Altro Gestore"/><tag k="communication:mobile_phone" v="yes"/><tag k="start_date" v="2016-10-03"/></node><node id="-81" version="1" lat="45.933114" lon="12.503225"><tag k="man_made" v="mast"/><tag k="source" v="RAFVG"/><tag k="tower:type" v="communication"/><tag k="operator" v="Vodafone Omnitel"/><tag k="communication:mobile_phone" v="yes"/><tag k="start_date" v="2015-07-06"/></node><node id="-82" version="1" lat="45.960279" lon="12.661529"><tag k="man_made" v="mast"/><tag k="source" v="RAFVG"/><tag k="tower:type" v="communication"/><tag k="operator" v="Vodafone Omnitel"/><tag k="communication:mobile_phone" v="yes"/><tag k="start_date" v="2016-05-25"/></node><node id="-83" version="1" lat="46.256677" lon="12.817294"><tag k="man_made" v="mast"/><tag k="source" v="RAFVG"/><tag k="tower:type" v="communication"/><tag k="operator" v="Telecom Italia Mobile"/><tag k="communication:mobile_phone" v="yes"/><tag k="start_date" v="2015-03-20"/></node><node id="-84" version="1" lat="46.287293" lon="12.434511"><tag k="man_made" v="mast"/><tag k="fixme" v="man_made=tower"/><tag k="source" v="RAFVG"/><tag k="tower:type" v="communication"/><tag k="operator" v="Telecom Italia Mobile"/><tag k="communication:mobile_phone" v="yes"/><tag k="start_date" v="2014-01-13"/></node><node id="-85" version="1" lat="46.182736" lon="12.945261"><tag k="man_made" v="mast"/><tag k="source" v="RAFVG"/><tag k="tower:type" v="communication"/><tag k="operator" v="Telecom Italia Mobile"/><tag k="communication:mobile_phone" v="yes"/><tag k="start_date" v="2014-02-27"/></node><node id="-86" version="1" lat="45.97467" lon="12.662795"><tag k="man_made" v="mast"/><tag k="source" v="RAFVG"/><tag k="tower:type" v="communication"/><tag k="operator" v="Telecom Italia Mobile"/><tag k="communication:mobile_phone" v="yes"/><tag k="start_date" v="2014-03-26"/></node><node id="-87" version="1" lat="45.964553" lon="12.651611"><tag k="man_made" v="mast"/><tag k="source" v="RAFVG"/><tag k="tower:type" v="communication"/><tag k="operator" v="Vodafone Omnitel"/><tag k="communication:mobile_phone" v="yes"/><tag k="start_date" v="2016-06-17"/></node><node id="-88" version="1" lat="45.952653" lon="12.688716"><tag k="man_made" v="mast"/><tag k="source" v="RAFVG"/><tag k="tower:type" v="communication"/><tag k="operator" v="Telecom Italia Mobile"/><tag k="communication:mobile_phone" v="yes"/><tag k="start_date" v="2015-03-11"/></node><node id="-89" version="1" lat="45.97275" lon="12.666141"><tag k="man_made" v="mast"/><tag k="source" v="RAFVG"/><tag k="tower:type" v="communication"/><tag k="operator" v="Altro Gestore"/><tag k="communication:mobile_phone" v="yes"/><tag k="start_date" v="2017-05-03"/></node><node id="-90" version="1" lat="45.963239" lon="12.702999"><tag k="man_made" v="mast"/><tag k="source" v="RAFVG"/><tag k="tower:type" v="communication"/><tag k="operator" v="Vodafone Omnitel"/><tag k="communication:mobile_phone" v="yes"/><tag k="start_date" v="2015-02-19"/></node><node id="-91" version="1" lat="45.88332" lon="12.716425"><tag k="man_made" v="mast"/><tag k="source" v="RAFVG"/><tag k="tower:type" v="communication"/><tag k="operator" v="Vodafone Omnitel"/><tag k="communication:mobile_phone" v="yes"/><tag k="start_date" v="2015-05-15"/></node><node id="-92" version="1" lat="45.972734" lon="12.675856"><tag k="man_made" v="mast"/><tag k="source" v="RAFVG"/><tag k="tower:type" v="communication"/><tag k="operator" v="Altro Gestore"/><tag k="communication:mobile_phone" v="yes"/><tag k="start_date" v="2006-10-18"/></node><node id="-93" version="1" lat="46.270109" lon="12.381986"><tag k="man_made" v="mast"/><tag k="fixme" v="unire"/><tag k="source" v="RAFVG"/><tag k="tower:type" v="communication"/><tag k="operator" v="Vodafone Omnitel"/><tag k="communication:mobile_phone" v="yes"/><tag k="start_date" v="2015-01-12"/></node><node id="-94" version="1" lat="45.947289" lon="12.753371"><tag k="man_made" v="mast"/><tag k="source" v="RAFVG"/><tag k="tower:type" v="communication"/><tag k="operator" v="Telecom Italia Mobile"/><tag k="communication:mobile_phone" v="yes"/><tag k="start_date" v="2015-10-01"/></node><node id="-95" version="1" lat="45.980307" lon="12.687734"><tag k="man_made" v="mast"/><tag k="source" v="RAFVG"/><tag k="tower:type" v="communication"/><tag k="operator" v="Vodafone Omnitel"/><tag k="communication:mobile_phone" v="yes"/><tag k="start_date" v="2015-08-25"/></node><node id="-96" version="1" lat="45.921676" lon="12.727927"><tag k="man_made" v="mast"/><tag k="source" v="RAFVG"/><tag k="tower:type" v="communication"/><tag k="operator" v="Telecom Italia Mobile"/><tag k="communication:mobile_phone" v="yes"/><tag k="start_date" v="2014-05-09"/></node><node id="-97" version="1" lat="45.858761" lon="12.883545"><tag k="man_made" v="mast"/><tag k="source" v="RAFVG"/><tag k="tower:type" v="communication"/><tag k="operator" v="Telecom Italia Mobile"/><tag k="communication:mobile_phone" v="yes"/><tag k="start_date" v="2019-08-30"/></node><node id="-98" version="1" lat="46.064303" lon="12.603017"><tag k="man_made" v="mast"/><tag k="source" v="RAFVG"/><tag k="tower:type" v="communication"/><tag k="operator" v="Vodafone Omnitel"/><tag k="communication:mobile_phone" v="yes"/><tag k="start_date" v="2014-04-09"/></node><node id="-99" version="1" lat="45.955424" lon="12.504984"><tag k="man_made" v="mast"/><tag k="source" v="RAFVG"/><tag k="tower:type" v="communication"/><tag k="operator" v="Altro Gestore"/><tag k="communication:mobile_phone" v="yes"/><tag k="start_date" v="2017-09-20"/></node><node id="-100" version="1" lat="45.967926" lon="12.61829"><tag k="man_made" v="mast"/><tag k="fixme" v="unire"/><tag k="source" v="RAFVG"/><tag k="tower:type" v="communication"/><tag k="operator" v="Vodafone Omnitel"/><tag k="communication:mobile_phone" v="yes"/><tag k="start_date" v="2015-06-05"/></node><node id="-101" version="1" lat="45.911999" lon="12.85211"><tag k="man_made" v="mast"/><tag k="source" v="RAFVG"/><tag k="tower:type" v="communication"/><tag k="operator" v="Altro Gestore"/><tag k="communication:mobile_phone" v="yes"/><tag k="start_date" v="2008-06-12"/></node><node id="-102" version="1" lat="45.950153" lon="12.66103"><tag k="man_made" v="mast"/><tag k="source" v="RAFVG"/><tag k="tower:type" v="communication"/><tag k="operator" v="Vodafone Omnitel"/><tag k="communication:mobile_phone" v="yes"/><tag k="start_date" v="2014-12-16"/></node><node id="-103" version="1" lat="46.161065" lon="12.69772"><tag k="man_made" v="mast"/><tag k="source" v="RAFVG"/><tag k="tower:type" v="communication"/><tag k="operator" v="Vodafone Omnitel"/><tag k="communication:mobile_phone" v="yes"/><tag k="start_date" v="2014-09-02"/></node><node id="-104" version="1" lat="46.268807" lon="12.518103"><tag k="man_made" v="mast"/><tag k="source" v="RAFVG"/><tag k="tower:type" v="communication"/><tag k="operator" v="Telecom Italia Mobile"/><tag k="communication:mobile_phone" v="yes"/><tag k="start_date" v="2017-10-16"/></node><node id="-105" version="1" lat="45.913189" lon="12.666823"><tag k="man_made" v="mast"/><tag k="source" v="RAFVG"/><tag k="tower:type" v="communication"/><tag k="operator" v="Wind-tre"/><tag k="communication:mobile_phone" v="yes"/><tag k="start_date" v="2014-06-24"/></node><node id="-106" version="1" lat="45.871226" lon="12.622948"><tag k="man_made" v="mast"/><tag k="source" v="RAFVG"/><tag k="tower:type" v="communication"/><tag k="operator" v="Vodafone Omnitel"/><tag k="communication:mobile_phone" v="yes"/><tag k="start_date" v="2014-12-18"/></node><node id="-107" version="1" lat="46.119228" lon="12.892752"><tag k="man_made" v="mast"/><tag k="source" v="RAFVG"/><tag k="tower:type" v="communication"/><tag k="operator" v="Wind-tre"/><tag k="communication:mobile_phone" v="yes"/><tag k="start_date" v="2017-04-14"/></node><node id="-108" version="1" lat="45.97985" lon="12.529234"><tag k="man_made" v="mast"/><tag k="source" v="RAFVG"/><tag k="tower:type" v="communication"/><tag k="operator" v="Telecom Italia Mobile"/><tag k="communication:mobile_phone" v="yes"/><tag k="start_date" v="2017-11-10"/></node><node id="-109" version="1" lat="45.917772" lon="12.846189"><tag k="man_made" v="mast"/><tag k="source" v="RAFVG"/><tag k="tower:type" v="communication"/><tag k="operator" v="Vodafone Omnitel"/><tag k="communication:mobile_phone" v="yes"/><tag k="start_date" v="2014-08-22"/></node><node id="-110" version="1" lat="45.937405" lon="12.670141"><tag k="man_made" v="mast"/><tag k="source" v="RAFVG"/><tag k="tower:type" v="communication"/><tag k="operator" v="Vodafone Omnitel"/><tag k="communication:mobile_phone" v="yes"/><tag k="start_date" v="2014-05-05"/></node><node id="-111" version="1" lat="45.971412" lon="12.648372"><tag k="man_made" v="mast"/><tag k="source" v="RAFVG"/><tag k="tower:type" v="communication"/><tag k="operator" v="Telecom Italia Mobile"/><tag k="communication:mobile_phone" v="yes"/><tag k="start_date" v="2014-03-21"/></node><node id="-112" version="1" lat="46.150645" lon="12.660225"><tag k="man_made" v="mast"/><tag k="source" v="RAFVG"/><tag k="tower:type" v="communication"/><tag k="operator" v="Telecom Italia Mobile"/><tag k="communication:mobile_phone" v="yes"/><tag k="start_date" v="2012-06-13"/></node><node id="-113" version="1" lat="45.963388" lon="12.872494"><tag k="man_made" v="mast"/><tag k="source" v="RAFVG"/><tag k="tower:type" v="communication"/><tag k="operator" v="Vodafone Omnitel"/><tag k="communication:mobile_phone" v="yes"/><tag k="start_date" v="2018-09-17"/></node><node id="-114" version="1" lat="46.212521" lon="12.788591"><tag k="man_made" v="mast"/><tag k="source" v="RAFVG"/><tag k="tower:type" v="communication"/><tag k="operator" v="Wind-tre"/><tag k="communication:mobile_phone" v="yes"/><tag k="start_date" v="2017-04-14"/></node><node id="-115" version="1" lat="45.857041" lon="12.749725"><tag k="man_made" v="mast"/><tag k="source" v="RAFVG"/><tag k="tower:type" v="communication"/><tag k="operator" v="Vodafone Omnitel"/><tag k="communication:mobile_phone" v="yes"/><tag k="start_date" v="2015-03-05"/></node><node id="-116" version="1" lat="46.260739" lon="12.368803"><tag k="man_made" v="mast"/><tag k="source" v="RAFVG"/><tag k="tower:type" v="communication"/><tag k="operator" v="Vodafone Omnitel"/><tag k="communication:mobile_phone" v="yes"/><tag k="start_date" v="2002-06-18"/></node><node id="-117" version="1" lat="46.027193" lon="12.520665"><tag k="man_made" v="mast"/><tag k="source" v="RAFVG"/><tag k="tower:type" v="communication"/><tag k="operator" v="Wind-tre"/><tag k="communication:mobile_phone" v="yes"/><tag k="start_date" v="2013-03-07"/></node><node id="-118" version="1" lat="45.851128" lon="12.96199"><tag k="man_made" v="mast"/><tag k="source" v="RAFVG"/><tag k="tower:type" v="communication"/><tag k="operator" v="Vodafone Omnitel"/><tag k="communication:mobile_phone" v="yes"/><tag k="start_date" v="2014-12-09"/></node><node id="-119" version="1" lat="45.888012" lon="12.702676"><tag k="man_made" v="mast"/><tag k="source" v="RAFVG"/><tag k="tower:type" v="communication"/><tag k="operator" v="Vodafone Omnitel"/><tag k="communication:mobile_phone" v="yes"/><tag k="start_date" v="2014-04-23"/></node><node id="-120" version="1" lat="45.970792" lon="12.633607"><tag k="man_made" v="mast"/><tag k="source" v="RAFVG"/><tag k="tower:type" v="communication"/><tag k="operator" v="Telecom Italia Mobile"/><tag k="communication:mobile_phone" v="yes"/><tag k="start_date" v="2014-04-16"/></node><node id="-121" version="1" lat="45.989147" lon="12.701594"><tag k="man_made" v="mast"/><tag k="source" v="RAFVG"/><tag k="tower:type" v="communication"/><tag k="operator" v="Wind-tre"/><tag k="communication:mobile_phone" v="yes"/><tag k="start_date" v="2016-01-29"/></node><node id="-122" version="1" lat="46.2334611" lon="12.4860424"><tag k="man_made" v="mast"/><tag k="source" v="RAFVG"/><tag k="tower:type" v="communication"/><tag k="operator" v="Telecom Italia Mobile"/><tag k="communication:mobile_phone" v="yes"/><tag k="start_date" v="2007-08-29"/></node><node id="-123" version="1" lat="45.957441" lon="12.661103"><tag k="man_made" v="mast"/><tag k="source" v="RAFVG"/><tag k="tower:type" v="communication"/><tag k="operator" v="Telecom Italia Mobile"/><tag k="communication:mobile_phone" v="yes"/><tag k="start_date" v="2014-05-05"/></node><node id="-124" version="1" lat="46.077233" lon="12.581262"><tag k="man_made" v="mast"/><tag k="source" v="RAFVG"/><tag k="tower:type" v="communication"/><tag k="operator" v="Wind-tre"/><tag k="communication:mobile_phone" v="yes"/><tag k="start_date" v="2012-03-05"/></node><node id="-125" version="1" lat="46.251373" lon="12.744725"><tag k="man_made" v="mast"/><tag k="fixme" v="unire"/><tag k="source" v="RAFVG"/><tag k="tower:type" v="communication"/><tag k="operator" v="Wind-tre"/><tag k="communication:mobile_phone" v="yes"/><tag k="start_date" v="2002-10-01"/></node><node id="-126" version="1" lat="46.181889" lon="12.7543"><tag k="man_made" v="mast"/><tag k="source" v="RAFVG"/><tag k="tower:type" v="communication"/><tag k="operator" v="Wind-tre"/><tag k="communication:mobile_phone" v="yes"/><tag k="start_date" v="2020-08-05"/></node><node id="-127" version="1" lat="46.162023" lon="12.833373"><tag k="man_made" v="mast"/><tag k="source" v="RAFVG"/><tag k="tower:type" v="communication"/><tag k="operator" v="Wind-tre"/><tag k="communication:mobile_phone" v="yes"/><tag k="start_date" v="2020-08-21"/></node><node id="-128" version="1" lat="46.151202" lon="12.660594"><tag k="man_made" v="mast"/><tag k="source" v="RAFVG"/><tag k="tower:type" v="communication"/><tag k="operator" v="Wind-tre"/><tag k="communication:mobile_phone" v="yes"/><tag k="start_date" v="2020-08-26"/></node><node id="-129" version="1" lat="45.94708" lon="12.657337"><tag k="man_made" v="mast"/><tag k="source" v="RAFVG"/><tag k="tower:type" v="communication"/><tag k="operator" v="Wind-tre"/><tag k="communication:mobile_phone" v="yes"/><tag k="start_date" v="2020-09-11"/></node><node id="-130" version="1" lat="46.172023" lon="12.717732"><tag k="man_made" v="mast"/><tag k="fixme" v="unire"/><tag k="source" v="RAFVG"/><tag k="tower:type" v="communication"/><tag k="operator" v="Telecom Italia Mobile"/><tag k="communication:mobile_phone" v="yes"/><tag k="start_date" v="2019-10-23"/></node><node id="-131" version="1" lat="45.992916" lon="12.547987"><tag k="man_made" v="mast"/><tag k="source" v="RAFVG"/><tag k="tower:type" v="communication"/><tag k="operator" v="Wind-tre"/><tag k="communication:mobile_phone" v="yes"/><tag k="start_date" v="2020-09-22"/></node><node id="-132" version="1" lat="45.918497" lon="12.704927"><tag k="man_made" v="mast"/><tag k="source" v="RAFVG"/><tag k="tower:type" v="communication"/><tag k="operator" v="Iliad Italia"/><tag k="communication:mobile_phone" v="yes"/><tag k="start_date" v="2020-05-07"/></node><node id="-133" version="1" lat="45.975494" lon="12.615869"><tag k="man_made" v="mast"/><tag k="source" v="RAFVG"/><tag k="tower:type" v="communication"/><tag k="operator" v="Iliad Italia"/><tag k="communication:mobile_phone" v="yes"/><tag k="start_date" v="2019-12-30"/></node><node id="-134" version="1" lat="45.967833" lon="12.606488"><tag k="man_made" v="mast"/><tag k="source" v="RAFVG"/><tag k="tower:type" v="communication"/><tag k="operator" v="Wind-tre"/><tag k="communication:mobile_phone" v="yes"/><tag k="start_date" v="2019-06-26"/></node><node id="-135" version="1" lat="45.988188" lon="12.638244"><tag k="man_made" v="mast"/><tag k="source" v="RAFVG"/><tag k="tower:type" v="communication"/><tag k="operator" v="Wind-tre"/><tag k="communication:mobile_phone" v="yes"/><tag k="start_date" v="2019-06-14"/></node><node id="-136" version="1" lat="45.948109" lon="12.502165"><tag k="man_made" v="mast"/><tag k="source" v="RAFVG"/><tag k="tower:type" v="communication"/><tag k="operator" v="Wind-tre"/><tag k="communication:mobile_phone" v="yes"/><tag k="start_date" v="2019-06-20"/></node><node id="-137" version="1" lat="46.187997" lon="12.782176"><tag k="man_made" v="mast"/><tag k="source" v="RAFVG"/><tag k="tower:type" v="communication"/><tag k="operator" v="Telecom Italia Mobile"/><tag k="communication:mobile_phone" v="yes"/><tag k="start_date" v="2019-09-17"/></node><node id="-138" version="1" lat="45.963166" lon="12.771328"><tag k="man_made" v="mast"/><tag k="source" v="RAFVG"/><tag k="tower:type" v="communication"/><tag k="operator" v="Wind-tre"/><tag k="communication:mobile_phone" v="yes"/><tag k="start_date" v="2019-04-19"/></node><node id="-139" version="1" lat="45.952931" lon="12.670249"><tag k="man_made" v="mast"/><tag k="source" v="RAFVG"/><tag k="tower:type" v="communication"/><tag k="operator" v="Wind-tre"/><tag k="communication:mobile_phone" v="yes"/><tag k="start_date" v="2019-07-24"/></node><node id="-140" version="1" lat="45.965226" lon="12.799519"><tag k="man_made" v="mast"/><tag k="source" v="RAFVG"/><tag k="tower:type" v="communication"/><tag k="operator" v="Wind-tre"/><tag k="communication:mobile_phone" v="yes"/><tag k="start_date" v="2019-04-23"/></node><node id="-141" version="1" lat="45.866167" lon="12.769877"><tag k="man_made" v="mast"/><tag k="source" v="RAFVG"/><tag k="tower:type" v="communication"/><tag k="operator" v="Wind-tre"/><tag k="communication:mobile_phone" v="yes"/><tag k="start_date" v="2019-04-02"/></node><node id="-142" version="1" lat="46.245085" lon="12.925033"><tag k="man_made" v="mast"/><tag k="fixme" v="unire"/><tag k="source" v="RAFVG"/><tag k="tower:type" v="communication"/><tag k="operator" v="Wind-tre"/><tag k="communication:mobile_phone" v="yes"/><tag k="start_date" v="2019-08-22"/></node><node id="-143" version="1" lat="46.193602" lon="12.572582"><tag k="man_made" v="mast"/><tag k="source" v="RAFVG"/><tag k="tower:type" v="communication"/><tag k="operator" v="Wind-tre"/><tag k="communication:mobile_phone" v="yes"/><tag k="start_date" v="2019-08-22"/></node><node id="-144" version="1" lat="46.048625" lon="12.875338"><tag k="man_made" v="mast"/><tag k="source" v="RAFVG"/><tag k="tower:type" v="communication"/><tag k="operator" v="Wind-tre"/><tag k="communication:mobile_phone" v="yes"/><tag k="start_date" v="2019-06-10"/></node><node id="-145" version="1" lat="45.939809" lon="12.840812"><tag k="man_made" v="mast"/><tag k="source" v="RAFVG"/><tag k="tower:type" v="communication"/><tag k="operator" v="Wind-tre"/><tag k="communication:mobile_phone" v="yes"/><tag k="start_date" v="2019-12-23"/></node><node id="-146" version="1" lat="45.9284814" lon="12.8755876"><tag k="man_made" v="mast"/><tag k="source" v="RAFVG"/><tag k="tower:type" v="communication"/><tag k="operator" v="Wind-tre"/><tag k="communication:mobile_phone" v="yes"/><tag k="start_date" v="2019-05-03"/></node><node id="-147" version="1" lat="46.109335" lon="12.876517"><tag k="man_made" v="mast"/><tag k="source" v="RAFVG"/><tag k="tower:type" v="communication"/><tag k="operator" v="Wind-tre"/><tag k="communication:mobile_phone" v="yes"/><tag k="start_date" v="2019-06-20"/></node><node id="-148" version="1" lat="45.815219" lon="12.682297"><tag k="man_made" v="mast"/><tag k="source" v="RAFVG"/><tag k="tower:type" v="communication"/><tag k="operator" v="Wind-tre"/><tag k="communication:mobile_phone" v="yes"/><tag k="start_date" v="2019-04-16"/></node><node id="-149" version="1" lat="46.010583" lon="12.624044"><tag k="man_made" v="mast"/><tag k="source" v="RAFVG"/><tag k="tower:type" v="communication"/><tag k="operator" v="Wind-tre"/><tag k="communication:mobile_phone" v="yes"/><tag k="start_date" v="2019-08-30"/></node><node id="-150" version="1" lat="45.955449" lon="12.63453"><tag k="man_made" v="mast"/><tag k="source" v="RAFVG"/><tag k="tower:type" v="communication"/><tag k="operator" v="Wind-tre"/><tag k="communication:mobile_phone" v="yes"/><tag k="start_date" v="2019-06-28"/></node><node id="-151" version="1" lat="45.968793" lon="12.455995"><tag k="man_made" v="mast"/><tag k="source" v="RAFVG"/><tag k="tower:type" v="communication"/><tag k="operator" v="Wind-tre"/><tag k="communication:mobile_phone" v="yes"/><tag k="start_date" v="2019-09-17"/></node><node id="-152" version="1" lat="45.93161" lon="12.65446"><tag k="man_made" v="mast"/><tag k="source" v="RAFVG"/><tag k="tower:type" v="communication"/><tag k="operator" v="Wind-tre"/><tag k="communication:mobile_phone" v="yes"/><tag k="start_date" v="2019-04-11"/></node><node id="-153" version="1" lat="45.863237" lon="12.930384"><tag k="man_made" v="mast"/><tag k="source" v="RAFVG"/><tag k="tower:type" v="communication"/><tag k="operator" v="Wind-tre"/><tag k="communication:mobile_phone" v="yes"/><tag k="start_date" v="2019-04-08"/></node><node id="-154" version="1" lat="45.967542" lon="12.639715"><tag k="man_made" v="mast"/><tag k="source" v="RAFVG"/><tag k="tower:type" v="communication"/><tag k="operator" v="Wind-tre"/><tag k="communication:mobile_phone" v="yes"/><tag k="start_date" v="2019-07-19"/></node><node id="-155" version="1" lat="45.971467" lon="12.65012"><tag k="man_made" v="mast"/><tag k="source" v="RAFVG"/><tag k="tower:type" v="communication"/><tag k="operator" v="Wind-tre"/><tag k="communication:mobile_phone" v="yes"/><tag k="start_date" v="2019-06-28"/></node><node id="-156" version="1" lat="45.9591326" lon="12.6517707"><tag k="man_made" v="mast"/><tag k="source" v="RAFVG"/><tag k="tower:type" v="communication"/><tag k="operator" v="Wind-tre"/><tag k="communication:mobile_phone" v="yes"/><tag k="start_date" v="2019-10-11"/></node><node id="-157" version="1" lat="45.97141" lon="12.67988"><tag k="man_made" v="mast"/><tag k="source" v="RAFVG"/><tag k="tower:type" v="communication"/><tag k="operator" v="Wind-tre"/><tag k="communication:mobile_phone" v="yes"/><tag k="start_date" v="2019-07-02"/></node><node id="-158" version="1" lat="46.2607316" lon="12.3687896"><tag k="man_made" v="mast"/><tag k="source" v="RAFVG"/><tag k="tower:type" v="communication"/><tag k="operator" v="Wind-tre"/><tag k="communication:mobile_phone" v="yes"/><tag k="start_date" v="2020-04-17"/></node><node id="-159" version="1" lat="46.18163" lon="12.755051"><tag k="man_made" v="mast"/><tag k="source" v="RAFVG"/><tag k="tower:type" v="communication"/><tag k="operator" v="Telecom Italia Mobile"/><tag k="communication:mobile_phone" v="yes"/><tag k="start_date" v="2019-03-22"/></node><node id="-160" version="1" lat="45.897591" lon="12.59392"><tag k="man_made" v="mast"/><tag k="source" v="RAFVG"/><tag k="tower:type" v="communication"/><tag k="operator" v="Wind-tre"/><tag k="communication:mobile_phone" v="yes"/><tag k="start_date" v="2019-04-09"/></node><node id="-161" version="1" lat="45.975513" lon="12.525023"><tag k="man_made" v="mast"/><tag k="source" v="RAFVG"/><tag k="tower:type" v="communication"/><tag k="operator" v="Wind-tre"/><tag k="communication:mobile_phone" v="yes"/><tag k="start_date" v="2019-07-02"/></node><node id="-162" version="1" lat="45.905793" lon="12.545347"><tag k="man_made" v="mast"/><tag k="source" v="RAFVG"/><tag k="tower:type" v="communication"/><tag k="operator" v="Wind-tre"/><tag k="communication:mobile_phone" v="yes"/><tag k="start_date" v="2019-07-16"/></node><node id="-163" version="1" lat="45.978604" lon="12.70234"><tag k="man_made" v="mast"/><tag k="source" v="RAFVG"/><tag k="tower:type" v="communication"/><tag k="operator" v="Wind-tre"/><tag k="communication:mobile_phone" v="yes"/><tag k="start_date" v="2019-04-17"/></node><node id="-164" version="1" lat="45.99693" lon="12.704668"><tag k="man_made" v="mast"/><tag k="source" v="RAFVG"/><tag k="tower:type" v="communication"/><tag k="operator" v="Wind-tre"/><tag k="communication:mobile_phone" v="yes"/><tag k="start_date" v="2019-04-19"/></node><node id="-165" version="1" lat="46.152359" lon="12.793048"><tag k="man_made" v="mast"/><tag k="source" v="RAFVG"/><tag k="tower:type" v="communication"/><tag k="operator" v="Vodafone Omnitel"/><tag k="communication:mobile_phone" v="yes"/><tag k="start_date" v="2018-11-14"/></node><node id="-166" version="1" lat="45.84236" lon="12.629065"><tag k="man_made" v="mast"/><tag k="source" v="RAFVG"/><tag k="tower:type" v="communication"/><tag k="operator" v="Wind-tre"/><tag k="communication:mobile_phone" v="yes"/><tag k="start_date" v="2019-09-11"/></node><node id="-167" version="1" lat="46.006268" lon="12.610609"><tag k="man_made" v="mast"/><tag k="source" v="RAFVG"/><tag k="tower:type" v="communication"/><tag k="operator" v="Wind-tre"/><tag k="communication:mobile_phone" v="yes"/><tag k="start_date" v="2019-08-30"/></node><node id="-168" version="1" lat="45.94394" lon="12.718316"><tag k="man_made" v="mast"/><tag k="source" v="RAFVG"/><tag k="tower:type" v="communication"/><tag k="operator" v="Wind-tre"/><tag k="communication:mobile_phone" v="yes"/><tag k="start_date" v="2019-04-17"/></node><node id="-169" version="1" lat="46.037607" lon="12.548032"><tag k="man_made" v="mast"/><tag k="source" v="RAFVG"/><tag k="tower:type" v="communication"/><tag k="operator" v="Wind-tre"/><tag k="communication:mobile_phone" v="yes"/><tag k="start_date" v="2019-08-20"/></node><node id="-170" version="1" lat="45.970307" lon="12.655692"><tag k="man_made" v="mast"/><tag k="source" v="RAFVG"/><tag k="tower:type" v="communication"/><tag k="operator" v="Wind-tre"/><tag k="communication:mobile_phone" v="yes"/><tag k="start_date" v="2019-06-25"/></node><node id="-171" version="1" lat="46.267508" lon="12.513787"><tag k="man_made" v="mast"/><tag k="source" v="RAFVG"/><tag k="tower:type" v="communication"/><tag k="operator" v="Wind-tre"/><tag k="communication:mobile_phone" v="yes"/><tag k="start_date" v="2019-04-24"/></node><node id="-172" version="1" lat="45.944217" lon="12.467544"><tag k="man_made" v="mast"/><tag k="source" v="RAFVG"/><tag k="tower:type" v="communication"/><tag k="operator" v="Wind-tre"/><tag k="communication:mobile_phone" v="yes"/><tag k="start_date" v="2019-07-08"/></node><node id="-173" version="1" lat="45.976213" lon="12.656631"><tag k="man_made" v="mast"/><tag k="source" v="RAFVG"/><tag k="tower:type" v="communication"/><tag k="operator" v="Wind-tre"/><tag k="communication:mobile_phone" v="yes"/><tag k="start_date" v="2019-07-11"/></node><node id="-174" version="1" lat="45.952943" lon="12.658844"><tag k="man_made" v="mast"/><tag k="source" v="RAFVG"/><tag k="tower:type" v="communication"/><tag k="operator" v="Wind-tre"/><tag k="communication:mobile_phone" v="yes"/><tag k="start_date" v="2019-11-29"/></node><node id="-175" version="1" lat="45.983585" lon="12.696686"><tag k="man_made" v="mast"/><tag k="source" v="RAFVG"/><tag k="tower:type" v="communication"/><tag k="operator" v="Wind-tre"/><tag k="communication:mobile_phone" v="yes"/><tag k="start_date" v="2019-06-20"/></node><node id="-176" version="1" lat="45.871446" lon="12.567736"><tag k="man_made" v="mast"/><tag k="source" v="RAFVG"/><tag k="tower:type" v="communication"/><tag k="operator" v="Wind-tre"/><tag k="communication:mobile_phone" v="yes"/><tag k="start_date" v="2019-06-19"/></node><node id="-177" version="1" lat="46.016483" lon="12.869009"><tag k="man_made" v="mast"/><tag k="source" v="RAFVG"/><tag k="tower:type" v="communication"/><tag k="operator" v="Wind-tre"/><tag k="communication:mobile_phone" v="yes"/><tag k="start_date" v="2019-10-17"/></node><node id="-178" version="1" lat="45.988463" lon="12.608927"><tag k="man_made" v="mast"/><tag k="source" v="RAFVG"/><tag k="tower:type" v="communication"/><tag k="operator" v="Wind-tre"/><tag k="communication:mobile_phone" v="yes"/><tag k="start_date" v="2019-04-19"/></node><node id="-179" version="1" lat="45.845525" lon="12.719184"><tag k="man_made" v="mast"/><tag k="source" v="RAFVG"/><tag k="tower:type" v="communication"/><tag k="operator" v="Wind-tre"/><tag k="communication:mobile_phone" v="yes"/><tag k="start_date" v="2019-04-23"/></node><node id="-180" version="1" lat="45.97097" lon="12.574618"><tag k="man_made" v="mast"/><tag k="source" v="RAFVG"/><tag k="tower:type" v="communication"/><tag k="operator" v="Wind-tre"/><tag k="communication:mobile_phone" v="yes"/><tag k="start_date" v="2019-06-03"/></node><node id="-181" version="1" lat="45.944818" lon="12.673236"><tag k="man_made" v="mast"/><tag k="source" v="RAFVG"/><tag k="tower:type" v="communication"/><tag k="operator" v="Wind-tre"/><tag k="communication:mobile_phone" v="yes"/><tag k="start_date" v="2019-06-20"/></node><node id="-182" version="1" lat="45.843389" lon="12.562296"><tag k="man_made" v="mast"/><tag k="source" v="RAFVG"/><tag k="tower:type" v="communication"/><tag k="operator" v="Telecom Italia Mobile"/><tag k="communication:mobile_phone" v="yes"/><tag k="start_date" v="2017-11-15"/></node><node id="-183" version="1" lat="45.847501" lon="12.623475"><tag k="man_made" v="mast"/><tag k="source" v="RAFVG"/><tag k="tower:type" v="communication"/><tag k="operator" v="Telecom Italia Mobile"/><tag k="communication:mobile_phone" v="yes"/><tag k="start_date" v="2019-09-13"/></node><node id="-184" version="1" lat="45.964511" lon="12.517845"><tag k="man_made" v="mast"/><tag k="source" v="RAFVG"/><tag k="tower:type" v="communication"/><tag k="operator" v="Wind-tre"/><tag k="communication:mobile_phone" v="yes"/><tag k="start_date" v="2020-02-12"/></node><node id="-185" version="1" lat="45.921998" lon="12.565895"><tag k="man_made" v="mast"/><tag k="source" v="RAFVG"/><tag k="tower:type" v="communication"/><tag k="operator" v="Wind-tre"/><tag k="communication:mobile_phone" v="yes"/><tag k="start_date" v="2019-05-23"/></node><node id="-186" version="1" lat="46.208596" lon="12.757343"><tag k="man_made" v="mast"/><tag k="fixme" v="unire"/><tag k="source" v="RAFVG"/><tag k="tower:type" v="communication"/><tag k="operator" v="Wind-tre"/><tag k="communication:mobile_phone" v="yes"/><tag k="start_date" v="2020-04-17"/></node><node id="-187" version="1" lat="46.064772" lon="12.60328"><tag k="man_made" v="mast"/><tag k="source" v="RAFVG"/><tag k="tower:type" v="communication"/><tag k="operator" v="Wind-tre"/><tag k="communication:mobile_phone" v="yes"/><tag k="start_date" v="2019-08-20"/></node><node id="-188" version="1" lat="46.019451" lon="12.628947"><tag k="man_made" v="mast"/><tag k="source" v="RAFVG"/><tag k="tower:type" v="communication"/><tag k="operator" v="Wind-tre"/><tag k="communication:mobile_phone" v="yes"/><tag k="start_date" v="2016-01-29"/></node><node id="-189" version="1" lat="46.16153" lon="12.718257"><tag k="man_made" v="mast"/><tag k="source" v="RAFVG"/><tag k="tower:type" v="communication"/><tag k="operator" v="Wind-tre"/><tag k="communication:mobile_phone" v="yes"/><tag k="start_date" v="2019-09-30"/></node><node id="-190" version="1" lat="45.854577" lon="12.928687"><tag k="man_made" v="mast"/><tag k="source" v="RAFVG"/><tag k="tower:type" v="communication"/><tag k="operator" v="Wind-tre"/><tag k="communication:mobile_phone" v="yes"/><tag k="start_date" v="2019-05-08"/></node><node id="-191" version="1" lat="45.909184" lon="12.851093"><tag k="man_made" v="mast"/><tag k="source" v="RAFVG"/><tag k="tower:type" v="communication"/><tag k="operator" v="Wind-tre"/><tag k="communication:mobile_phone" v="yes"/><tag k="start_date" v="2019-04-09"/></node><node id="-192" version="1" lat="45.916471" lon="12.873783"><tag k="man_made" v="mast"/><tag k="source" v="RAFVG"/><tag k="tower:type" v="communication"/><tag k="operator" v="Wind-tre"/><tag k="communication:mobile_phone" v="yes"/><tag k="start_date" v="2019-05-08"/></node><node id="-193" version="1" lat="46.155891" lon="12.693562"><tag k="man_made" v="mast"/><tag k="source" v="RAFVG"/><tag k="tower:type" v="communication"/><tag k="operator" v="Wind-tre"/><tag k="communication:mobile_phone" v="yes"/><tag k="start_date" v="2019-06-14"/></node><node id="-194" version="1" lat="46.184594" lon="12.766426"><tag k="man_made" v="mast"/><tag k="source" v="RAFVG"/><tag k="tower:type" v="communication"/><tag k="operator" v="Wind-tre"/><tag k="communication:mobile_phone" v="yes"/><tag k="start_date" v="2019-09-30"/></node><node id="-195" version="1" lat="45.925826" lon="12.658569"><tag k="man_made" v="mast"/><tag k="source" v="RAFVG"/><tag k="tower:type" v="communication"/><tag k="operator" v="Iliad Italia"/><tag k="communication:mobile_phone" v="yes"/><tag k="start_date" v="2019-07-19"/></node><node id="-196" version="1" lat="45.933339" lon="12.646168"><tag k="man_made" v="mast"/><tag k="fixme" v="unire"/><tag k="source" v="RAFVG"/><tag k="tower:type" v="communication"/><tag k="operator" v="Iliad Italia"/><tag k="communication:mobile_phone" v="yes"/><tag k="start_date" v="2019-06-14"/></node><node id="-197" version="1" lat="45.948318" lon="12.841895"><tag k="man_made" v="mast"/><tag k="source" v="RAFVG"/><tag k="tower:type" v="communication"/><tag k="operator" v="Wind-tre"/><tag k="communication:mobile_phone" v="yes"/><tag k="start_date" v="2020-03-06"/></node><node id="-198" version="1" lat="45.918827" lon="12.855274"><tag k="man_made" v="mast"/><tag k="source" v="RAFVG"/><tag k="tower:type" v="communication"/><tag k="operator" v="Wind-tre"/><tag k="communication:mobile_phone" v="yes"/><tag k="start_date" v="2019-06-14"/></node><node id="-199" version="1" lat="46.296648" lon="12.80145"><tag k="man_made" v="mast"/><tag k="source" v="RAFVG"/><tag k="tower:type" v="communication"/><tag k="operator" v="Wind-tre"/><tag k="communication:mobile_phone" v="yes"/><tag k="start_date" v="2017-05-30"/></node><node id="-200" version="1" lat="45.958045" lon="12.661417"><tag k="man_made" v="mast"/><tag k="source" v="RAFVG"/><tag k="tower:type" v="communication"/><tag k="operator" v="Wind-tre"/><tag k="communication:mobile_phone" v="yes"/><tag k="start_date" v="2019-10-04"/></node><node id="-201" version="1" lat="46.026103" lon="12.50023"><tag k="man_made" v="mast"/><tag k="fixme" v="unire"/><tag k="source" v="RAFVG"/><tag k="tower:type" v="communication"/><tag k="operator" v="Wind-tre"/><tag k="communication:mobile_phone" v="yes"/><tag k="start_date" v="2019-11-29"/></node><node id="-202" version="1" lat="45.959307" lon="12.651508"><tag k="man_made" v="mast"/><tag k="source" v="RAFVG"/><tag k="tower:type" v="communication"/><tag k="operator" v="Iliad Italia"/><tag k="communication:mobile_phone" v="yes"/><tag k="start_date" v="2020-04-27"/></node><node id="-203" version="1" lat="46.128145" lon="12.880539"><tag k="man_made" v="mast"/><tag k="source" v="RAFVG"/><tag k="tower:type" v="communication"/><tag k="operator" v="Wind-tre"/><tag k="communication:mobile_phone" v="yes"/><tag k="start_date" v="2019-08-02"/></node><node id="-204" version="1" lat="45.958883" lon="12.501259"><tag k="man_made" v="mast"/><tag k="source" v="RAFVG"/><tag k="tower:type" v="communication"/><tag k="operator" v="Vodafone Omnitel"/><tag k="communication:mobile_phone" v="yes"/><tag k="start_date" v="2018-03-28"/></node><node id="-205" version="1" lat="46.071885" lon="12.584157"><tag k="man_made" v="mast"/><tag k="source" v="RAFVG"/><tag k="tower:type" v="communication"/><tag k="operator" v="Wind-tre"/><tag k="communication:mobile_phone" v="yes"/><tag k="start_date" v="2017-11-16"/></node><node id="-206" version="1" lat="45.867771" lon="12.76904"><tag k="man_made" v="mast"/><tag k="source" v="RAFVG"/><tag k="tower:type" v="communication"/><tag k="operator" v="Vodafone Omnitel"/><tag k="communication:mobile_phone" v="yes"/><tag k="start_date" v="2020-06-16"/></node><node id="-207" version="1" lat="45.86975" lon="12.864356"><tag k="man_made" v="mast"/><tag k="source" v="RAFVG"/><tag k="tower:type" v="communication"/><tag k="operator" v="Wind-tre"/><tag k="communication:mobile_phone" v="yes"/><tag k="start_date" v="2019-07-02"/></node><node id="-208" version="1" lat="45.962531" lon="12.447222"><tag k="man_made" v="mast"/><tag k="source" v="RAFVG"/><tag k="tower:type" v="communication"/><tag k="operator" v="Wind-tre"/><tag k="communication:mobile_phone" v="yes"/><tag k="start_date" v="2019-12-12"/></node><node id="-209" version="1" lat="46.04853" lon="12.876011"><tag k="man_made" v="mast"/><tag k="source" v="RAFVG"/><tag k="tower:type" v="communication"/><tag k="operator" v="Telecom Italia Mobile"/><tag k="communication:mobile_phone" v="yes"/><tag k="start_date" v="2019-10-09"/></node><node id="-210" version="1" lat="45.929604" lon="12.655325"><tag k="man_made" v="mast"/><tag k="source" v="RAFVG"/><tag k="tower:type" v="communication"/><tag k="operator" v="Telecom Italia Mobile"/><tag k="communication:mobile_phone" v="yes"/><tag k="start_date" v="2013-10-21"/></node><node id="-211" version="1" lat="46.227208" lon="12.937948"><tag k="man_made" v="mast"/><tag k="source" v="RAFVG"/><tag k="tower:type" v="communication"/><tag k="operator" v="Vodafone Omnitel"/><tag k="communication:mobile_phone" v="yes"/><tag k="start_date" v="2014-03-06"/></node><node id="-212" version="1" lat="45.961605" lon="12.667024"><tag k="man_made" v="mast"/><tag k="source" v="RAFVG"/><tag k="tower:type" v="communication"/><tag k="operator" v="Telecom Italia Mobile"/><tag k="communication:mobile_phone" v="yes"/><tag k="start_date" v="2014-03-21"/></node><node id="-213" version="1" lat="45.957483" lon="12.647874"><tag k="man_made" v="mast"/><tag k="source" v="RAFVG"/><tag k="tower:type" v="communication"/><tag k="operator" v="Telecom Italia Mobile"/><tag k="communication:mobile_phone" v="yes"/><tag k="start_date" v="2014-03-24"/></node><node id="-214" version="1" lat="45.970345" lon="12.65773"><tag k="man_made" v="mast"/><tag k="source" v="RAFVG"/><tag k="tower:type" v="communication"/><tag k="operator" v="Telecom Italia Mobile"/><tag k="communication:mobile_phone" v="yes"/><tag k="start_date" v="2014-03-24"/></node><node id="-215" version="1" lat="45.861445" lon="12.938309"><tag k="man_made" v="mast"/><tag k="source" v="RAFVG"/><tag k="tower:type" v="communication"/><tag k="operator" v="Vodafone Omnitel"/><tag k="communication:mobile_phone" v="yes"/><tag k="start_date" v="2018-03-05"/></node><node id="-216" version="1" lat="46.117674" lon="12.895398"><tag k="man_made" v="mast"/><tag k="source" v="RAFVG"/><tag k="tower:type" v="communication"/><tag k="operator" v="Vodafone Omnitel"/><tag k="communication:mobile_phone" v="yes"/><tag k="start_date" v="2014-11-26"/></node><node id="-217" version="1" lat="46.03578" lon="12.486424"><tag k="man_made" v="mast"/><tag k="source" v="RAFVG"/><tag k="tower:type" v="communication"/><tag k="operator" v="Telecom Italia Mobile"/><tag k="communication:mobile_phone" v="yes"/><tag k="start_date" v="2017-10-25"/></node><node id="-218" version="1" lat="46.070744" lon="12.646326"><tag k="man_made" v="mast"/><tag k="source" v="RAFVG"/><tag k="tower:type" v="communication"/><tag k="operator" v="Telecom Italia Mobile"/><tag k="communication:mobile_phone" v="yes"/><tag k="start_date" v="2017-11-07"/></node><node id="-219" version="1" lat="46.263363" lon="12.469786"><tag k="man_made" v="mast"/><tag k="source" v="RAFVG"/><tag k="tower:type" v="communication"/><tag k="operator" v="Vodafone Omnitel"/><tag k="communication:mobile_phone" v="yes"/><tag k="start_date" v="2016-04-22"/></node><node id="-220" version="1" lat="45.8510095" lon="12.8782001"><tag k="man_made" v="mast"/><tag k="source" v="RAFVG"/><tag k="tower:type" v="communication"/><tag k="operator" v="Altro Gestore"/><tag k="communication:mobile_phone" v="yes"/><tag k="start_date" v="2008-07-11"/></node><node id="-221" version="1" lat="46.058977" lon="12.560779"><tag k="man_made" v="mast"/><tag k="source" v="RAFVG"/><tag k="tower:type" v="communication"/><tag k="operator" v="Telecom Italia Mobile"/><tag k="communication:mobile_phone" v="yes"/><tag k="start_date" v="2016-02-23"/></node><node id="-222" version="1" lat="45.962327" lon="12.656061"><tag k="man_made" v="mast"/><tag k="source" v="RAFVG"/><tag k="tower:type" v="communication"/><tag k="operator" v="Telecom Italia Mobile"/><tag k="communication:mobile_phone" v="yes"/><tag k="start_date" v="2016-11-29"/></node><node id="-223" version="1" lat="46.249649" lon="12.745209"><tag k="man_made" v="mast"/><tag k="source" v="RAFVG"/><tag k="tower:type" v="communication"/><tag k="operator" v="Vodafone Omnitel"/><tag k="communication:mobile_phone" v="yes"/><tag k="start_date" v="2014-10-20"/></node><node id="-224" version="1" lat="45.894149" lon="12.553586"><tag k="man_made" v="mast"/><tag k="source" v="RAFVG"/><tag k="tower:type" v="communication"/><tag k="operator" v="Wind-tre"/><tag k="communication:mobile_phone" v="yes"/><tag k="start_date" v="2016-03-01"/></node></osm>