<?xml version='1.0' encoding='utf-8'?>
<osm generator="OSM Conflator 1.3.1" version="0.6"><changeset><tag k="type" v="import"/><tag k="source" v="RAFVG"/><tag k="created_by" v="OSM Conflator 1.3.1"/></changeset><node id="4906826323" version="1" lat="45.6103778" lon="13.8552135" action="modify"><tag k="communication:mobile_phone" v="yes"/><tag k="source" v="RAFVG"/><tag k="man_made" v="mast"/><tag k="operator" v="Iliad Italia"/><tag k="start_date" v="2019-07-24"/><tag k="tower:type" v="communication"/></node><node id="4906826322" version="1" lat="45.6088782" lon="13.8533474" action="modify"><tag k="communication:mobile_phone" v="yes"/><tag k="name" v="WIND"/><tag k="source" v="RAFVG"/><tag k="man_made" v="mast"/><tag k="operator" v="Wind-Tre"/><tag k="height" v="34"/><tag k="start_date" v="2020-01-27"/><tag k="tower:type" v="communication"/></node><node id="3816226167" version="1" lat="45.7136056" lon="13.7426932" action="modify"><tag k="communication:mobile_phone" v="yes"/><tag k="source" v="RAFVG"/><tag k="man_made" v="mast"/><tag k="operator" v="Wind-Tre"/><tag k="start_date" v="2017-06-27"/><tag k="tower:type" v="communication"/></node><node id="2508270174" version="6" lat="45.6386884" lon="13.8653205" action="modify"><tag k="communication:mobile_phone" v="yes"/><tag k="sito_1" v="#7430"/><tag k="source" v="RAFVG"/><tag k="man_made" v="mast"/><tag k="operator" v="Vodafone;Wind"/><tag k="start_date" v="2018-12-18"/><tag k="sito" v="#4661"/><tag k="tower:type" v="communication"/><tag k="tower:construction" v="freestanding"/></node><node id="3830495057" version="4" lat="45.765217" lon="13.6958431" action="modify"><tag k="communication:mobile_phone" v="yes"/><tag k="name" v="Wind"/><tag k="source" v="RAFVG"/><tag k="man_made" v="mast"/><tag k="operator" v="Wind-Tre"/><tag k="height" v="34"/><tag k="start_date" v="2017-06-28"/><tag k="tower:type" v="communication"/></node><node id="6991009207" version="1" lat="45.7802464" lon="13.598141" action="modify"><tag k="communication:mobile_phone" v="yes"/><tag k="source" v="RAFVG"/><tag k="man_made" v="mast"/><tag k="operator" v="Iliad Italia"/><tag k="start_date" v="2018-06-26"/><tag k="tower:type" v="communication"/></node><node id="-1" version="1" lat="45.663832" lon="13.769701"><tag k="communication:mobile_phone" v="yes"/><tag k="source" v="RAFVG"/><tag k="man_made" v="mast"/><tag k="operator" v="Telecom Italia Mobile"/><tag k="start_date" v="2017-04-11"/><tag k="tower:type" v="communication"/></node><node id="-2" version="1" lat="45.590892" lon="13.803064"><tag k="communication:mobile_phone" v="yes"/><tag k="source" v="RAFVG"/><tag k="man_made" v="mast"/><tag k="operator" v="Telecom Italia Mobile"/><tag k="start_date" v="2016-11-04"/><tag k="tower:type" v="communication"/></node><node id="-3" version="1" lat="45.653111" lon="13.806962"><tag k="communication:mobile_phone" v="yes"/><tag k="source" v="RAFVG"/><tag k="man_made" v="mast"/><tag k="operator" v="Telecom Italia Mobile"/><tag k="start_date" v="2017-06-14"/><tag k="tower:type" v="communication"/></node><node id="-4" version="1" lat="45.704009" lon="13.738028"><tag k="communication:mobile_phone" v="yes"/><tag k="source" v="RAFVG"/><tag k="man_made" v="mast"/><tag k="operator" v="Wind-Tre"/><tag k="start_date" v="2017-08-01"/><tag k="tower:type" v="communication"/></node><node id="-5" version="1" lat="45.68405" lon="13.766873"><tag k="communication:mobile_phone" v="yes"/><tag k="source" v="RAFVG"/><tag k="man_made" v="mast"/><tag k="start_date" v="2008-02-27"/><tag k="fixme" v="unire"/><tag k="tower:type" v="communication"/></node><node id="-6" version="1" lat="45.705093" lon="13.71176"><tag k="communication:mobile_phone" v="yes"/><tag k="source" v="RAFVG"/><tag k="man_made" v="mast"/><tag k="operator" v="Telecom Italia Mobile"/><tag k="start_date" v="2013-05-31"/><tag k="tower:type" v="communication"/></node><node id="-7" version="1" lat="45.607428" lon="13.826852"><tag k="communication:mobile_phone" v="yes"/><tag k="source" v="RAFVG"/><tag k="man_made" v="mast"/><tag k="operator" v="Vodafone Omnitel"/><tag k="start_date" v="2015-11-26"/><tag k="tower:type" v="communication"/></node><node id="-8" version="1" lat="45.627879" lon="13.809929"><tag k="communication:mobile_phone" v="yes"/><tag k="source" v="RAFVG"/><tag k="man_made" v="mast"/><tag k="operator" v="Telecom Italia Mobile"/><tag k="start_date" v="2014-01-28"/><tag k="tower:type" v="communication"/></node><node id="-9" version="1" lat="45.693295" lon="13.787783"><tag k="communication:mobile_phone" v="yes"/><tag k="source" v="RAFVG"/><tag k="man_made" v="mast"/><tag k="start_date" v="2003-12-09"/><tag k="fixme" v="tower"/><tag k="tower:type" v="communication"/></node><node id="-10" version="1" lat="45.702164" lon="13.723223"><tag k="communication:mobile_phone" v="yes"/><tag k="start_date" v="2005-10-19"/><tag k="man_made" v="mast"/><tag k="source" v="RAFVG"/><tag k="tower:type" v="communication"/></node><node id="-11" version="1" lat="45.641793" lon="13.770888"><tag k="communication:mobile_phone" v="yes"/><tag k="source" v="RAFVG"/><tag k="man_made" v="mast"/><tag k="operator" v="Wind-Tre"/><tag k="start_date" v="2017-07-10"/><tag k="tower:type" v="communication"/></node><node id="-12" version="1" lat="45.62921" lon="13.79076"><tag k="communication:mobile_phone" v="yes"/><tag k="source" v="RAFVG"/><tag k="man_made" v="mast"/><tag k="operator" v="Telecom Italia Mobile"/><tag k="start_date" v="2017-09-07"/><tag k="tower:type" v="communication"/></node><node id="-13" version="1" lat="45.640533" lon="13.753548"><tag k="communication:mobile_phone" v="yes"/><tag k="source" v="RAFVG"/><tag k="man_made" v="mast"/><tag k="start_date" v="2003-11-28"/><tag k="fixme" v="tower"/><tag k="tower:type" v="communication"/></node><node id="-14" version="1" lat="45.640352" lon="13.795327"><tag k="communication:mobile_phone" v="yes"/><tag k="source" v="RAFVG"/><tag k="man_made" v="mast"/><tag k="operator" v="Telecom Italia Mobile"/><tag k="start_date" v="2017-08-07"/><tag k="fixme" v="unire"/><tag k="tower:type" v="communication"/></node><node id="-15" version="1" lat="45.601972" lon="13.77331"><tag k="communication:mobile_phone" v="yes"/><tag k="source" v="RAFVG"/><tag k="man_made" v="mast"/><tag k="operator" v="Telecom Italia Mobile"/><tag k="start_date" v="2015-02-24"/><tag k="tower:type" v="communication"/></node><node id="-16" version="1" lat="45.779258" lon="13.639005"><tag k="communication:mobile_phone" v="yes"/><tag k="source" v="RAFVG"/><tag k="man_made" v="mast"/><tag k="operator" v="Wind-Tre"/><tag k="start_date" v="2017-09-29"/><tag k="tower:type" v="communication"/></node><node id="-17" version="1" lat="45.735408" lon="13.691205"><tag k="communication:mobile_phone" v="yes"/><tag k="source" v="RAFVG"/><tag k="man_made" v="mast"/><tag k="operator" v="Telecom Italia Mobile"/><tag k="start_date" v="2012-12-24"/><tag k="fixme" v="unire"/><tag k="tower:type" v="communication"/></node><node id="-18" version="1" lat="45.73516" lon="13.698011"><tag k="communication:mobile_phone" v="yes"/><tag k="source" v="RAFVG"/><tag k="man_made" v="mast"/><tag k="operator" v="Wind-Tre"/><tag k="start_date" v="2017-05-19"/><tag k="tower:type" v="communication"/></node><node id="-19" version="1" lat="45.638972" lon="13.773915"><tag k="communication:mobile_phone" v="yes"/><tag k="start_date" v="2004-04-01"/><tag k="man_made" v="mast"/><tag k="source" v="RAFVG"/><tag k="tower:type" v="communication"/></node><node id="-20" version="1" lat="45.703262" lon="13.738029"><tag k="communication:mobile_phone" v="yes"/><tag k="source" v="RAFVG"/><tag k="man_made" v="mast"/><tag k="operator" v="Telecom Italia Mobile"/><tag k="start_date" v="2013-03-28"/><tag k="tower:type" v="communication"/></node><node id="-21" version="1" lat="45.618912" lon="13.804789"><tag k="communication:mobile_phone" v="yes"/><tag k="start_date" v="2004-10-20"/><tag k="man_made" v="mast"/><tag k="source" v="RAFVG"/><tag k="tower:type" v="communication"/></node><node id="-22" version="1" lat="45.656328" lon="13.773396"><tag k="communication:mobile_phone" v="yes"/><tag k="source" v="RAFVG"/><tag k="man_made" v="mast"/><tag k="operator" v="Telecom Italia Mobile"/><tag k="start_date" v="2019-05-29"/><tag k="tower:type" v="communication"/></node><node id="-23" version="1" lat="45.732447" lon="13.747095"><tag k="communication:mobile_phone" v="yes"/><tag k="source" v="RAFVG"/><tag k="man_made" v="mast"/><tag k="operator" v="Vodafone Omnitel"/><tag k="start_date" v="2015-06-22"/><tag k="tower:type" v="communication"/></node><node id="-24" version="1" lat="45.65014" lon="13.771352"><tag k="communication:mobile_phone" v="yes"/><tag k="source" v="RAFVG"/><tag k="man_made" v="mast"/><tag k="operator" v="Telecom Italia Mobile"/><tag k="start_date" v="2019-07-16"/><tag k="tower:type" v="communication"/></node><node id="-25" version="1" lat="45.64901" lon="13.797309"><tag k="communication:mobile_phone" v="yes"/><tag k="source" v="RAFVG"/><tag k="man_made" v="mast"/><tag k="operator" v="Telecom Italia Mobile"/><tag k="start_date" v="2003-10-06"/><tag k="tower:type" v="communication"/></node><node id="-26" version="1" lat="45.699746" lon="13.833231"><tag k="communication:mobile_phone" v="yes"/><tag k="source" v="RAFVG"/><tag k="man_made" v="mast"/><tag k="operator" v="Telecom Italia Mobile"/><tag k="start_date" v="2018-01-12"/><tag k="tower:type" v="communication"/></node><node id="-27" version="1" lat="45.724516" lon="13.701786"><tag k="communication:mobile_phone" v="yes"/><tag k="source" v="RAFVG"/><tag k="man_made" v="mast"/><tag k="operator" v="Wind-Tre"/><tag k="start_date" v="2017-06-01"/><tag k="tower:type" v="communication"/></node><node id="-28" version="1" lat="45.710205" lon="13.716449"><tag k="communication:mobile_phone" v="yes"/><tag k="source" v="RAFVG"/><tag k="man_made" v="mast"/><tag k="operator" v="Wind-Tre"/><tag k="start_date" v="2017-07-27"/><tag k="tower:type" v="communication"/></node><node id="-29" version="1" lat="45.647238" lon="13.779266"><tag k="communication:mobile_phone" v="yes"/><tag k="source" v="RAFVG"/><tag k="man_made" v="mast"/><tag k="operator" v="Wind-Tre"/><tag k="start_date" v="2013-01-25"/><tag k="fixme" v="unire"/><tag k="tower:type" v="communication"/></node><node id="-30" version="1" lat="45.616791" lon="13.792367"><tag k="communication:mobile_phone" v="yes"/><tag k="source" v="RAFVG"/><tag k="man_made" v="mast"/><tag k="operator" v="Telecom Italia Mobile"/><tag k="start_date" v="2013-02-13"/><tag k="tower:type" v="communication"/></node><node id="-31" version="1" lat="45.691151" lon="13.806151"><tag k="communication:mobile_phone" v="yes"/><tag k="source" v="RAFVG"/><tag k="man_made" v="mast"/><tag k="operator" v="Wind-Tre"/><tag k="start_date" v="2017-07-14"/><tag k="tower:type" v="communication"/></node><node id="-32" version="1" lat="45.621085" lon="13.781663"><tag k="communication:mobile_phone" v="yes"/><tag k="source" v="RAFVG"/><tag k="man_made" v="mast"/><tag k="start_date" v="2003-09-04"/><tag k="fixme" v="unire"/><tag k="tower:type" v="communication"/></node><node id="-33" version="1" lat="45.643127" lon="13.769"><tag k="communication:mobile_phone" v="yes"/><tag k="source" v="RAFVG"/><tag k="man_made" v="mast"/><tag k="operator" v="Telecom Italia Mobile"/><tag k="start_date" v="2017-02-28"/><tag k="tower:type" v="communication"/></node><node id="-34" version="1" lat="45.647961" lon="13.779715"><tag k="communication:mobile_phone" v="yes"/><tag k="source" v="RAFVG"/><tag k="man_made" v="mast"/><tag k="operator" v="Vodafone Omnitel"/><tag k="start_date" v="2015-09-09"/><tag k="fixme" v="unire"/><tag k="tower:type" v="communication"/></node><node id="-35" version="1" lat="45.668653" lon="13.761008"><tag k="communication:mobile_phone" v="yes"/><tag k="start_date" v="2004-07-15"/><tag k="man_made" v="mast"/><tag k="source" v="RAFVG"/><tag k="tower:type" v="communication"/></node><node id="-36" version="1" lat="45.590428" lon="13.802758"><tag k="communication:mobile_phone" v="yes"/><tag k="source" v="RAFVG"/><tag k="man_made" v="mast"/><tag k="operator" v="Iliad Italia"/><tag k="start_date" v="2018-06-26"/><tag k="tower:type" v="communication"/></node><node id="-37" version="1" lat="45.625135" lon="13.799839"><tag k="communication:mobile_phone" v="yes"/><tag k="source" v="RAFVG"/><tag k="man_made" v="mast"/><tag k="operator" v="Telecom Italia Mobile"/><tag k="start_date" v="2017-07-18"/><tag k="tower:type" v="communication"/></node><node id="-38" version="1" lat="45.641902" lon="13.792356"><tag k="communication:mobile_phone" v="yes"/><tag k="source" v="RAFVG"/><tag k="man_made" v="mast"/><tag k="operator" v="Wind-Tre"/><tag k="start_date" v="2017-09-11"/><tag k="fixme" v="unire"/><tag k="tower:type" v="communication"/></node><node id="-39" version="1" lat="45.629873" lon="13.801308"><tag k="communication:mobile_phone" v="yes"/><tag k="source" v="RAFVG"/><tag k="man_made" v="mast"/><tag k="operator" v="Telecom Italia Mobile"/><tag k="start_date" v="2013-08-09"/><tag k="tower:type" v="communication"/></node><node id="-40" version="1" lat="45.619117" lon="13.828485"><tag k="communication:mobile_phone" v="yes"/><tag k="source" v="RAFVG"/><tag k="man_made" v="mast"/><tag k="operator" v="Telecom Italia Mobile"/><tag k="start_date" v="2017-03-28"/><tag k="tower:type" v="communication"/></node><node id="-41" version="1" lat="45.643257" lon="13.760358"><tag k="communication:mobile_phone" v="yes"/><tag k="source" v="RAFVG"/><tag k="man_made" v="mast"/><tag k="operator" v="Telecom Italia Mobile"/><tag k="start_date" v="2017-07-18"/><tag k="tower:type" v="communication"/></node><node id="-42" version="1" lat="45.601648" lon="13.736023"><tag k="communication:mobile_phone" v="yes"/><tag k="source" v="RAFVG"/><tag k="man_made" v="mast"/><tag k="operator" v="Telecom Italia Mobile"/><tag k="start_date" v="2017-05-03"/><tag k="fixme" v="tower"/><tag k="tower:type" v="communication"/></node><node id="-43" version="1" lat="45.70082" lon="13.799691"><tag k="communication:mobile_phone" v="yes"/><tag k="source" v="RAFVG"/><tag k="man_made" v="mast"/><tag k="operator" v="Telecom Italia Mobile"/><tag k="start_date" v="2017-12-13"/><tag k="tower:type" v="communication"/></node><node id="-44" version="1" lat="45.729839" lon="13.724505"><tag k="communication:mobile_phone" v="yes"/><tag k="start_date" v="2003-12-29"/><tag k="man_made" v="mast"/><tag k="source" v="RAFVG"/><tag k="tower:type" v="communication"/></node><node id="-45" version="1" lat="45.638926" lon="13.86934"><tag k="communication:mobile_phone" v="yes"/><tag k="source" v="RAFVG"/><tag k="man_made" v="mast"/><tag k="operator" v="Wind-Tre"/><tag k="start_date" v="2017-09-29"/><tag k="tower:type" v="communication"/></node><node id="-46" version="1" lat="45.6571" lon="13.794909"><tag k="communication:mobile_phone" v="yes"/><tag k="source" v="RAFVG"/><tag k="man_made" v="mast"/><tag k="operator" v="Telecom Italia Mobile"/><tag k="start_date" v="2017-08-17"/><tag k="tower:type" v="communication"/></node><node id="-47" version="1" lat="45.65224" lon="13.780821"><tag k="communication:mobile_phone" v="yes"/><tag k="source" v="RAFVG"/><tag k="man_made" v="mast"/><tag k="operator" v="Telecom Italia Mobile"/><tag k="start_date" v="2013-06-14"/><tag k="tower:type" v="communication"/></node><node id="-48" version="1" lat="45.660662" lon="13.792342"><tag k="communication:mobile_phone" v="yes"/><tag k="source" v="RAFVG"/><tag k="man_made" v="mast"/><tag k="operator" v="Telecom Italia Mobile"/><tag k="start_date" v="2017-05-23"/><tag k="tower:type" v="communication"/></node><node id="-49" version="1" lat="45.654979" lon="13.777596"><tag k="communication:mobile_phone" v="yes"/><tag k="source" v="RAFVG"/><tag k="man_made" v="mast"/><tag k="operator" v="Telecom Italia Mobile"/><tag k="start_date" v="2003-04-15"/><tag k="tower:type" v="communication"/></node><node id="-50" version="1" lat="45.642514" lon="13.750177"><tag k="communication:mobile_phone" v="yes"/><tag k="source" v="RAFVG"/><tag k="man_made" v="mast"/><tag k="operator" v="Wind-Tre"/><tag k="start_date" v="2017-07-14"/><tag k="tower:type" v="communication"/></node><node id="-51" version="1" lat="45.702648" lon="13.720509"><tag k="communication:mobile_phone" v="yes"/><tag k="source" v="RAFVG"/><tag k="man_made" v="mast"/><tag k="operator" v="Telecom Italia Mobile"/><tag k="start_date" v="2013-05-06"/><tag k="tower:type" v="communication"/></node><node id="-52" version="1" lat="45.636456" lon="13.765155"><tag k="communication:mobile_phone" v="yes"/><tag k="source" v="RAFVG"/><tag k="man_made" v="mast"/><tag k="operator" v="Wind-Tre"/><tag k="start_date" v="2017-06-27"/><tag k="tower:type" v="communication"/></node><node id="-53" version="1" lat="45.752556" lon="13.658092"><tag k="communication:mobile_phone" v="yes"/><tag k="start_date" v="2004-01-12"/><tag k="man_made" v="mast"/><tag k="source" v="RAFVG"/><tag k="tower:type" v="communication"/></node><node id="-54" version="1" lat="45.626281" lon="13.786453"><tag k="communication:mobile_phone" v="yes"/><tag k="source" v="RAFVG"/><tag k="man_made" v="mast"/><tag k="operator" v="Wind-Tre"/><tag k="start_date" v="2017-08-18"/><tag k="tower:type" v="communication"/></node><node id="-55" version="1" lat="45.618986" lon="13.813138"><tag k="communication:mobile_phone" v="yes"/><tag k="source" v="RAFVG"/><tag k="man_made" v="mast"/><tag k="operator" v="Telecom Italia Mobile"/><tag k="start_date" v="2017-06-12"/><tag k="tower:type" v="communication"/></node><node id="-56" version="1" lat="45.644133" lon="13.809131"><tag k="communication:mobile_phone" v="yes"/><tag k="source" v="RAFVG"/><tag k="man_made" v="mast"/><tag k="operator" v="Telecom Italia Mobile"/><tag k="start_date" v="2017-05-18"/><tag k="tower:type" v="communication"/></node><node id="-57" version="1" lat="45.718122" lon="13.798293"><tag k="communication:mobile_phone" v="yes"/><tag k="source" v="RAFVG"/><tag k="man_made" v="mast"/><tag k="operator" v="Vodafone Omnitel"/><tag k="start_date" v="2014-09-23"/><tag k="tower:type" v="communication"/></node><node id="-58" version="1" lat="45.779206" lon="13.60302"><tag k="communication:mobile_phone" v="yes"/><tag k="source" v="RAFVG"/><tag k="man_made" v="mast"/><tag k="operator" v="Wind-Tre"/><tag k="start_date" v="2017-09-05"/><tag k="tower:type" v="communication"/></node><node id="-59" version="1" lat="45.662347" lon="13.768546"><tag k="communication:mobile_phone" v="yes"/><tag k="source" v="RAFVG"/><tag k="man_made" v="mast"/><tag k="start_date" v="2003-09-15"/><tag k="fixme" v="tower"/><tag k="tower:type" v="communication"/></node><node id="-60" version="1" lat="45.63514" lon="13.780685"><tag k="communication:mobile_phone" v="yes"/><tag k="source" v="RAFVG"/><tag k="man_made" v="mast"/><tag k="operator" v="Telecom Italia Mobile"/><tag k="start_date" v="2013-03-05"/><tag k="tower:type" v="communication"/></node><node id="-61" version="1" lat="45.632477" lon="13.817145"><tag k="communication:mobile_phone" v="yes"/><tag k="source" v="RAFVG"/><tag k="man_made" v="mast"/><tag k="operator" v="Telecom Italia Mobile"/><tag k="start_date" v="2017-06-27"/><tag k="tower:type" v="communication"/></node><node id="-62" version="1" lat="45.645116" lon="13.806236"><tag k="communication:mobile_phone" v="yes"/><tag k="source" v="RAFVG"/><tag k="man_made" v="mast"/><tag k="operator" v="Telecom Italia Mobile"/><tag k="start_date" v="2017-06-06"/><tag k="tower:type" v="communication"/></node><node id="-63" version="1" lat="45.678528" lon="13.754362"><tag k="communication:mobile_phone" v="yes"/><tag k="source" v="RAFVG"/><tag k="man_made" v="mast"/><tag k="operator" v="Wind-Tre"/><tag k="start_date" v="2020-06-03"/><tag k="tower:type" v="communication"/></node><node id="-64" version="1" lat="45.700082" lon="13.8310629"><tag k="communication:mobile_phone" v="yes"/><tag k="source" v="RAFVG"/><tag k="man_made" v="mast"/><tag k="operator" v="Wind-Tre"/><tag k="start_date" v="2017-06-21"/><tag k="tower:type" v="communication"/></node><node id="-65" version="1" lat="45.647148" lon="13.786968"><tag k="communication:mobile_phone" v="yes"/><tag k="source" v="RAFVG"/><tag k="man_made" v="mast"/><tag k="operator" v="Telecom Italia Mobile"/><tag k="start_date" v="2017-06-15"/><tag k="fixme" v="unire"/><tag k="tower:type" v="communication"/></node><node id="-66" version="1" lat="45.639389" lon="13.786192"><tag k="communication:mobile_phone" v="yes"/><tag k="source" v="RAFVG"/><tag k="man_made" v="mast"/><tag k="start_date" v="2007-11-19"/><tag k="fixme" v="unire"/><tag k="tower:type" v="communication"/></node><node id="-67" version="1" lat="45.671526" lon="13.788856"><tag k="communication:mobile_phone" v="yes"/><tag k="start_date" v="2007-10-24"/><tag k="man_made" v="mast"/><tag k="source" v="RAFVG"/><tag k="tower:type" v="communication"/></node><node id="-68" version="1" lat="45.651987" lon="13.774668"><tag k="communication:mobile_phone" v="yes"/><tag k="source" v="RAFVG"/><tag k="man_made" v="mast"/><tag k="operator" v="Telecom Italia Mobile"/><tag k="start_date" v="2017-06-06"/><tag k="tower:type" v="communication"/></node><node id="-69" version="1" lat="45.646596" lon="13.763072"><tag k="communication:mobile_phone" v="yes"/><tag k="source" v="RAFVG"/><tag k="man_made" v="mast"/><tag k="operator" v="Vodafone Omnitel"/><tag k="start_date" v="2014-09-18"/><tag k="tower:type" v="communication"/></node><node id="-70" version="1" lat="45.642893" lon="13.803167"><tag k="communication:mobile_phone" v="yes"/><tag k="source" v="RAFVG"/><tag k="man_made" v="mast"/><tag k="operator" v="Telecom Italia Mobile"/><tag k="start_date" v="2010-09-24"/><tag k="tower:type" v="communication"/></node><node id="-71" version="1" lat="45.650188" lon="13.784887"><tag k="communication:mobile_phone" v="yes"/><tag k="source" v="RAFVG"/><tag k="man_made" v="mast"/><tag k="operator" v="Telecom Italia Mobile"/><tag k="start_date" v="2017-06-16"/><tag k="tower:type" v="communication"/></node><node id="-72" version="1" lat="45.676415" lon="13.783884"><tag k="communication:mobile_phone" v="yes"/><tag k="source" v="RAFVG"/><tag k="man_made" v="mast"/><tag k="start_date" v="2007-11-15"/><tag k="fixme" v="unire"/><tag k="tower:type" v="communication"/></node><node id="-73" version="1" lat="45.650034" lon="13.771316"><tag k="communication:mobile_phone" v="yes"/><tag k="start_date" v="2016-08-19"/><tag k="man_made" v="mast"/><tag k="source" v="RAFVG"/><tag k="tower:type" v="communication"/></node><node id="-74" version="1" lat="45.645878" lon="13.782357"><tag k="communication:mobile_phone" v="yes"/><tag k="source" v="RAFVG"/><tag k="man_made" v="mast"/><tag k="operator" v="Telecom Italia Mobile"/><tag k="start_date" v="2017-04-11"/><tag k="tower:type" v="communication"/></node><node id="-75" version="1" lat="45.649367" lon="13.76707"><tag k="communication:mobile_phone" v="yes"/><tag k="source" v="RAFVG"/><tag k="man_made" v="mast"/><tag k="operator" v="Vodafone Omnitel"/><tag k="start_date" v="2016-02-23"/><tag k="tower:type" v="communication"/></node><node id="-76" version="1" lat="45.676412" lon="13.7528"><tag k="communication:mobile_phone" v="yes"/><tag k="source" v="RAFVG"/><tag k="man_made" v="mast"/><tag k="operator" v="Vodafone Omnitel"/><tag k="start_date" v="2016-09-09"/><tag k="tower:type" v="communication"/></node><node id="-77" version="1" lat="45.642353" lon="13.819864"><tag k="communication:mobile_phone" v="yes"/><tag k="source" v="RAFVG"/><tag k="man_made" v="mast"/><tag k="operator" v="Telecom Italia Mobile"/><tag k="start_date" v="2017-07-19"/><tag k="tower:type" v="communication"/></node><node id="-78" version="1" lat="45.716061" lon="13.788136"><tag k="communication:mobile_phone" v="yes"/><tag k="source" v="RAFVG"/><tag k="man_made" v="mast"/><tag k="operator" v="Vodafone Omnitel"/><tag k="start_date" v="2010-12-23"/><tag k="tower:type" v="communication"/></node><node id="-79" version="1" lat="45.781465" lon="13.601534"><tag k="communication:mobile_phone" v="yes"/><tag k="start_date" v="2004-01-12"/><tag k="man_made" v="mast"/><tag k="source" v="RAFVG"/><tag k="tower:type" v="communication"/></node><node id="-80" version="1" lat="45.623305" lon="13.828036"><tag k="communication:mobile_phone" v="yes"/><tag k="source" v="RAFVG"/><tag k="man_made" v="mast"/><tag k="operator" v="Wind-Tre"/><tag k="start_date" v="2017-08-08"/><tag k="tower:type" v="communication"/></node><node id="-81" version="1" lat="45.644737" lon="13.770926"><tag k="communication:mobile_phone" v="yes"/><tag k="source" v="RAFVG"/><tag k="man_made" v="mast"/><tag k="operator" v="Telecom Italia Mobile"/><tag k="start_date" v="2017-11-27"/><tag k="tower:type" v="communication"/></node><node id="-82" version="1" lat="45.649554" lon="13.777778"><tag k="communication:mobile_phone" v="yes"/><tag k="source" v="RAFVG"/><tag k="man_made" v="mast"/><tag k="operator" v="Telecom Italia Mobile"/><tag k="start_date" v="2017-03-28"/><tag k="fixme" v="unire"/><tag k="tower:type" v="communication"/></node><node id="-83" version="1" lat="45.647695" lon="13.818879"><tag k="communication:mobile_phone" v="yes"/><tag k="start_date" v="2007-11-28"/><tag k="man_made" v="mast"/><tag k="source" v="RAFVG"/><tag k="tower:type" v="communication"/></node><node id="-84" version="1" lat="45.626365" lon="13.832886"><tag k="communication:mobile_phone" v="yes"/><tag k="source" v="RAFVG"/><tag k="man_made" v="mast"/><tag k="operator" v="Wind-Tre"/><tag k="start_date" v="2017-06-28"/><tag k="tower:type" v="communication"/></node><node id="-85" version="1" lat="45.737702" lon="13.67911"><tag k="communication:mobile_phone" v="yes"/><tag k="start_date" v="2003-12-01"/><tag k="man_made" v="mast"/><tag k="source" v="RAFVG"/><tag k="tower:type" v="communication"/></node><node id="-86" version="1" lat="45.649884" lon="13.775832"><tag k="communication:mobile_phone" v="yes"/><tag k="source" v="RAFVG"/><tag k="man_made" v="mast"/><tag k="operator" v="Vodafone Omnitel"/><tag k="start_date" v="2016-02-23"/><tag k="tower:type" v="communication"/></node><node id="-87" version="1" lat="45.667208" lon="13.796895"><tag k="communication:mobile_phone" v="yes"/><tag k="start_date" v="2007-12-06"/><tag k="man_made" v="mast"/><tag k="source" v="RAFVG"/><tag k="tower:type" v="communication"/></node><node id="-88" version="1" lat="45.637479" lon="13.829598"><tag k="communication:mobile_phone" v="yes"/><tag k="source" v="RAFVG"/><tag k="man_made" v="mast"/><tag k="operator" v="Wind-Tre"/><tag k="start_date" v="2017-06-27"/><tag k="tower:type" v="communication"/></node><node id="-89" version="1" lat="45.750767" lon="13.667344"><tag k="communication:mobile_phone" v="yes"/><tag k="source" v="RAFVG"/><tag k="man_made" v="mast"/><tag k="operator" v="Vodafone Omnitel"/><tag k="start_date" v="2014-07-09"/><tag k="tower:type" v="communication"/></node><node id="-90" version="1" lat="45.655589" lon="13.805551"><tag k="communication:mobile_phone" v="yes"/><tag k="source" v="RAFVG"/><tag k="man_made" v="mast"/><tag k="operator" v="Wind-Tre"/><tag k="start_date" v="2017-07-27"/><tag k="tower:type" v="communication"/></node><node id="-91" version="1" lat="45.652394" lon="13.786993"><tag k="communication:mobile_phone" v="yes"/><tag k="source" v="RAFVG"/><tag k="man_made" v="mast"/><tag k="operator" v="Telecom Italia Mobile"/><tag k="start_date" v="2017-03-09"/><tag k="tower:type" v="communication"/></node><node id="-92" version="1" lat="45.660488" lon="13.802242"><tag k="communication:mobile_phone" v="yes"/><tag k="source" v="RAFVG"/><tag k="man_made" v="mast"/><tag k="operator" v="Telecom Italia Mobile"/><tag k="start_date" v="2017-07-31"/><tag k="tower:type" v="communication"/></node><node id="-93" version="1" lat="45.695996" lon="13.737015"><tag k="communication:mobile_phone" v="yes"/><tag k="source" v="RAFVG"/><tag k="man_made" v="mast"/><tag k="operator" v="Telecom Italia Mobile"/><tag k="start_date" v="2017-04-14"/><tag k="tower:type" v="communication"/></node><node id="-94" version="1" lat="45.597312" lon="13.723765"><tag k="communication:mobile_phone" v="yes"/><tag k="source" v="RAFVG"/><tag k="man_made" v="mast"/><tag k="operator" v="Wind-Tre"/><tag k="start_date" v="2017-08-16"/><tag k="tower:type" v="communication"/></node><node id="-95" version="1" lat="45.625158" lon="13.805747"><tag k="communication:mobile_phone" v="yes"/><tag k="source" v="RAFVG"/><tag k="man_made" v="mast"/><tag k="operator" v="Wind-Tre"/><tag k="start_date" v="2017-08-25"/><tag k="tower:type" v="communication"/></node><node id="-96" version="1" lat="45.598116" lon="13.743016"><tag k="communication:mobile_phone" v="yes"/><tag k="source" v="RAFVG"/><tag k="man_made" v="mast"/><tag k="operator" v="Vodafone Omnitel"/><tag k="start_date" v="2017-11-07"/><tag k="fixme" v="unire"/><tag k="tower:type" v="communication"/></node><node id="-97" version="1" lat="45.637262" lon="13.770591"><tag k="communication:mobile_phone" v="yes"/><tag k="source" v="RAFVG"/><tag k="man_made" v="mast"/><tag k="operator" v="Telecom Italia Mobile"/><tag k="start_date" v="2013-02-26"/><tag k="tower:type" v="communication"/></node><node id="-98" version="1" lat="45.613251" lon="13.80559"><tag k="communication:mobile_phone" v="yes"/><tag k="source" v="RAFVG"/><tag k="man_made" v="mast"/><tag k="operator" v="Telecom Italia Mobile"/><tag k="start_date" v="2020-10-21"/><tag k="tower:type" v="communication"/></node><node id="-99" version="1" lat="45.732168" lon="13.747537"><tag k="communication:mobile_phone" v="yes"/><tag k="source" v="RAFVG"/><tag k="man_made" v="mast"/><tag k="operator" v="Wind-Tre"/><tag k="start_date" v="2017-06-29"/><tag k="tower:type" v="communication"/></node><node id="-100" version="1" lat="45.64899" lon="13.769055"><tag k="communication:mobile_phone" v="yes"/><tag k="source" v="RAFVG"/><tag k="man_made" v="mast"/><tag k="operator" v="Vodafone Omnitel"/><tag k="start_date" v="2018-01-22"/><tag k="tower:type" v="communication"/></node><node id="-101" version="1" lat="45.623689" lon="13.7968"><tag k="communication:mobile_phone" v="yes"/><tag k="source" v="RAFVG"/><tag k="man_made" v="mast"/><tag k="operator" v="Telecom Italia Mobile"/><tag k="start_date" v="2013-12-03"/><tag k="tower:type" v="communication"/></node><node id="-102" version="1" lat="45.633597" lon="13.801651"><tag k="communication:mobile_phone" v="yes"/><tag k="source" v="RAFVG"/><tag k="man_made" v="mast"/><tag k="operator" v="Wind-Tre"/><tag k="start_date" v="2017-07-28"/><tag k="tower:type" v="communication"/></node><node id="-103" version="1" lat="45.619269" lon="13.789082"><tag k="communication:mobile_phone" v="yes"/><tag k="source" v="RAFVG"/><tag k="man_made" v="mast"/><tag k="operator" v="Vodafone Omnitel"/><tag k="start_date" v="2017-11-27"/><tag k="tower:type" v="communication"/></node><node id="-104" version="1" lat="45.655386" lon="13.787034"><tag k="communication:mobile_phone" v="yes"/><tag k="source" v="RAFVG"/><tag k="man_made" v="mast"/><tag k="operator" v="Wind-Tre"/><tag k="start_date" v="2020-02-12"/><tag k="tower:type" v="communication"/></node><node id="-105" version="1" lat="45.703727" lon="13.718601"><tag k="communication:mobile_phone" v="yes"/><tag k="source" v="RAFVG"/><tag k="man_made" v="mast"/><tag k="operator" v="Wind-Tre"/><tag k="start_date" v="2020-04-27"/><tag k="tower:type" v="communication"/></node><node id="-106" version="1" lat="45.614402" lon="13.8143"><tag k="communication:mobile_phone" v="yes"/><tag k="source" v="RAFVG"/><tag k="man_made" v="mast"/><tag k="operator" v="Telecom Italia Mobile"/><tag k="start_date" v="2020-11-20"/><tag k="tower:type" v="communication"/></node><node id="-107" version="1" lat="45.637835" lon="13.814517"><tag k="communication:mobile_phone" v="yes"/><tag k="source" v="RAFVG"/><tag k="man_made" v="mast"/><tag k="operator" v="Telecom Italia Mobile"/><tag k="start_date" v="2020-09-22"/><tag k="fixme" v="unire"/><tag k="tower:type" v="communication"/></node><node id="-108" version="1" lat="45.622078" lon="13.822104"><tag k="communication:mobile_phone" v="yes"/><tag k="source" v="RAFVG"/><tag k="man_made" v="mast"/><tag k="operator" v="Telecom Italia Mobile"/><tag k="start_date" v="2020-12-03"/><tag k="tower:type" v="communication"/></node><node id="-109" version="1" lat="45.650506" lon="13.813435"><tag k="communication:mobile_phone" v="yes"/><tag k="source" v="RAFVG"/><tag k="man_made" v="mast"/><tag k="operator" v="Telecom Italia Mobile"/><tag k="start_date" v="2020-11-26"/><tag k="tower:type" v="communication"/></node><node id="-110" version="1" lat="45.636044" lon="13.821581"><tag k="communication:mobile_phone" v="yes"/><tag k="source" v="RAFVG"/><tag k="man_made" v="mast"/><tag k="operator" v="Telecom Italia Mobile"/><tag k="start_date" v="2020-10-16"/><tag k="fixme" v="unire"/><tag k="tower:type" v="communication"/></node><node id="-111" version="1" lat="45.634904" lon="13.801089"><tag k="communication:mobile_phone" v="yes"/><tag k="source" v="RAFVG"/><tag k="man_made" v="mast"/><tag k="operator" v="Telecom Italia Mobile"/><tag k="start_date" v="2020-10-21"/><tag k="tower:type" v="communication"/></node><node id="-112" version="1" lat="45.67471" lon="13.767227"><tag k="communication:mobile_phone" v="yes"/><tag k="source" v="RAFVG"/><tag k="man_made" v="mast"/><tag k="operator" v="Wind-Tre"/><tag k="start_date" v="2020-08-12"/><tag k="tower:type" v="communication"/></node><node id="-113" version="1" lat="45.620808" lon="13.803607"><tag k="communication:mobile_phone" v="yes"/><tag k="source" v="RAFVG"/><tag k="man_made" v="mast"/><tag k="operator" v="Vodafone Omnitel"/><tag k="start_date" v="2020-11-05"/><tag k="tower:type" v="communication"/></node><node id="-114" version="1" lat="45.678628" lon="13.754175"><tag k="communication:mobile_phone" v="yes"/><tag k="source" v="RAFVG"/><tag k="man_made" v="mast"/><tag k="operator" v="Iliad Italia"/><tag k="start_date" v="2018-07-20"/><tag k="tower:type" v="communication"/></node><node id="-115" version="1" lat="45.688844" lon="13.771183"><tag k="communication:mobile_phone" v="yes"/><tag k="source" v="RAFVG"/><tag k="man_made" v="mast"/><tag k="operator" v="Vodafone Omnitel"/><tag k="start_date" v="2020-09-11"/><tag k="tower:type" v="communication"/></node><node id="-116" version="1" lat="45.619169" lon="13.798405"><tag k="communication:mobile_phone" v="yes"/><tag k="source" v="RAFVG"/><tag k="man_made" v="mast"/><tag k="operator" v="Telecom Italia Mobile"/><tag k="start_date" v="2020-10-21"/><tag k="tower:type" v="communication"/></node><node id="-117" version="1" lat="45.617565" lon="13.816971"><tag k="communication:mobile_phone" v="yes"/><tag k="source" v="RAFVG"/><tag k="man_made" v="mast"/><tag k="operator" v="Iliad Italia"/><tag k="start_date" v="2018-07-03"/><tag k="tower:type" v="communication"/></node><node id="-118" version="1" lat="45.639069" lon="13.814417"><tag k="communication:mobile_phone" v="yes"/><tag k="source" v="RAFVG"/><tag k="man_made" v="mast"/><tag k="operator" v="Iliad Italia"/><tag k="start_date" v="2018-08-03"/><tag k="tower:type" v="communication"/></node><node id="-119" version="1" lat="45.654973" lon="13.795153"><tag k="communication:mobile_phone" v="yes"/><tag k="source" v="RAFVG"/><tag k="man_made" v="mast"/><tag k="operator" v="Iliad Italia"/><tag k="start_date" v="2018-08-28"/><tag k="tower:type" v="communication"/></node><node id="-120" version="1" lat="45.655241" lon="13.78352"><tag k="communication:mobile_phone" v="yes"/><tag k="source" v="RAFVG"/><tag k="man_made" v="mast"/><tag k="operator" v="Iliad Italia"/><tag k="start_date" v="2018-03-07"/><tag k="tower:type" v="communication"/></node><node id="-121" version="1" lat="45.667158" lon="13.771785"><tag k="communication:mobile_phone" v="yes"/><tag k="source" v="RAFVG"/><tag k="man_made" v="mast"/><tag k="operator" v="Iliad Italia"/><tag k="start_date" v="2018-07-04"/><tag k="tower:type" v="communication"/></node><node id="-122" version="1" lat="45.65068" lon="13.771187"><tag k="communication:mobile_phone" v="yes"/><tag k="source" v="RAFVG"/><tag k="man_made" v="mast"/><tag k="operator" v="Iliad Italia"/><tag k="start_date" v="2018-07-03"/><tag k="tower:type" v="communication"/></node><node id="-123" version="1" lat="45.660104" lon="13.792599"><tag k="communication:mobile_phone" v="yes"/><tag k="source" v="RAFVG"/><tag k="man_made" v="mast"/><tag k="operator" v="Wind-Tre"/><tag k="start_date" v="2019-05-07"/><tag k="tower:type" v="communication"/></node><node id="-124" version="1" lat="45.609024" lon="13.828648"><tag k="communication:mobile_phone" v="yes"/><tag k="source" v="RAFVG"/><tag k="man_made" v="mast"/><tag k="operator" v="Iliad Italia"/><tag k="start_date" v="2018-03-01"/><tag k="tower:type" v="communication"/></node><node id="-125" version="1" lat="45.633629" lon="13.819058"><tag k="communication:mobile_phone" v="yes"/><tag k="source" v="RAFVG"/><tag k="man_made" v="mast"/><tag k="operator" v="Iliad Italia"/><tag k="start_date" v="2018-07-19"/><tag k="tower:type" v="communication"/></node><node id="-126" version="1" lat="45.657496" lon="13.808497"><tag k="communication:mobile_phone" v="yes"/><tag k="source" v="RAFVG"/><tag k="man_made" v="mast"/><tag k="operator" v="Iliad Italia"/><tag k="start_date" v="2018-08-07"/><tag k="tower:type" v="communication"/></node><node id="-127" version="1" lat="45.634513" lon="13.781001"><tag k="communication:mobile_phone" v="yes"/><tag k="source" v="RAFVG"/><tag k="man_made" v="mast"/><tag k="operator" v="Wind-Tre"/><tag k="start_date" v="2019-11-05"/><tag k="tower:type" v="communication"/></node><node id="-128" version="1" lat="45.6302996" lon="13.7994424"><tag k="communication:mobile_phone" v="yes"/><tag k="source" v="RAFVG"/><tag k="man_made" v="mast"/><tag k="operator" v="Wind-Tre"/><tag k="start_date" v="2019-03-27"/><tag k="tower:type" v="communication"/></node><node id="-129" version="1" lat="45.640409" lon="13.794794"><tag k="communication:mobile_phone" v="yes"/><tag k="source" v="RAFVG"/><tag k="man_made" v="mast"/><tag k="operator" v="Wind-Tre"/><tag k="start_date" v="2019-11-12"/><tag k="fixme" v="unire"/><tag k="tower:type" v="communication"/></node><node id="-130" version="1" lat="45.655427" lon="13.801063"><tag k="communication:mobile_phone" v="yes"/><tag k="source" v="RAFVG"/><tag k="man_made" v="mast"/><tag k="operator" v="Telecom Italia Mobile"/><tag k="start_date" v="2017-06-27"/><tag k="tower:type" v="communication"/></node><node id="-131" version="1" lat="45.775427" lon="13.611936"><tag k="communication:mobile_phone" v="yes"/><tag k="source" v="RAFVG"/><tag k="man_made" v="mast"/><tag k="operator" v="Telecom Italia Mobile"/><tag k="start_date" v="2018-02-07"/><tag k="tower:type" v="communication"/></node><node id="-132" version="1" lat="45.656437" lon="13.773406"><tag k="communication:mobile_phone" v="yes"/><tag k="source" v="RAFVG"/><tag k="man_made" v="mast"/><tag k="operator" v="Iliad Italia"/><tag k="start_date" v="2018-12-18"/><tag k="tower:type" v="communication"/></node><node id="-133" version="1" lat="45.600566" lon="13.804574"><tag k="communication:mobile_phone" v="yes"/><tag k="source" v="RAFVG"/><tag k="man_made" v="mast"/><tag k="operator" v="Iliad Italia"/><tag k="start_date" v="2018-03-16"/><tag k="tower:type" v="communication"/></node><node id="-134" version="1" lat="45.789658" lon="13.588912"><tag k="communication:mobile_phone" v="yes"/><tag k="source" v="RAFVG"/><tag k="man_made" v="mast"/><tag k="operator" v="Wind-Tre"/><tag k="start_date" v="2019-12-23"/><tag k="tower:type" v="communication"/></node><node id="-135" version="1" lat="45.646493" lon="13.761866"><tag k="communication:mobile_phone" v="yes"/><tag k="source" v="RAFVG"/><tag k="man_made" v="mast"/><tag k="operator" v="Wind-Tre"/><tag k="start_date" v="2019-12-30"/><tag k="tower:type" v="communication"/></node><node id="-136" version="1" lat="45.633372" lon="13.802642"><tag k="communication:mobile_phone" v="yes"/><tag k="source" v="RAFVG"/><tag k="man_made" v="mast"/><tag k="operator" v="Iliad Italia"/><tag k="start_date" v="2018-10-19"/><tag k="tower:type" v="communication"/></node><node id="-137" version="1" lat="45.640353" lon="13.825929"><tag k="communication:mobile_phone" v="yes"/><tag k="source" v="RAFVG"/><tag k="man_made" v="mast"/><tag k="operator" v="Iliad Italia"/><tag k="start_date" v="2018-07-31"/><tag k="tower:type" v="communication"/></node><node id="-138" version="1" lat="45.645017" lon="13.785151"><tag k="communication:mobile_phone" v="yes"/><tag k="source" v="RAFVG"/><tag k="man_made" v="mast"/><tag k="operator" v="Iliad Italia"/><tag k="start_date" v="2018-03-07"/><tag k="tower:type" v="communication"/></node><node id="-139" version="1" lat="45.628879" lon="13.791175"><tag k="communication:mobile_phone" v="yes"/><tag k="source" v="RAFVG"/><tag k="man_made" v="mast"/><tag k="operator" v="Iliad Italia"/><tag k="start_date" v="2018-03-08"/><tag k="tower:type" v="communication"/></node><node id="-140" version="1" lat="45.621448" lon="13.786323"><tag k="communication:mobile_phone" v="yes"/><tag k="source" v="RAFVG"/><tag k="man_made" v="mast"/><tag k="operator" v="Iliad Italia"/><tag k="start_date" v="2018-08-03"/><tag k="tower:type" v="communication"/></node><node id="-141" version="1" lat="45.641795" lon="13.781342"><tag k="communication:mobile_phone" v="yes"/><tag k="source" v="RAFVG"/><tag k="man_made" v="mast"/><tag k="operator" v="Iliad Italia"/><tag k="start_date" v="2018-02-19"/><tag k="fixme" v="unire"/><tag k="tower:type" v="communication"/></node><node id="-142" version="1" lat="45.625691" lon="13.899164"><tag k="communication:mobile_phone" v="yes"/><tag k="source" v="RAFVG"/><tag k="man_made" v="mast"/><tag k="operator" v="Iliad Italia"/><tag k="start_date" v="2018-06-04"/><tag k="tower:type" v="communication"/></node><node id="-143" version="1" lat="45.645961" lon="13.806657"><tag k="communication:mobile_phone" v="yes"/><tag k="source" v="RAFVG"/><tag k="man_made" v="mast"/><tag k="operator" v="Wind-Tre"/><tag k="start_date" v="2020-05-04"/><tag k="fixme" v="unire"/><tag k="tower:type" v="communication"/></node><node id="-144" version="1" lat="45.593042" lon="13.802669"><tag k="communication:mobile_phone" v="yes"/><tag k="source" v="RAFVG"/><tag k="man_made" v="mast"/><tag k="operator" v="Wind-Tre"/><tag k="start_date" v="2019-04-04"/><tag k="tower:type" v="communication"/></node><node id="-145" version="1" lat="45.611092" lon="13.821886"><tag k="communication:mobile_phone" v="yes"/><tag k="source" v="RAFVG"/><tag k="man_made" v="mast"/><tag k="operator" v="Iliad Italia"/><tag k="start_date" v="2018-07-16"/><tag k="tower:type" v="communication"/></node><node id="-146" version="1" lat="45.624867" lon="13.784461"><tag k="communication:mobile_phone" v="yes"/><tag k="source" v="RAFVG"/><tag k="man_made" v="mast"/><tag k="operator" v="Iliad Italia"/><tag k="start_date" v="2019-06-21"/><tag k="tower:type" v="communication"/></node><node id="-147" version="1" lat="45.601059" lon="13.772277"><tag k="communication:mobile_phone" v="yes"/><tag k="source" v="RAFVG"/><tag k="man_made" v="mast"/><tag k="operator" v="Iliad Italia"/><tag k="start_date" v="2018-07-11"/><tag k="tower:type" v="communication"/></node><node id="-148" version="1" lat="45.623277" lon="13.832648"><tag k="communication:mobile_phone" v="yes"/><tag k="source" v="RAFVG"/><tag k="man_made" v="mast"/><tag k="operator" v="Iliad Italia"/><tag k="start_date" v="2018-06-26"/><tag k="tower:type" v="communication"/></node><node id="-149" version="1" lat="45.627294" lon="13.809907"><tag k="communication:mobile_phone" v="yes"/><tag k="source" v="RAFVG"/><tag k="man_made" v="mast"/><tag k="operator" v="Iliad Italia"/><tag k="start_date" v="2019-06-18"/><tag k="tower:type" v="communication"/></node><node id="-150" version="1" lat="45.610572" lon="13.813633"><tag k="communication:mobile_phone" v="yes"/><tag k="source" v="RAFVG"/><tag k="man_made" v="mast"/><tag k="operator" v="Wind-Tre"/><tag k="start_date" v="2019-05-15"/><tag k="tower:type" v="communication"/></node><node id="-151" version="1" lat="45.598298" lon="13.747471"><tag k="communication:mobile_phone" v="yes"/><tag k="source" v="RAFVG"/><tag k="man_made" v="mast"/><tag k="operator" v="Wind-Tre"/><tag k="start_date" v="2019-05-29"/><tag k="fixme" v="tower"/><tag k="tower:type" v="communication"/></node><node id="-152" version="1" lat="45.669911" lon="13.765913"><tag k="communication:mobile_phone" v="yes"/><tag k="source" v="RAFVG"/><tag k="man_made" v="mast"/><tag k="operator" v="Wind-Tre"/><tag k="start_date" v="2019-12-03"/><tag k="tower:type" v="communication"/></node><node id="-153" version="1" lat="45.641837" lon="13.779304"><tag k="communication:mobile_phone" v="yes"/><tag k="source" v="RAFVG"/><tag k="man_made" v="mast"/><tag k="operator" v="Wind-Tre"/><tag k="start_date" v="2019-12-05"/><tag k="fixme" v="unire"/><tag k="tower:type" v="communication"/></node><node id="-154" version="1" lat="45.662508" lon="13.770848"><tag k="communication:mobile_phone" v="yes"/><tag k="source" v="RAFVG"/><tag k="man_made" v="mast"/><tag k="operator" v="Wind-Tre"/><tag k="start_date" v="2019-12-09"/><tag k="tower:type" v="communication"/></node><node id="-155" version="1" lat="45.650391" lon="13.777367"><tag k="communication:mobile_phone" v="yes"/><tag k="source" v="RAFVG"/><tag k="man_made" v="mast"/><tag k="operator" v="Wind-Tre"/><tag k="start_date" v="2019-10-24"/><tag k="tower:type" v="communication"/></node><node id="-156" version="1" lat="45.65905" lon="13.772691"><tag k="communication:mobile_phone" v="yes"/><tag k="source" v="RAFVG"/><tag k="man_made" v="mast"/><tag k="operator" v="Wind-Tre"/><tag k="start_date" v="2019-12-03"/><tag k="tower:type" v="communication"/></node><node id="-157" version="1" lat="45.645098" lon="13.770512"><tag k="communication:mobile_phone" v="yes"/><tag k="source" v="RAFVG"/><tag k="man_made" v="mast"/><tag k="operator" v="Iliad Italia"/><tag k="start_date" v="2018-07-16"/><tag k="tower:type" v="communication"/></node><node id="-158" version="1" lat="45.748698" lon="13.661313"><tag k="communication:mobile_phone" v="yes"/><tag k="source" v="RAFVG"/><tag k="man_made" v="mast"/><tag k="operator" v="Vodafone Omnitel"/><tag k="start_date" v="2014-04-07"/><tag k="tower:type" v="communication"/></node><node id="-159" version="1" lat="45.624048" lon="13.900441"><tag k="communication:mobile_phone" v="yes"/><tag k="source" v="RAFVG"/><tag k="man_made" v="mast"/><tag k="operator" v="Vodafone Omnitel"/><tag k="start_date" v="2014-12-31"/><tag k="fixme" v="unire"/><tag k="tower:type" v="communication"/></node><node id="-160" version="1" lat="45.645573" lon="13.77877"><tag k="communication:mobile_phone" v="yes"/><tag k="source" v="RAFVG"/><tag k="man_made" v="mast"/><tag k="operator" v="Telecom Italia Mobile"/><tag k="start_date" v="2017-06-26"/><tag k="fixme" v="unire"/><tag k="tower:type" v="communication"/></node><node id="-161" version="1" lat="45.641119" lon="13.801862"><tag k="communication:mobile_phone" v="yes"/><tag k="source" v="RAFVG"/><tag k="man_made" v="mast"/><tag k="operator" v="Wind-Tre"/><tag k="start_date" v="2017-09-05"/><tag k="tower:type" v="communication"/></node><node id="-162" version="1" lat="45.659095" lon="13.772798"><tag k="communication:mobile_phone" v="yes"/><tag k="source" v="RAFVG"/><tag k="man_made" v="mast"/><tag k="operator" v="Telecom Italia Mobile"/><tag k="start_date" v="2013-03-21"/><tag k="tower:type" v="communication"/></node><node id="-163" version="1" lat="45.639255" lon="13.788927"><tag k="communication:mobile_phone" v="yes"/><tag k="source" v="RAFVG"/><tag k="man_made" v="mast"/><tag k="operator" v="Telecom Italia Mobile"/><tag k="start_date" v="2017-05-19"/><tag k="fixme" v="unire"/><tag k="tower:type" v="communication"/></node><node id="-164" version="1" lat="45.790293" lon="13.590081"><tag k="communication:mobile_phone" v="yes"/><tag k="source" v="RAFVG"/><tag k="man_made" v="mast"/><tag k="operator" v="Telecom Italia Mobile"/><tag k="start_date" v="2018-03-23"/><tag k="tower:type" v="communication"/></node><node id="-165" version="1" lat="45.664249" lon="13.794103"><tag k="communication:mobile_phone" v="yes"/><tag k="source" v="RAFVG"/><tag k="man_made" v="mast"/><tag k="operator" v="Telecom Italia Mobile"/><tag k="start_date" v="2017-05-23"/><tag k="tower:type" v="communication"/></node></osm>