<?xml version='1.0' encoding='utf-8'?>
<osm generator="OSM Conflator 1.3.1" version="0.6"><changeset><tag k="type" v="import"/><tag k="source" v="RAFVG"/><tag k="created_by" v="OSM Conflator 1.3.1"/></changeset><node id="-1" version="1" lat="46.482405" lon="13.520492"><tag k="operator" v="Telecom Italia Mobile"/><tag k="communication:mobile_phone" v="yes"/><tag k="start_date" v="2017-02-21"/><tag k="man_made" v="mast"/><tag k="tower:type" v="communication"/><tag k="source" v="RAFVG"/></node><node id="-2" version="1" lat="46.437529" lon="13.571103"><tag k="operator" v="Vodafone Omnitel"/><tag k="communication:mobile_phone" v="yes"/><tag k="start_date" v="2002-07-15"/><tag k="man_made" v="mast"/><tag k="tower:type" v="communication"/><tag k="source" v="RAFVG"/></node><node id="-3" version="1" lat="46.104863" lon="13.486666"><tag k="operator" v="Vodafone Omnitel"/><tag k="communication:mobile_phone" v="yes"/><tag k="start_date" v="2016-01-29"/><tag k="man_made" v="mast"/><tag k="tower:type" v="communication"/><tag k="source" v="RAFVG"/></node><node id="4177309851" version="1" lat="46.047837" lon="13.3831101" action="modify"><tag k="operator" v="Wind-Tre"/><tag k="communication:mobile_phone" v="yes"/><tag k="start_date" v="2018-12-11"/><tag k="man_made" v="mast"/><tag k="tower:type" v="communication"/><tag k="source" v="RAFVG"/></node><node id="2667751712" version="2" lat="46.083478" lon="13.302853" action="modify"><tag k="operator" v="Wind-Tre"/><tag k="communication:mobile_phone" v="yes"/><tag k="start_date" v="2020-03-06"/><tag k="man_made" v="tower"/><tag k="tower:type" v="communication"/><tag k="source" v="RAFVG"/></node><node id="4224321702" version="1" lat="45.9725365" lon="13.4022749" action="modify"><tag k="operator" v="Wind-Tre"/><tag k="communication:mobile_phone" v="yes"/><tag k="start_date" v="2010-08-24"/><tag k="man_made" v="mast"/><tag k="tower:type" v="communication"/><tag k="source" v="RAFVG"/></node><node id="2639531110" version="1" lat="46.0134122" lon="13.2178746" action="modify"><tag k="operator" v="Telecom Italia Mobile"/><tag k="communication:mobile_phone" v="yes"/><tag k="start_date" v="2020-05-04"/><tag k="man_made" v="mast"/><tag k="tower:type" v="communication"/><tag k="source" v="RAFVG"/></node><node id="2667751711" version="4" lat="46.0562911" lon="13.3873713" action="modify"><tag k="operator" v="Iliad Italia"/><tag k="man_made" v="mast"/><tag k="ref:mcc" v="222"/><tag k="communication:mobile_phone" v="yes"/><tag k="ref:lac" v="24062"/><tag k="ref:mnc" v="88"/><tag k="start_date" v="2020-05-07"/><tag k="tower:type" v="communication"/><tag k="source" v="RAFVG"/></node><node id="2615927979" version="1" lat="46.087084" lon="13.3786522" action="modify"><tag k="operator" v="Wind-Tre"/><tag k="communication:mobile_phone" v="yes"/><tag k="start_date" v="2017-01-24"/><tag k="man_made" v="mast"/><tag k="tower:type" v="communication"/><tag k="source" v="RAFVG"/></node><node id="2639537609" version="2" lat="46.1117582" lon="13.2048804" action="modify"><tag k="height" v="30m"/><tag k="operator" v="Wind;H3G"/><tag k="communication:mobile_phone" v="yes"/><tag k="start_date" v="2009-05-20"/><tag k="man_made" v="tower"/><tag k="tower:type" v="communication"/><tag k="source" v="RAFVG"/></node><node id="2667751710" version="2" lat="46.0385802" lon="13.3103098" action="modify"><tag k="operator" v="Omnitel"/><tag k="communication:mobile_phone" v="yes"/><tag k="start_date" v="2014-01-13"/><tag k="man_made" v="mast"/><tag k="tower:type" v="communication"/><tag k="source" v="RAFVG"/></node><node id="2639539224" version="3" lat="46.1089199" lon="13.2103887" action="modify"><tag k="operator" v="Telecom;Omnitel"/><tag k="fixme" v="unire"/><tag k="communication:mobile_phone" v="yes"/><tag k="start_date" v="2016-05-05"/><tag k="man_made" v="water_tower"/><tag k="tower:type" v="communication"/><tag k="source" v="RAFVG"/></node><node id="4248319720" version="1" lat="46.061308" lon="13.3933623" action="modify"><tag k="operator" v="Vodafone Omnitel"/><tag k="communication:mobile_phone" v="yes"/><tag k="start_date" v="2014-04-17"/><tag k="man_made" v="mast"/><tag k="tower:type" v="communication"/><tag k="source" v="RAFVG"/></node><node id="3055627506" version="2" lat="45.9842551" lon="13.3776583" action="modify"><tag k="operator" v="Vodafone Omnitel"/><tag k="communication:mobile_phone" v="yes"/><tag k="start_date" v="2015-06-05"/><tag k="man_made" v="mast"/><tag k="tower:type" v="communication"/><tag k="source" v="RAFVG"/></node><node id="2582092573" version="2" lat="46.2768417" lon="13.2688577" action="modify"><tag k="operator" v="Telecom;Wind"/><tag k="communication:mobile_phone" v="yes"/><tag k="start_date" v="2014-04-09"/><tag k="man_made" v="tower"/><tag k="tower:type" v="communication"/><tag k="source" v="RAFVG"/></node><node id="3136627006" version="1" lat="46.031536" lon="13.3935266" action="modify"><tag k="operator" v="Vodafone Omnitel"/><tag k="communication:mobile_phone" v="yes"/><tag k="start_date" v="2015-06-30"/><tag k="man_made" v="mast"/><tag k="tower:type" v="communication"/><tag k="source" v="RAFVG"/></node><node id="2577032412" version="3" lat="46.0457782" lon="13.4430933" action="modify"><tag k="height" v="30"/><tag k="operator" v="Wind-Tre"/><tag k="ref:cellid" v="311"/><tag k="ref:mcc" v="222"/><tag k="communication:mobile_phone" v="yes"/><tag k="ref:lac" v="25052"/><tag k="ref:mnc" v="88"/><tag k="start_date" v="2018-11-09"/><tag k="tower:type" v="communication"/><tag k="man_made" v="tower"/><tag k="source" v="RAFVG"/></node><node id="2791452434" version="1" lat="46.0947952" lon="13.2312647" action="modify"><tag k="operator" v="Telecom Italia Mobile"/><tag k="communication:mobile_phone" v="yes"/><tag k="start_date" v="2017-06-12"/><tag k="man_made" v="mast"/><tag k="tower:type" v="communication"/><tag k="source" v="RAFVG"/></node><node id="5844362332" version="1" lat="46.0626053" lon="13.2468647" action="modify"><tag k="operator" v="Telecom Italia Mobile"/><tag k="communication:mobile_phone" v="yes"/><tag k="start_date" v="2017-06-13"/><tag k="man_made" v="mast"/><tag k="tower:type" v="communication"/><tag k="source" v="RAFVG"/></node><node id="1343284735" version="2" lat="45.9761242" lon="13.2425463" action="modify"><tag k="operator" v="Wind-Tre"/><tag k="communication:mobile_phone" v="yes"/><tag k="start_date" v="2019-08-30"/><tag k="man_made" v="mast"/><tag k="tower:type" v="communication"/><tag k="source" v="RAFVG"/></node><node id="4732781744" version="1" lat="46.50156" lon="13.5717493" action="modify"><tag k="operator" v="Telecom Italia Mobile"/><tag k="communication:mobile_phone" v="yes"/><tag k="start_date" v="2019-05-15"/><tag k="man_made" v="tower"/><tag k="tower:type" v="communication"/><tag k="source" v="RAFVG"/></node><node id="4629894165" version="1" lat="45.9729108" lon="13.4047076" action="modify"><tag k="operator" v="Wind-Tre"/><tag k="communication:mobile_phone" v="yes"/><tag k="start_date" v="2020-04-23"/><tag k="man_made" v="mast"/><tag k="tower:type" v="communication"/><tag k="source" v="RAFVG"/></node><node id="8376933521" version="2" lat="46.021253" lon="13.3926468" action="modify"><tag k="operator" v="Wind-Tre"/><tag k="communication:mobile_phone" v="yes"/><tag k="start_date" v="2020-06-08"/><tag k="man_made" v="mast"/><tag k="tower:construction" v="tube"/><tag k="tower:type" v="communication"/><tag k="source" v="RAFVG"/></node><node id="-4" version="1" lat="45.685" lon="13.138238"><tag k="operator" v="Telecom Italia Mobile"/><tag k="communication:mobile_phone" v="yes"/><tag k="start_date" v="2019-03-28"/><tag k="man_made" v="mast"/><tag k="tower:type" v="communication"/><tag k="source" v="RAFVG"/></node><node id="-5" version="1" lat="46.149965" lon="13.527011"><tag k="operator" v="Telecom Italia Mobile"/><tag k="communication:mobile_phone" v="yes"/><tag k="start_date" v="2017-10-10"/><tag k="man_made" v="mast"/><tag k="tower:type" v="communication"/><tag k="source" v="RAFVG"/></node><node id="-6" version="1" lat="45.6883" lon="13.139006"><tag k="operator" v="Telecom Italia Mobile"/><tag k="communication:mobile_phone" v="yes"/><tag k="start_date" v="2018-05-18"/><tag k="man_made" v="mast"/><tag k="tower:type" v="communication"/><tag k="source" v="RAFVG"/></node><node id="-7" version="1" lat="45.829717" lon="13.108338"><tag k="operator" v="Wind-Tre"/><tag k="communication:mobile_phone" v="yes"/><tag k="start_date" v="2018-11-20"/><tag k="man_made" v="mast"/><tag k="tower:type" v="communication"/><tag k="source" v="RAFVG"/></node><node id="-8" version="1" lat="45.854707" lon="13.317784"><tag k="man_made" v="mast"/><tag k="tower:type" v="communication"/><tag k="communication:mobile_phone" v="yes"/><tag k="start_date" v="2007-10-25"/><tag k="source" v="RAFVG"/></node><node id="-9" version="1" lat="45.878315" lon="13.052758"><tag k="operator" v="Wind-Tre"/><tag k="communication:mobile_phone" v="yes"/><tag k="start_date" v="2019-02-28"/><tag k="man_made" v="mast"/><tag k="tower:type" v="communication"/><tag k="source" v="RAFVG"/></node><node id="-10" version="1" lat="45.784811" lon="13.229656"><tag k="operator" v="Telecom Italia Mobile"/><tag k="fixme" v="tower"/><tag k="communication:mobile_phone" v="yes"/><tag k="start_date" v="2013-07-03"/><tag k="man_made" v="mast"/><tag k="tower:type" v="communication"/><tag k="source" v="RAFVG"/></node><node id="-11" version="1" lat="45.81225" lon="13.003908"><tag k="operator" v="Telecom Italia Mobile"/><tag k="communication:mobile_phone" v="yes"/><tag k="start_date" v="2014-05-15"/><tag k="man_made" v="mast"/><tag k="tower:type" v="communication"/><tag k="source" v="RAFVG"/></node><node id="-12" version="1" lat="46.416581" lon="12.801005"><tag k="operator" v="Wind-Tre"/><tag k="communication:mobile_phone" v="yes"/><tag k="start_date" v="2011-12-01"/><tag k="man_made" v="mast"/><tag k="tower:type" v="communication"/><tag k="source" v="RAFVG"/></node><node id="-13" version="1" lat="45.821119" lon="13.351939"><tag k="operator" v="Iliad Italia"/><tag k="communication:mobile_phone" v="yes"/><tag k="start_date" v="2020-03-23"/><tag k="man_made" v="mast"/><tag k="tower:type" v="communication"/><tag k="source" v="RAFVG"/></node><node id="-14" version="1" lat="46.353893" lon="13.056164"><tag k="operator" v="Vodafone Omnitel"/><tag k="communication:mobile_phone" v="yes"/><tag k="start_date" v="2015-10-01"/><tag k="man_made" v="mast"/><tag k="tower:type" v="communication"/><tag k="source" v="RAFVG"/></node><node id="-15" version="1" lat="46.035742" lon="13.098812"><tag k="operator" v="Vodafone Omnitel"/><tag k="communication:mobile_phone" v="yes"/><tag k="start_date" v="2014-01-13"/><tag k="man_made" v="mast"/><tag k="tower:type" v="communication"/><tag k="source" v="RAFVG"/></node><node id="-16" version="1" lat="46.049453" lon="13.249958"><tag k="operator" v="Vodafone Omnitel"/><tag k="communication:mobile_phone" v="yes"/><tag k="start_date" v="2013-02-01"/><tag k="man_made" v="mast"/><tag k="tower:type" v="communication"/><tag k="source" v="RAFVG"/></node><node id="-17" version="1" lat="45.885615" lon="12.995346"><tag k="operator" v="Wind-Tre"/><tag k="communication:mobile_phone" v="yes"/><tag k="start_date" v="2019-04-23"/><tag k="man_made" v="mast"/><tag k="tower:type" v="communication"/><tag k="source" v="RAFVG"/></node><node id="-18" version="1" lat="46.086402" lon="13.143168"><tag k="operator" v="Telecom Italia Mobile"/><tag k="communication:mobile_phone" v="yes"/><tag k="start_date" v="2012-07-10"/><tag k="man_made" v="mast"/><tag k="tower:type" v="communication"/><tag k="source" v="RAFVG"/></node><node id="-19" version="1" lat="46.043681" lon="13.272635"><tag k="man_made" v="mast"/><tag k="tower:type" v="communication"/><tag k="communication:mobile_phone" v="yes"/><tag k="start_date" v="2007-10-22"/><tag k="source" v="RAFVG"/></node><node id="-20" version="1" lat="45.92917" lon="13.14589"><tag k="operator" v="Telecom Italia Mobile"/><tag k="communication:mobile_phone" v="yes"/><tag k="start_date" v="2017-11-15"/><tag k="man_made" v="mast"/><tag k="tower:type" v="communication"/><tag k="source" v="RAFVG"/></node><node id="-21" version="1" lat="46.144233" lon="13.017767"><tag k="operator" v="Wind-Tre"/><tag k="communication:mobile_phone" v="yes"/><tag k="start_date" v="2018-03-08"/><tag k="man_made" v="mast"/><tag k="tower:type" v="communication"/><tag k="source" v="RAFVG"/></node><node id="-22" version="1" lat="46.087784" lon="12.947114"><tag k="operator" v="Vodafone Omnitel"/><tag k="communication:mobile_phone" v="yes"/><tag k="start_date" v="2015-05-05"/><tag k="man_made" v="mast"/><tag k="tower:type" v="communication"/><tag k="source" v="RAFVG"/></node><node id="-23" version="1" lat="46.000286" lon="13.070548"><tag k="operator" v="Telecom Italia Mobile"/><tag k="communication:mobile_phone" v="yes"/><tag k="start_date" v="2019-03-05"/><tag k="man_made" v="mast"/><tag k="tower:type" v="communication"/><tag k="source" v="RAFVG"/></node><node id="-24" version="1" lat="46.191882" lon="13.46184"><tag k="operator" v="Wind-Tre"/><tag k="communication:mobile_phone" v="yes"/><tag k="start_date" v="2017-07-04"/><tag k="man_made" v="mast"/><tag k="tower:type" v="communication"/><tag k="source" v="RAFVG"/></node><node id="-25" version="1" lat="46.420106" lon="13.571831"><tag k="operator" v="Telecom Italia Mobile"/><tag k="communication:mobile_phone" v="yes"/><tag k="start_date" v="2014-03-03"/><tag k="man_made" v="mast"/><tag k="tower:type" v="communication"/><tag k="source" v="RAFVG"/></node><node id="-26" version="1" lat="46.406047" lon="13.308917"><tag k="operator" v="Wind-Tre"/><tag k="communication:mobile_phone" v="yes"/><tag k="start_date" v="2019-03-27"/><tag k="man_made" v="mast"/><tag k="tower:type" v="communication"/><tag k="source" v="RAFVG"/></node><node id="-27" version="1" lat="46.2311938" lon="13.1628093"><tag k="man_made" v="mast"/><tag k="tower:type" v="communication"/><tag k="communication:mobile_phone" v="yes"/><tag k="start_date" v="2005-05-18"/><tag k="source" v="RAFVG"/></node><node id="-28" version="1" lat="46.019465" lon="13.282988"><tag k="operator" v="Vodafone Omnitel"/><tag k="communication:mobile_phone" v="yes"/><tag k="start_date" v="2014-04-29"/><tag k="man_made" v="mast"/><tag k="tower:type" v="communication"/><tag k="source" v="RAFVG"/></node><node id="-29" version="1" lat="46.249585" lon="13.086854"><tag k="operator" v="Telecom Italia Mobile"/><tag k="communication:mobile_phone" v="yes"/><tag k="start_date" v="2019-09-09"/><tag k="man_made" v="mast"/><tag k="tower:type" v="communication"/><tag k="source" v="RAFVG"/></node><node id="-30" version="1" lat="46.094324" lon="13.292713"><tag k="operator" v="Telecom Italia Mobile"/><tag k="communication:mobile_phone" v="yes"/><tag k="start_date" v="2018-03-02"/><tag k="man_made" v="mast"/><tag k="tower:type" v="communication"/><tag k="source" v="RAFVG"/></node><node id="-31" version="1" lat="46.498879" lon="13.500335"><tag k="man_made" v="mast"/><tag k="tower:type" v="communication"/><tag k="communication:mobile_phone" v="yes"/><tag k="start_date" v="2002-03-20"/><tag k="source" v="RAFVG"/></node><node id="-32" version="1" lat="46.07156" lon="13.192697"><tag k="operator" v="Telecom Italia Mobile"/><tag k="communication:mobile_phone" v="yes"/><tag k="start_date" v="2015-10-29"/><tag k="man_made" v="mast"/><tag k="tower:type" v="communication"/><tag k="source" v="RAFVG"/></node><node id="-33" version="1" lat="46.5059" lon="13.307745"><tag k="operator" v="Wind-Tre"/><tag k="communication:mobile_phone" v="yes"/><tag k="start_date" v="2019-05-02"/><tag k="man_made" v="mast"/><tag k="tower:type" v="communication"/><tag k="source" v="RAFVG"/></node><node id="-34" version="1" lat="45.832861" lon="13.391083"><tag k="operator" v="Telecom Italia Mobile"/><tag k="communication:mobile_phone" v="yes"/><tag k="start_date" v="2014-05-09"/><tag k="man_made" v="mast"/><tag k="tower:type" v="communication"/><tag k="source" v="RAFVG"/></node><node id="-35" version="1" lat="46.27645" lon="13.075292"><tag k="operator" v="Vodafone Omnitel"/><tag k="communication:mobile_phone" v="yes"/><tag k="start_date" v="2015-03-27"/><tag k="man_made" v="mast"/><tag k="tower:type" v="communication"/><tag k="source" v="RAFVG"/></node><node id="-36" version="1" lat="45.829288" lon="13.209608"><tag k="man_made" v="mast"/><tag k="tower:type" v="communication"/><tag k="communication:mobile_phone" v="yes"/><tag k="start_date" v="2003-08-01"/><tag k="source" v="RAFVG"/></node><node id="-37" version="1" lat="46.035882" lon="13.298063"><tag k="operator" v="Vodafone Omnitel"/><tag k="communication:mobile_phone" v="yes"/><tag k="start_date" v="2015-05-14"/><tag k="man_made" v="mast"/><tag k="tower:type" v="communication"/><tag k="source" v="RAFVG"/></node><node id="-38" version="1" lat="46.187144" lon="13.208969"><tag k="man_made" v="mast"/><tag k="tower:type" v="communication"/><tag k="communication:mobile_phone" v="yes"/><tag k="start_date" v="2004-03-19"/><tag k="source" v="RAFVG"/></node><node id="-39" version="1" lat="46.399048" lon="13.00492"><tag k="operator" v="Vodafone Omnitel"/><tag k="communication:mobile_phone" v="yes"/><tag k="start_date" v="2014-12-10"/><tag k="man_made" v="mast"/><tag k="tower:type" v="communication"/><tag k="source" v="RAFVG"/></node><node id="-40" version="1" lat="45.881151" lon="13.350777"><tag k="operator" v="Vodafone Omnitel"/><tag k="communication:mobile_phone" v="yes"/><tag k="start_date" v="2014-10-27"/><tag k="man_made" v="mast"/><tag k="tower:type" v="communication"/><tag k="source" v="RAFVG"/></node><node id="-41" version="1" lat="46.063626" lon="13.078118"><tag k="operator" v="Telecom Italia Mobile"/><tag k="communication:mobile_phone" v="yes"/><tag k="start_date" v="2017-11-17"/><tag k="man_made" v="mast"/><tag k="tower:type" v="communication"/><tag k="source" v="RAFVG"/></node><node id="-42" version="1" lat="45.795062" lon="13.406894"><tag k="operator" v="Vodafone Omnitel"/><tag k="communication:mobile_phone" v="yes"/><tag k="start_date" v="2014-06-20"/><tag k="man_made" v="mast"/><tag k="tower:type" v="communication"/><tag k="source" v="RAFVG"/></node><node id="-43" version="1" lat="46.101643" lon="13.227049"><tag k="operator" v="Telecom Italia Mobile"/><tag k="communication:mobile_phone" v="yes"/><tag k="start_date" v="2013-12-27"/><tag k="man_made" v="mast"/><tag k="tower:type" v="communication"/><tag k="source" v="RAFVG"/></node><node id="-44" version="1" lat="46.168307" lon="13.005176"><tag k="operator" v="Wind-Tre"/><tag k="communication:mobile_phone" v="yes"/><tag k="start_date" v="2018-11-06"/><tag k="man_made" v="mast"/><tag k="tower:type" v="communication"/><tag k="source" v="RAFVG"/></node><node id="-45" version="1" lat="46.223482" lon="12.959951"><tag k="operator" v="Wind-Tre"/><tag k="communication:mobile_phone" v="yes"/><tag k="start_date" v="2017-05-30"/><tag k="man_made" v="mast"/><tag k="tower:type" v="communication"/><tag k="source" v="RAFVG"/></node><node id="-46" version="1" lat="46.517508" lon="12.915911"><tag k="operator" v="Wind-Tre"/><tag k="communication:mobile_phone" v="yes"/><tag k="start_date" v="2017-06-06"/><tag k="man_made" v="mast"/><tag k="tower:type" v="communication"/><tag k="source" v="RAFVG"/></node><node id="-47" version="1" lat="46.03599" lon="13.243308"><tag k="operator" v="Vodafone Omnitel"/><tag k="communication:mobile_phone" v="yes"/><tag k="start_date" v="2012-12-17"/><tag k="man_made" v="mast"/><tag k="tower:type" v="communication"/><tag k="source" v="RAFVG"/></node><node id="-48" version="1" lat="46.584226" lon="13.02607"><tag k="operator" v="Telecom Italia Mobile"/><tag k="communication:mobile_phone" v="yes"/><tag k="start_date" v="2008-01-14"/><tag k="man_made" v="mast"/><tag k="tower:type" v="communication"/><tag k="source" v="RAFVG"/></node><node id="-49" version="1" lat="45.670623" lon="13.106697"><tag k="operator" v="Vodafone Omnitel"/><tag k="communication:mobile_phone" v="yes"/><tag k="start_date" v="2015-09-09"/><tag k="man_made" v="mast"/><tag k="tower:type" v="communication"/><tag k="source" v="RAFVG"/></node><node id="-50" version="1" lat="45.966377" lon="13.133428"><tag k="man_made" v="mast"/><tag k="tower:type" v="communication"/><tag k="communication:mobile_phone" v="yes"/><tag k="start_date" v="2016-10-10"/><tag k="source" v="RAFVG"/></node><node id="-51" version="1" lat="46.395416" lon="12.668995"><tag k="operator" v="Vodafone Omnitel"/><tag k="communication:mobile_phone" v="yes"/><tag k="start_date" v="2001-02-19"/><tag k="man_made" v="mast"/><tag k="tower:type" v="communication"/><tag k="source" v="RAFVG"/></node><node id="-52" version="1" lat="46.512157" lon="13.331887"><tag k="man_made" v="mast"/><tag k="tower:type" v="communication"/><tag k="communication:mobile_phone" v="yes"/><tag k="start_date" v="2005-05-10"/><tag k="source" v="RAFVG"/></node><node id="-53" version="1" lat="46.181618" lon="13.054742"><tag k="operator" v="Wind-Tre"/><tag k="communication:mobile_phone" v="yes"/><tag k="start_date" v="2019-04-19"/><tag k="man_made" v="mast"/><tag k="tower:type" v="communication"/><tag k="source" v="RAFVG"/></node><node id="-54" version="1" lat="45.825744" lon="13.332518"><tag k="operator" v="Telecom Italia Mobile"/><tag k="communication:mobile_phone" v="yes"/><tag k="start_date" v="2006-08-08"/><tag k="man_made" v="mast"/><tag k="tower:type" v="communication"/><tag k="source" v="RAFVG"/></node><node id="-55" version="1" lat="45.970943" lon="12.990083"><tag k="operator" v="Wind-Tre"/><tag k="communication:mobile_phone" v="yes"/><tag k="start_date" v="2019-03-22"/><tag k="man_made" v="mast"/><tag k="tower:type" v="communication"/><tag k="source" v="RAFVG"/></node><node id="-56" version="1" lat="45.995271" lon="13.452339"><tag k="operator" v="Vodafone Omnitel"/><tag k="communication:mobile_phone" v="yes"/><tag k="start_date" v="2015-03-13"/><tag k="man_made" v="mast"/><tag k="tower:type" v="communication"/><tag k="source" v="RAFVG"/></node><node id="-57" version="1" lat="46.582084" lon="13.009402"><tag k="operator" v="Telecom Italia Mobile"/><tag k="communication:mobile_phone" v="yes"/><tag k="start_date" v="2014-04-16"/><tag k="man_made" v="mast"/><tag k="tower:type" v="communication"/><tag k="source" v="RAFVG"/></node><node id="-58" version="1" lat="46.585574" lon="12.839019"><tag k="operator" v="Telecom Italia Mobile"/><tag k="communication:mobile_phone" v="yes"/><tag k="start_date" v="2006-01-26"/><tag k="man_made" v="mast"/><tag k="tower:type" v="communication"/><tag k="source" v="RAFVG"/></node><node id="-59" version="1" lat="46.524415" lon="12.87433"><tag k="operator" v="Wind-Tre"/><tag k="communication:mobile_phone" v="yes"/><tag k="start_date" v="2013-12-16"/><tag k="man_made" v="mast"/><tag k="tower:type" v="communication"/><tag k="source" v="RAFVG"/></node><node id="-60" version="1" lat="46.393597" lon="13.233601"><tag k="operator" v="Wind-Tre"/><tag k="communication:mobile_phone" v="yes"/><tag k="start_date" v="2004-11-05"/><tag k="man_made" v="mast"/><tag k="tower:type" v="communication"/><tag k="source" v="RAFVG"/></node><node id="-61" version="1" lat="46.089722" lon="13.247502"><tag k="man_made" v="mast"/><tag k="tower:type" v="communication"/><tag k="communication:mobile_phone" v="yes"/><tag k="start_date" v="2004-03-12"/><tag k="source" v="RAFVG"/></node><node id="-62" version="1" lat="46.501094" lon="13.571827"><tag k="operator" v="Wind-Tre"/><tag k="communication:mobile_phone" v="yes"/><tag k="start_date" v="2014-05-19"/><tag k="man_made" v="mast"/><tag k="tower:type" v="communication"/><tag k="source" v="RAFVG"/></node><node id="-63" version="1" lat="46.121762" lon="13.181122"><tag k="operator" v="Vodafone Omnitel"/><tag k="communication:mobile_phone" v="yes"/><tag k="start_date" v="2017-10-25"/><tag k="man_made" v="mast"/><tag k="tower:type" v="communication"/><tag k="source" v="RAFVG"/></node><node id="-64" version="1" lat="46.135954" lon="13.224805"><tag k="operator" v="Telecom Italia Mobile"/><tag k="communication:mobile_phone" v="yes"/><tag k="start_date" v="2014-09-17"/><tag k="man_made" v="mast"/><tag k="tower:type" v="communication"/><tag k="source" v="RAFVG"/></node><node id="-65" version="1" lat="45.835837" lon="13.206279"><tag k="man_made" v="mast"/><tag k="tower:type" v="communication"/><tag k="communication:mobile_phone" v="yes"/><tag k="start_date" v="2016-09-14"/><tag k="source" v="RAFVG"/></node><node id="-66" version="1" lat="46.08639" lon="13.31457"><tag k="operator" v="Vodafone Omnitel"/><tag k="communication:mobile_phone" v="yes"/><tag k="start_date" v="2014-02-26"/><tag k="man_made" v="mast"/><tag k="tower:type" v="communication"/><tag k="source" v="RAFVG"/></node><node id="-67" version="1" lat="45.877564" lon="13.364394"><tag k="operator" v="Vodafone Omnitel"/><tag k="communication:mobile_phone" v="yes"/><tag k="start_date" v="2015-05-29"/><tag k="man_made" v="mast"/><tag k="tower:type" v="communication"/><tag k="source" v="RAFVG"/></node><node id="-68" version="1" lat="46.527763" lon="13.011216"><tag k="operator" v="Wind-Tre"/><tag k="communication:mobile_phone" v="yes"/><tag k="start_date" v="2017-05-05"/><tag k="man_made" v="mast"/><tag k="tower:type" v="communication"/><tag k="source" v="RAFVG"/></node><node id="-69" version="1" lat="46.499306" lon="13.50237"><tag k="operator" v="Vodafone Omnitel"/><tag k="communication:mobile_phone" v="yes"/><tag k="start_date" v="2013-11-28"/><tag k="man_made" v="mast"/><tag k="tower:type" v="communication"/><tag k="source" v="RAFVG"/></node><node id="-70" version="1" lat="46.390508" lon="13.222463"><tag k="operator" v="Wind-Tre"/><tag k="communication:mobile_phone" v="yes"/><tag k="start_date" v="2019-02-28"/><tag k="man_made" v="mast"/><tag k="tower:type" v="communication"/><tag k="source" v="RAFVG"/></node><node id="-71" version="1" lat="46.046162" lon="13.193845"><tag k="operator" v="Telecom Italia Mobile"/><tag k="communication:mobile_phone" v="yes"/><tag k="start_date" v="2016-12-02"/><tag k="man_made" v="mast"/><tag k="tower:type" v="communication"/><tag k="source" v="RAFVG"/></node><node id="-72" version="1" lat="46.497975" lon="13.405288"><tag k="operator" v="Wind-Tre"/><tag k="communication:mobile_phone" v="yes"/><tag k="start_date" v="2019-03-19"/><tag k="man_made" v="mast"/><tag k="tower:type" v="communication"/><tag k="source" v="RAFVG"/></node><node id="-73" version="1" lat="45.940296" lon="13.34741"><tag k="operator" v="Vodafone Omnitel"/><tag k="communication:mobile_phone" v="yes"/><tag k="start_date" v="2014-03-20"/><tag k="man_made" v="mast"/><tag k="tower:type" v="communication"/><tag k="source" v="RAFVG"/></node><node id="-74" version="1" lat="46.284511" lon="13.122559"><tag k="man_made" v="mast"/><tag k="tower:type" v="communication"/><tag k="communication:mobile_phone" v="yes"/><tag k="start_date" v="2003-10-10"/><tag k="source" v="RAFVG"/></node><node id="-75" version="1" lat="45.976129" lon="13.398818"><tag k="operator" v="Telecom Italia Mobile"/><tag k="communication:mobile_phone" v="yes"/><tag k="start_date" v="2006-09-22"/><tag k="man_made" v="mast"/><tag k="tower:type" v="communication"/><tag k="source" v="RAFVG"/></node><node id="-76" version="1" lat="46.305008" lon="13.051541"><tag k="operator" v="Wind-Tre"/><tag k="communication:mobile_phone" v="yes"/><tag k="start_date" v="2017-05-16"/><tag k="man_made" v="mast"/><tag k="tower:type" v="communication"/><tag k="source" v="RAFVG"/></node><node id="-77" version="1" lat="46.482059" lon="13.096444"><tag k="operator" v="Wind-Tre"/><tag k="communication:mobile_phone" v="yes"/><tag k="start_date" v="2018-12-05"/><tag k="man_made" v="mast"/><tag k="tower:type" v="communication"/><tag k="source" v="RAFVG"/></node><node id="-78" version="1" lat="46.038678" lon="13.254889"><tag k="operator" v="Vodafone Omnitel"/><tag k="communication:mobile_phone" v="yes"/><tag k="start_date" v="2016-02-09"/><tag k="man_made" v="mast"/><tag k="tower:type" v="communication"/><tag k="source" v="RAFVG"/></node><node id="-79" version="1" lat="45.954016" lon="12.983325"><tag k="operator" v="Wind-Tre"/><tag k="communication:mobile_phone" v="yes"/><tag k="start_date" v="2019-01-11"/><tag k="man_made" v="mast"/><tag k="tower:type" v="communication"/><tag k="source" v="RAFVG"/></node><node id="-80" version="1" lat="46.108936" lon="13.210333"><tag k="operator" v="Vodafone Omnitel"/><tag k="communication:mobile_phone" v="yes"/><tag k="start_date" v="2015-10-23"/><tag k="man_made" v="mast"/><tag k="tower:type" v="communication"/><tag k="source" v="RAFVG"/></node><node id="-81" version="1" lat="45.671354" lon="13.095347"><tag k="operator" v="Vodafone Omnitel"/><tag k="fixme" v="Telecom Italia SpA;Vodafone Omnitel"/><tag k="communication:mobile_phone" v="yes"/><tag k="start_date" v="2014-06-05"/><tag k="man_made" v="mast"/><tag k="tower:type" v="communication"/><tag k="source" v="RAFVG"/></node><node id="-82" version="1" lat="46.205124" lon="13.130052"><tag k="operator" v="Wind-Tre"/><tag k="communication:mobile_phone" v="yes"/><tag k="start_date" v="2016-03-18"/><tag k="man_made" v="mast"/><tag k="tower:type" v="communication"/><tag k="source" v="RAFVG"/></node><node id="-83" version="1" lat="45.774118" lon="13.001428"><tag k="operator" v="Vodafone Omnitel"/><tag k="communication:mobile_phone" v="yes"/><tag k="start_date" v="2014-06-30"/><tag k="man_made" v="mast"/><tag k="tower:type" v="communication"/><tag k="source" v="RAFVG"/></node><node id="-84" version="1" lat="45.677956" lon="13.111543"><tag k="operator" v="Telecom Italia Mobile"/><tag k="communication:mobile_phone" v="yes"/><tag k="start_date" v="2017-05-03"/><tag k="man_made" v="mast"/><tag k="tower:type" v="communication"/><tag k="source" v="RAFVG"/></node><node id="-85" version="1" lat="46.40577" lon="13.015602"><tag k="operator" v="Wind-Tre"/><tag k="communication:mobile_phone" v="yes"/><tag k="start_date" v="2019-03-20"/><tag k="man_made" v="mast"/><tag k="tower:type" v="communication"/><tag k="source" v="RAFVG"/></node><node id="-86" version="1" lat="46.076948" lon="13.278495"><tag k="operator" v="Telecom Italia Mobile"/><tag k="fixme" v="mimics=tree"/><tag k="communication:mobile_phone" v="yes"/><tag k="start_date" v="2017-05-08"/><tag k="man_made" v="mast"/><tag k="tower:type" v="communication"/><tag k="source" v="RAFVG"/></node><node id="-87" version="1" lat="45.977141" lon="13.323406"><tag k="operator" v="Telecom Italia Mobile"/><tag k="communication:mobile_phone" v="yes"/><tag k="start_date" v="2017-11-07"/><tag k="man_made" v="mast"/><tag k="tower:type" v="communication"/><tag k="source" v="RAFVG"/></node><node id="-88" version="1" lat="46.506039" lon="13.396581"><tag k="man_made" v="mast"/><tag k="tower:type" v="communication"/><tag k="communication:mobile_phone" v="yes"/><tag k="start_date" v="2004-02-16"/><tag k="source" v="RAFVG"/></node><node id="-89" version="1" lat="46.000189" lon="13.226459"><tag k="operator" v="Telecom Italia Mobile"/><tag k="communication:mobile_phone" v="yes"/><tag k="start_date" v="2012-06-19"/><tag k="man_made" v="mast"/><tag k="tower:type" v="communication"/><tag k="source" v="RAFVG"/></node><node id="-90" version="1" lat="46.175251" lon="13.622299"><tag k="operator" v="Telecom Italia Mobile"/><tag k="communication:mobile_phone" v="yes"/><tag k="start_date" v="2017-02-15"/><tag k="man_made" v="mast"/><tag k="tower:type" v="communication"/><tag k="source" v="RAFVG"/></node><node id="-91" version="1" lat="46.054873" lon="13.215118"><tag k="operator" v="Vodafone Omnitel"/><tag k="communication:mobile_phone" v="yes"/><tag k="start_date" v="2016-06-03"/><tag k="man_made" v="mast"/><tag k="tower:type" v="communication"/><tag k="source" v="RAFVG"/></node><node id="-92" version="1" lat="46.462792" lon="13.293905"><tag k="operator" v="Wind-Tre"/><tag k="communication:mobile_phone" v="yes"/><tag k="start_date" v="2018-11-15"/><tag k="man_made" v="mast"/><tag k="tower:type" v="communication"/><tag k="source" v="RAFVG"/></node><node id="-93" version="1" lat="45.858879" lon="13.213068"><tag k="operator" v="Vodafone Omnitel"/><tag k="communication:mobile_phone" v="yes"/><tag k="start_date" v="2015-06-03"/><tag k="man_made" v="mast"/><tag k="tower:type" v="communication"/><tag k="source" v="RAFVG"/></node><node id="-94" version="1" lat="46.393763" lon="12.655305"><tag k="operator" v="Telecom Italia Mobile"/><tag k="fixme" v="tower"/><tag k="communication:mobile_phone" v="yes"/><tag k="start_date" v="2014-05-15"/><tag k="man_made" v="mast"/><tag k="tower:type" v="communication"/><tag k="source" v="RAFVG"/></node><node id="-95" version="1" lat="46.011723" lon="13.125152"><tag k="operator" v="Vodafone Omnitel"/><tag k="communication:mobile_phone" v="yes"/><tag k="start_date" v="2014-03-05"/><tag k="man_made" v="mast"/><tag k="tower:type" v="communication"/><tag k="source" v="RAFVG"/></node><node id="-96" version="1" lat="45.8917854" lon="13.2271984"><tag k="operator" v="Wind-Tre"/><tag k="communication:mobile_phone" v="yes"/><tag k="start_date" v="2018-03-01"/><tag k="man_made" v="mast"/><tag k="tower:type" v="communication"/><tag k="source" v="RAFVG"/></node><node id="-97" version="1" lat="45.781029" lon="13.001717"><tag k="man_made" v="mast"/><tag k="tower:type" v="communication"/><tag k="communication:mobile_phone" v="yes"/><tag k="start_date" v="2003-11-10"/><tag k="source" v="RAFVG"/></node><node id="-98" version="1" lat="46.582114" lon="13.009278"><tag k="operator" v="Vodafone Omnitel"/><tag k="communication:mobile_phone" v="yes"/><tag k="start_date" v="2018-01-12"/><tag k="man_made" v="mast"/><tag k="tower:type" v="communication"/><tag k="source" v="RAFVG"/></node><node id="-99" version="1" lat="46.414355" lon="12.921076"><tag k="operator" v="Telecom Italia Mobile"/><tag k="fixme" v="tower"/><tag k="communication:mobile_phone" v="yes"/><tag k="start_date" v="2014-03-13"/><tag k="man_made" v="mast"/><tag k="tower:type" v="communication"/><tag k="source" v="RAFVG"/></node><node id="-100" version="1" lat="45.829318" lon="13.177377"><tag k="operator" v="Vodafone Omnitel"/><tag k="communication:mobile_phone" v="yes"/><tag k="start_date" v="2015-07-17"/><tag k="man_made" v="mast"/><tag k="tower:type" v="communication"/><tag k="source" v="RAFVG"/></node><node id="-101" version="1" lat="45.670555" lon="13.106666"><tag k="operator" v="Telecom Italia Mobile"/><tag k="communication:mobile_phone" v="yes"/><tag k="start_date" v="2018-04-10"/><tag k="man_made" v="mast"/><tag k="tower:type" v="communication"/><tag k="source" v="RAFVG"/></node><node id="-102" version="1" lat="46.424541" lon="12.573322"><tag k="operator" v="Telecom Italia Mobile"/><tag k="communication:mobile_phone" v="yes"/><tag k="start_date" v="2013-05-24"/><tag k="man_made" v="mast"/><tag k="tower:type" v="communication"/><tag k="source" v="RAFVG"/></node><node id="-103" version="1" lat="45.961117" lon="12.97931"><tag k="operator" v="Telecom Italia Mobile"/><tag k="communication:mobile_phone" v="yes"/><tag k="start_date" v="2006-09-08"/><tag k="man_made" v="mast"/><tag k="tower:type" v="communication"/><tag k="source" v="RAFVG"/></node><node id="-104" version="1" lat="46.083746" lon="13.21321"><tag k="operator" v="Vodafone Omnitel"/><tag k="communication:mobile_phone" v="yes"/><tag k="start_date" v="2014-06-27"/><tag k="man_made" v="mast"/><tag k="tower:type" v="communication"/><tag k="source" v="RAFVG"/></node><node id="-105" version="1" lat="46.506941" lon="13.519952"><tag k="operator" v="Telecom Italia Mobile"/><tag k="communication:mobile_phone" v="yes"/><tag k="start_date" v="2014-08-12"/><tag k="man_made" v="mast"/><tag k="tower:type" v="communication"/><tag k="source" v="RAFVG"/></node><node id="-106" version="1" lat="46.285863" lon="13.134227"><tag k="operator" v="Vodafone Omnitel"/><tag k="communication:mobile_phone" v="yes"/><tag k="start_date" v="2014-10-24"/><tag k="man_made" v="mast"/><tag k="tower:type" v="communication"/><tag k="source" v="RAFVG"/></node><node id="-107" version="1" lat="46.084341" lon="13.225784"><tag k="operator" v="Telecom Italia Mobile"/><tag k="communication:mobile_phone" v="yes"/><tag k="start_date" v="2016-10-10"/><tag k="man_made" v="mast"/><tag k="tower:type" v="communication"/><tag k="source" v="RAFVG"/></node><node id="-108" version="1" lat="46.554209" lon="13.088917"><tag k="operator" v="Vodafone Omnitel"/><tag k="communication:mobile_phone" v="yes"/><tag k="start_date" v="2016-07-20"/><tag k="man_made" v="mast"/><tag k="tower:type" v="communication"/><tag k="source" v="RAFVG"/></node><node id="-109" version="1" lat="46.202939" lon="12.965235"><tag k="operator" v="Vodafone Omnitel"/><tag k="fixme" v="tower"/><tag k="communication:mobile_phone" v="yes"/><tag k="start_date" v="2014-01-27"/><tag k="man_made" v="mast"/><tag k="tower:type" v="communication"/><tag k="source" v="RAFVG"/></node><node id="-110" version="1" lat="46.235352" lon="13.148186"><tag k="operator" v="Vodafone Omnitel"/><tag k="communication:mobile_phone" v="yes"/><tag k="start_date" v="2015-06-17"/><tag k="man_made" v="mast"/><tag k="tower:type" v="communication"/><tag k="source" v="RAFVG"/></node><node id="-111" version="1" lat="46.153839" lon="13.570812"><tag k="operator" v="Wind-Tre"/><tag k="communication:mobile_phone" v="yes"/><tag k="start_date" v="2017-06-01"/><tag k="man_made" v="mast"/><tag k="tower:type" v="communication"/><tag k="source" v="RAFVG"/></node><node id="-112" version="1" lat="46.061555" lon="13.232689"><tag k="operator" v="Telecom Italia Mobile"/><tag k="communication:mobile_phone" v="yes"/><tag k="start_date" v="2013-07-03"/><tag k="man_made" v="mast"/><tag k="tower:type" v="communication"/><tag k="source" v="RAFVG"/></node><node id="-113" version="1" lat="46.054661" lon="13.244567"><tag k="man_made" v="mast"/><tag k="tower:type" v="communication"/><tag k="communication:mobile_phone" v="yes"/><tag k="start_date" v="2006-07-20"/><tag k="source" v="RAFVG"/></node><node id="-114" version="1" lat="45.667782" lon="13.108033"><tag k="operator" v="Vodafone Omnitel"/><tag k="communication:mobile_phone" v="yes"/><tag k="start_date" v="2018-04-13"/><tag k="man_made" v="mast"/><tag k="tower:type" v="communication"/><tag k="source" v="RAFVG"/></node><node id="-115" version="1" lat="46.006169" lon="13.339355"><tag k="operator" v="Vodafone Omnitel"/><tag k="communication:mobile_phone" v="yes"/><tag k="start_date" v="2014-08-04"/><tag k="man_made" v="mast"/><tag k="tower:type" v="communication"/><tag k="source" v="RAFVG"/></node><node id="-116" version="1" lat="46.09892" lon="13.010426"><tag k="operator" v="Wind-Tre"/><tag k="communication:mobile_phone" v="yes"/><tag k="start_date" v="2019-04-09"/><tag k="man_made" v="mast"/><tag k="tower:type" v="communication"/><tag k="source" v="RAFVG"/></node><node id="-117" version="1" lat="46.175257" lon="13.622165"><tag k="operator" v="Vodafone Omnitel"/><tag k="communication:mobile_phone" v="yes"/><tag k="start_date" v="2011-01-27"/><tag k="man_made" v="mast"/><tag k="tower:type" v="communication"/><tag k="source" v="RAFVG"/></node><node id="-118" version="1" lat="46.122809" lon="13.425889"><tag k="operator" v="Wind-Tre"/><tag k="communication:mobile_phone" v="yes"/><tag k="start_date" v="2018-11-20"/><tag k="man_made" v="mast"/><tag k="tower:type" v="communication"/><tag k="source" v="RAFVG"/></node><node id="-119" version="1" lat="46.395915" lon="13.028365"><tag k="operator" v="Wind-Tre"/><tag k="fixme" v="unire"/><tag k="communication:mobile_phone" v="yes"/><tag k="start_date" v="2019-03-20"/><tag k="man_made" v="mast"/><tag k="tower:type" v="communication"/><tag k="source" v="RAFVG"/></node><node id="-120" version="1" lat="45.901545" lon="13.295664"><tag k="operator" v="Vodafone Omnitel"/><tag k="communication:mobile_phone" v="yes"/><tag k="start_date" v="2015-06-09"/><tag k="man_made" v="mast"/><tag k="tower:type" v="communication"/><tag k="source" v="RAFVG"/></node><node id="-121" version="1" lat="46.169881" lon="12.981021"><tag k="operator" v="Vodafone Omnitel"/><tag k="communication:mobile_phone" v="yes"/><tag k="start_date" v="2014-12-18"/><tag k="man_made" v="mast"/><tag k="tower:type" v="communication"/><tag k="source" v="RAFVG"/></node><node id="-122" version="1" lat="46.17882" lon="13.21823"><tag k="operator" v="Telecom Italia Mobile"/><tag k="communication:mobile_phone" v="yes"/><tag k="start_date" v="2007-11-20"/><tag k="man_made" v="mast"/><tag k="tower:type" v="communication"/><tag k="source" v="RAFVG"/></node><node id="-123" version="1" lat="46.140359" lon="13.350403"><tag k="operator" v="Wind-Tre"/><tag k="communication:mobile_phone" v="yes"/><tag k="start_date" v="2011-02-25"/><tag k="man_made" v="mast"/><tag k="tower:type" v="communication"/><tag k="source" v="RAFVG"/></node><node id="-124" version="1" lat="45.822901" lon="13.3359"><tag k="operator" v="Vodafone Omnitel"/><tag k="communication:mobile_phone" v="yes"/><tag k="start_date" v="2014-09-01"/><tag k="man_made" v="mast"/><tag k="tower:type" v="communication"/><tag k="source" v="RAFVG"/></node><node id="-125" version="1" lat="45.838308" lon="13.094599"><tag k="operator" v="Wind-Tre"/><tag k="communication:mobile_phone" v="yes"/><tag k="start_date" v="2019-05-07"/><tag k="man_made" v="mast"/><tag k="tower:type" v="communication"/><tag k="source" v="RAFVG"/></node><node id="-126" version="1" lat="46.061423" lon="13.23619"><tag k="operator" v="Telecom Italia Mobile"/><tag k="communication:mobile_phone" v="yes"/><tag k="start_date" v="2017-07-19"/><tag k="man_made" v="mast"/><tag k="tower:type" v="communication"/><tag k="source" v="RAFVG"/></node><node id="-127" version="1" lat="46.098514" lon="13.23752"><tag k="operator" v="Telecom Italia Mobile"/><tag k="communication:mobile_phone" v="yes"/><tag k="start_date" v="2012-09-04"/><tag k="man_made" v="mast"/><tag k="tower:type" v="communication"/><tag k="source" v="RAFVG"/></node><node id="-128" version="1" lat="46.507406" lon="13.534075"><tag k="operator" v="Wind-Tre"/><tag k="communication:mobile_phone" v="yes"/><tag k="start_date" v="2011-09-29"/><tag k="man_made" v="mast"/><tag k="tower:type" v="communication"/><tag k="source" v="RAFVG"/></node><node id="-129" version="1" lat="46.55707" lon="12.684242"><tag k="operator" v="Telecom Italia Mobile"/><tag k="man_made" v="mast"/><tag k="tower:type" v="communication"/><tag k="communication:mobile_phone" v="yes"/><tag k="source" v="RAFVG"/></node><node id="-130" version="1" lat="46.405388" lon="13.19"><tag k="operator" v="Wind-Tre"/><tag k="communication:mobile_phone" v="yes"/><tag k="start_date" v="2006-09-14"/><tag k="man_made" v="mast"/><tag k="tower:type" v="communication"/><tag k="source" v="RAFVG"/></node><node id="-131" version="1" lat="46.093531" lon="13.257919"><tag k="operator" v="Telecom Italia Mobile"/><tag k="communication:mobile_phone" v="yes"/><tag k="start_date" v="2012-10-11"/><tag k="man_made" v="mast"/><tag k="tower:type" v="communication"/><tag k="source" v="RAFVG"/></node><node id="-132" version="1" lat="46.012462" lon="13.329592"><tag k="man_made" v="mast"/><tag k="tower:type" v="communication"/><tag k="communication:mobile_phone" v="yes"/><tag k="start_date" v="2003-07-16"/><tag k="source" v="RAFVG"/></node><node id="-133" version="1" lat="46.014945" lon="13.107289"><tag k="operator" v="Telecom Italia Mobile"/><tag k="communication:mobile_phone" v="yes"/><tag k="start_date" v="2012-07-09"/><tag k="man_made" v="mast"/><tag k="tower:type" v="communication"/><tag k="source" v="RAFVG"/></node><node id="-134" version="1" lat="46.39129" lon="13.137451"><tag k="man_made" v="mast"/><tag k="tower:type" v="communication"/><tag k="communication:mobile_phone" v="yes"/><tag k="start_date" v="2004-07-05"/><tag k="source" v="RAFVG"/></node><node id="-135" version="1" lat="45.778965" lon="13.176636"><tag k="operator" v="Wind-Tre"/><tag k="communication:mobile_phone" v="yes"/><tag k="start_date" v="2017-05-12"/><tag k="man_made" v="mast"/><tag k="tower:type" v="communication"/><tag k="source" v="RAFVG"/></node><node id="-136" version="1" lat="45.828175" lon="13.277291"><tag k="operator" v="Telecom Italia Mobile"/><tag k="communication:mobile_phone" v="yes"/><tag k="start_date" v="2019-04-16"/><tag k="man_made" v="mast"/><tag k="tower:type" v="communication"/><tag k="source" v="RAFVG"/></node><node id="-137" version="1" lat="45.718022" lon="13.048331"><tag k="operator" v="Vodafone Omnitel"/><tag k="communication:mobile_phone" v="yes"/><tag k="start_date" v="2014-09-22"/><tag k="man_made" v="mast"/><tag k="tower:type" v="communication"/><tag k="source" v="RAFVG"/></node><node id="-138" version="1" lat="45.800122" lon="13.193173"><tag k="operator" v="Telecom Italia Mobile"/><tag k="communication:mobile_phone" v="yes"/><tag k="start_date" v="2013-07-08"/><tag k="man_made" v="mast"/><tag k="tower:type" v="communication"/><tag k="source" v="RAFVG"/></node><node id="-139" version="1" lat="46.055108" lon="13.217401"><tag k="operator" v="Telecom Italia Mobile"/><tag k="fixme" v="tower"/><tag k="communication:mobile_phone" v="yes"/><tag k="start_date" v="2017-05-10"/><tag k="man_made" v="mast"/><tag k="tower:type" v="communication"/><tag k="source" v="RAFVG"/></node><node id="-140" version="1" lat="46.209129" lon="13.19718"><tag k="operator" v="Vodafone Omnitel"/><tag k="communication:mobile_phone" v="yes"/><tag k="start_date" v="2015-06-24"/><tag k="man_made" v="mast"/><tag k="tower:type" v="communication"/><tag k="source" v="RAFVG"/></node><node id="-141" version="1" lat="46.184413" lon="13.298942"><tag k="operator" v="Vodafone Omnitel"/><tag k="communication:mobile_phone" v="yes"/><tag k="start_date" v="2016-11-10"/><tag k="man_made" v="mast"/><tag k="tower:type" v="communication"/><tag k="source" v="RAFVG"/></node><node id="-142" version="1" lat="46.42418" lon="12.926759"><tag k="operator" v="Telecom Italia Mobile"/><tag k="communication:mobile_phone" v="yes"/><tag k="start_date" v="2014-11-17"/><tag k="man_made" v="mast"/><tag k="tower:type" v="communication"/><tag k="source" v="RAFVG"/></node><node id="-143" version="1" lat="46.096644" lon="13.035733"><tag k="operator" v="Wind-Tre"/><tag k="communication:mobile_phone" v="yes"/><tag k="start_date" v="2017-05-09"/><tag k="man_made" v="mast"/><tag k="tower:type" v="communication"/><tag k="source" v="RAFVG"/></node><node id="-144" version="1" lat="45.675628" lon="13.111474"><tag k="man_made" v="mast"/><tag k="tower:type" v="communication"/><tag k="communication:mobile_phone" v="yes"/><tag k="start_date" v="2006-10-18"/><tag k="source" v="RAFVG"/></node><node id="-145" version="1" lat="46.482389" lon="13.520219"><tag k="operator" v="Wind-Tre"/><tag k="communication:mobile_phone" v="yes"/><tag k="start_date" v="2014-08-27"/><tag k="man_made" v="mast"/><tag k="tower:type" v="communication"/><tag k="source" v="RAFVG"/></node><node id="-146" version="1" lat="46.120149" lon="13.0258"><tag k="operator" v="Vodafone Omnitel"/><tag k="communication:mobile_phone" v="yes"/><tag k="start_date" v="2014-07-07"/><tag k="man_made" v="mast"/><tag k="tower:type" v="communication"/><tag k="source" v="RAFVG"/></node><node id="-147" version="1" lat="46.188656" lon="13.257173"><tag k="operator" v="Telecom Italia Mobile"/><tag k="communication:mobile_phone" v="yes"/><tag k="start_date" v="2014-03-13"/><tag k="man_made" v="mast"/><tag k="tower:type" v="communication"/><tag k="source" v="RAFVG"/></node><node id="-148" version="1" lat="46.232351" lon="13.084559"><tag k="operator" v="Telecom Italia Mobile"/><tag k="fixme" v="tower"/><tag k="communication:mobile_phone" v="yes"/><tag k="start_date" v="2018-02-07"/><tag k="man_made" v="mast"/><tag k="tower:type" v="communication"/><tag k="source" v="RAFVG"/></node><node id="-149" version="1" lat="46.393865" lon="12.822615"><tag k="operator" v="Wind-Tre"/><tag k="communication:mobile_phone" v="yes"/><tag k="start_date" v="2017-03-30"/><tag k="man_made" v="mast"/><tag k="tower:type" v="communication"/><tag k="source" v="RAFVG"/></node><node id="-150" version="1" lat="46.101592" lon="13.091048"><tag k="operator" v="Wind-Tre"/><tag k="communication:mobile_phone" v="yes"/><tag k="start_date" v="2012-03-22"/><tag k="man_made" v="mast"/><tag k="tower:type" v="communication"/><tag k="source" v="RAFVG"/></node><node id="-151" version="1" lat="45.680739" lon="13.128009"><tag k="operator" v="Vodafone Omnitel"/><tag k="communication:mobile_phone" v="yes"/><tag k="start_date" v="2019-01-11"/><tag k="man_made" v="mast"/><tag k="tower:type" v="communication"/><tag k="source" v="RAFVG"/></node><node id="-152" version="1" lat="46.224901" lon="13.174565"><tag k="operator" v="Vodafone Omnitel"/><tag k="communication:mobile_phone" v="yes"/><tag k="start_date" v="2014-04-17"/><tag k="man_made" v="mast"/><tag k="tower:type" v="communication"/><tag k="source" v="RAFVG"/></node><node id="-153" version="1" lat="46.439427" lon="12.564377"><tag k="operator" v="Telecom Italia Mobile"/><tag k="communication:mobile_phone" v="yes"/><tag k="start_date" v="2014-04-14"/><tag k="man_made" v="mast"/><tag k="tower:type" v="communication"/><tag k="source" v="RAFVG"/></node><node id="-154" version="1" lat="46.102943" lon="13.089905"><tag k="operator" v="Telecom Italia Mobile"/><tag k="communication:mobile_phone" v="yes"/><tag k="start_date" v="2016-01-15"/><tag k="man_made" v="mast"/><tag k="tower:type" v="communication"/><tag k="source" v="RAFVG"/></node><node id="-155" version="1" lat="46.125365" lon="13.303219"><tag k="operator" v="Telecom Italia Mobile"/><tag k="communication:mobile_phone" v="yes"/><tag k="start_date" v="2014-07-14"/><tag k="man_made" v="mast"/><tag k="tower:type" v="communication"/><tag k="source" v="RAFVG"/></node><node id="-156" version="1" lat="45.865486" lon="13.389802"><tag k="operator" v="Wind-Tre"/><tag k="communication:mobile_phone" v="yes"/><tag k="start_date" v="2017-05-03"/><tag k="man_made" v="mast"/><tag k="tower:type" v="communication"/><tag k="source" v="RAFVG"/></node><node id="-157" version="1" lat="46.498066" lon="13.40341"><tag k="operator" v="Vodafone Omnitel"/><tag k="man_made" v="mast"/><tag k="tower:type" v="communication"/><tag k="communication:mobile_phone" v="yes"/><tag k="source" v="RAFVG"/></node><node id="-158" version="1" lat="45.693614" lon="13.071566"><tag k="operator" v="Vodafone Omnitel"/><tag k="communication:mobile_phone" v="yes"/><tag k="start_date" v="2018-03-16"/><tag k="man_made" v="mast"/><tag k="tower:type" v="communication"/><tag k="source" v="RAFVG"/></node><node id="-159" version="1" lat="46.068228" lon="13.228485"><tag k="operator" v="Telecom Italia Mobile"/><tag k="communication:mobile_phone" v="yes"/><tag k="start_date" v="2017-09-25"/><tag k="man_made" v="mast"/><tag k="tower:type" v="communication"/><tag k="source" v="RAFVG"/></node><node id="-160" version="1" lat="45.889899" lon="12.984906"><tag k="operator" v="Vodafone Omnitel"/><tag k="communication:mobile_phone" v="yes"/><tag k="start_date" v="2015-10-29"/><tag k="man_made" v="mast"/><tag k="tower:type" v="communication"/><tag k="source" v="RAFVG"/></node><node id="-161" version="1" lat="46.375065" lon="13.30007"><tag k="operator" v="Telecom Italia Mobile"/><tag k="man_made" v="mast"/><tag k="tower:type" v="communication"/><tag k="communication:mobile_phone" v="yes"/><tag k="source" v="RAFVG"/></node><node id="-162" version="1" lat="46.417636" lon="12.749265"><tag k="operator" v="Telecom Italia Mobile"/><tag k="communication:mobile_phone" v="yes"/><tag k="start_date" v="2015-04-16"/><tag k="man_made" v="mast"/><tag k="tower:type" v="communication"/><tag k="source" v="RAFVG"/></node><node id="-163" version="1" lat="46.271864" lon="13.118866"><tag k="operator" v="Vodafone Omnitel"/><tag k="communication:mobile_phone" v="yes"/><tag k="start_date" v="2015-07-07"/><tag k="man_made" v="mast"/><tag k="tower:type" v="communication"/><tag k="source" v="RAFVG"/></node><node id="-164" version="1" lat="46.210896" lon="13.139339"><tag k="operator" v="Telecom Italia Mobile"/><tag k="communication:mobile_phone" v="yes"/><tag k="start_date" v="2018-06-26"/><tag k="man_made" v="mast"/><tag k="tower:type" v="communication"/><tag k="source" v="RAFVG"/></node><node id="-165" version="1" lat="45.809936" lon="13.019776"><tag k="operator" v="Wind-Tre"/><tag k="communication:mobile_phone" v="yes"/><tag k="start_date" v="2020-04-02"/><tag k="man_made" v="mast"/><tag k="tower:type" v="communication"/><tag k="source" v="RAFVG"/></node><node id="-166" version="1" lat="46.071167" lon="13.263709"><tag k="operator" v="Telecom Italia Mobile"/><tag k="fixme" v="tower"/><tag k="communication:mobile_phone" v="yes"/><tag k="start_date" v="2017-02-13"/><tag k="man_made" v="mast"/><tag k="tower:type" v="communication"/><tag k="source" v="RAFVG"/></node><node id="-167" version="1" lat="45.9086" lon="13.296296"><tag k="man_made" v="mast"/><tag k="tower:type" v="communication"/><tag k="communication:mobile_phone" v="yes"/><tag k="start_date" v="2007-10-24"/><tag k="source" v="RAFVG"/></node><node id="-168" version="1" lat="46.113403" lon="13.29644"><tag k="man_made" v="mast"/><tag k="tower:type" v="communication"/><tag k="communication:mobile_phone" v="yes"/><tag k="start_date" v="2016-07-20"/><tag k="source" v="RAFVG"/></node><node id="-169" version="1" lat="45.948794" lon="13.172067"><tag k="operator" v="Vodafone Omnitel"/><tag k="communication:mobile_phone" v="yes"/><tag k="start_date" v="2015-07-14"/><tag k="man_made" v="mast"/><tag k="tower:type" v="communication"/><tag k="source" v="RAFVG"/></node><node id="-170" version="1" lat="46.071163" lon="13.239974"><tag k="operator" v="Telecom Italia Mobile"/><tag k="communication:mobile_phone" v="yes"/><tag k="start_date" v="2017-06-12"/><tag k="man_made" v="mast"/><tag k="tower:type" v="communication"/><tag k="source" v="RAFVG"/></node><node id="-171" version="1" lat="46.001897" lon="13.340605"><tag k="operator" v="Vodafone Omnitel"/><tag k="communication:mobile_phone" v="yes"/><tag k="start_date" v="2015-07-14"/><tag k="man_made" v="mast"/><tag k="tower:type" v="communication"/><tag k="source" v="RAFVG"/></node><node id="-172" version="1" lat="46.310183" lon="13.057905"><tag k="operator" v="Vodafone Omnitel"/><tag k="communication:mobile_phone" v="yes"/><tag k="start_date" v="2011-09-16"/><tag k="man_made" v="mast"/><tag k="tower:type" v="communication"/><tag k="source" v="RAFVG"/></node><node id="-173" version="1" lat="46.58407" lon="12.697353"><tag k="operator" v="Telecom Italia Mobile"/><tag k="man_made" v="mast"/><tag k="tower:type" v="communication"/><tag k="communication:mobile_phone" v="yes"/><tag k="source" v="RAFVG"/></node><node id="-174" version="1" lat="46.006199" lon="12.972593"><tag k="operator" v="Telecom Italia Mobile"/><tag k="communication:mobile_phone" v="yes"/><tag k="start_date" v="2014-02-03"/><tag k="man_made" v="mast"/><tag k="tower:type" v="communication"/><tag k="source" v="RAFVG"/></node><node id="-175" version="1" lat="46.057879" lon="13.241162"><tag k="operator" v="Telecom Italia Mobile"/><tag k="communication:mobile_phone" v="yes"/><tag k="start_date" v="2019-05-02"/><tag k="man_made" v="mast"/><tag k="tower:type" v="communication"/><tag k="source" v="RAFVG"/></node><node id="-176" version="1" lat="46.139669" lon="13.350476"><tag k="operator" v="Vodafone Omnitel"/><tag k="communication:mobile_phone" v="yes"/><tag k="start_date" v="2004-10-22"/><tag k="man_made" v="mast"/><tag k="tower:type" v="communication"/><tag k="source" v="RAFVG"/></node><node id="-177" version="1" lat="46.39762" lon="12.593248"><tag k="operator" v="Wind-Tre"/><tag k="communication:mobile_phone" v="yes"/><tag k="start_date" v="2017-06-01"/><tag k="man_made" v="mast"/><tag k="tower:type" v="communication"/><tag k="source" v="RAFVG"/></node><node id="-178" version="1" lat="46.405567" lon="13.308698"><tag k="operator" v="Vodafone Omnitel"/><tag k="communication:mobile_phone" v="yes"/><tag k="start_date" v="2011-01-28"/><tag k="man_made" v="mast"/><tag k="tower:type" v="communication"/><tag k="source" v="RAFVG"/></node><node id="-179" version="1" lat="46.53163" lon="13.112828"><tag k="operator" v="Wind-Tre"/><tag k="communication:mobile_phone" v="yes"/><tag k="start_date" v="2017-05-05"/><tag k="man_made" v="mast"/><tag k="tower:type" v="communication"/><tag k="source" v="RAFVG"/></node><node id="-180" version="1" lat="45.964717" lon="12.98719"><tag k="operator" v="Telecom Italia Mobile"/><tag k="communication:mobile_phone" v="yes"/><tag k="start_date" v="2015-06-17"/><tag k="man_made" v="mast"/><tag k="tower:type" v="communication"/><tag k="source" v="RAFVG"/></node><node id="-181" version="1" lat="45.773864" lon="13.003353"><tag k="operator" v="Wind-Tre"/><tag k="communication:mobile_phone" v="yes"/><tag k="start_date" v="2005-01-17"/><tag k="man_made" v="mast"/><tag k="tower:type" v="communication"/><tag k="source" v="RAFVG"/></node><node id="-182" version="1" lat="45.765123" lon="13.370034"><tag k="operator" v="Vodafone Omnitel"/><tag k="communication:mobile_phone" v="yes"/><tag k="start_date" v="2015-05-19"/><tag k="man_made" v="mast"/><tag k="tower:type" v="communication"/><tag k="source" v="RAFVG"/></node><node id="-183" version="1" lat="45.9293713" lon="12.9457301"><tag k="operator" v="Wind-Tre"/><tag k="communication:mobile_phone" v="yes"/><tag k="start_date" v="2015-02-26"/><tag k="man_made" v="mast"/><tag k="tower:type" v="communication"/><tag k="source" v="RAFVG"/></node><node id="-184" version="1" lat="45.93058" lon="13.125019"><tag k="operator" v="Telecom Italia Mobile"/><tag k="communication:mobile_phone" v="yes"/><tag k="start_date" v="2019-03-25"/><tag k="man_made" v="mast"/><tag k="tower:type" v="communication"/><tag k="source" v="RAFVG"/></node><node id="-185" version="1" lat="46.150011" lon="13.240584"><tag k="operator" v="Wind-Tre"/><tag k="communication:mobile_phone" v="yes"/><tag k="start_date" v="2020-03-26"/><tag k="man_made" v="mast"/><tag k="tower:type" v="communication"/><tag k="source" v="RAFVG"/></node><node id="-186" version="1" lat="46.050544" lon="13.211286"><tag k="operator" v="Telecom Italia Mobile"/><tag k="fixme" v="man_made=tree"/><tag k="communication:mobile_phone" v="yes"/><tag k="start_date" v="2017-06-19"/><tag k="man_made" v="mast"/><tag k="tower:type" v="communication"/><tag k="source" v="RAFVG"/></node><node id="-187" version="1" lat="45.764857" lon="13.239668"><tag k="operator" v="Telecom Italia Mobile"/><tag k="communication:mobile_phone" v="yes"/><tag k="start_date" v="2014-09-11"/><tag k="man_made" v="mast"/><tag k="tower:type" v="communication"/><tag k="source" v="RAFVG"/></node><node id="-188" version="1" lat="46.187745" lon="13.256875"><tag k="operator" v="Wind-Tre"/><tag k="communication:mobile_phone" v="yes"/><tag k="start_date" v="2018-10-05"/><tag k="man_made" v="mast"/><tag k="tower:type" v="communication"/><tag k="source" v="RAFVG"/></node><node id="-189" version="1" lat="45.660352" lon="13.102743"><tag k="operator" v="Vodafone Omnitel"/><tag k="communication:mobile_phone" v="yes"/><tag k="start_date" v="2018-04-20"/><tag k="man_made" v="mast"/><tag k="tower:type" v="communication"/><tag k="source" v="RAFVG"/></node><node id="-190" version="1" lat="45.822274" lon="13.349401"><tag k="man_made" v="mast"/><tag k="tower:type" v="communication"/><tag k="communication:mobile_phone" v="yes"/><tag k="start_date" v="2003-08-19"/><tag k="source" v="RAFVG"/></node><node id="-191" version="1" lat="45.821731" lon="13.216451"><tag k="operator" v="Vodafone Omnitel"/><tag k="communication:mobile_phone" v="yes"/><tag k="start_date" v="2015-03-13"/><tag k="man_made" v="mast"/><tag k="tower:type" v="communication"/><tag k="source" v="RAFVG"/></node><node id="-192" version="1" lat="45.782079" lon="12.992963"><tag k="operator" v="Wind-Tre"/><tag k="communication:mobile_phone" v="yes"/><tag k="start_date" v="2018-03-30"/><tag k="man_made" v="mast"/><tag k="tower:type" v="communication"/><tag k="source" v="RAFVG"/></node><node id="-193" version="1" lat="45.654954" lon="13.096989"><tag k="operator" v="Wind-Tre"/><tag k="communication:mobile_phone" v="yes"/><tag k="start_date" v="2018-03-22"/><tag k="man_made" v="mast"/><tag k="tower:type" v="communication"/><tag k="source" v="RAFVG"/></node><node id="-194" version="1" lat="46.161915" lon="13.270266"><tag k="operator" v="Vodafone Omnitel"/><tag k="communication:mobile_phone" v="yes"/><tag k="start_date" v="2014-09-30"/><tag k="man_made" v="mast"/><tag k="tower:type" v="communication"/><tag k="source" v="RAFVG"/></node><node id="-195" version="1" lat="46.275177" lon="13.102717"><tag k="operator" v="Vodafone Omnitel"/><tag k="communication:mobile_phone" v="yes"/><tag k="start_date" v="2017-11-07"/><tag k="man_made" v="mast"/><tag k="tower:type" v="communication"/><tag k="source" v="RAFVG"/></node><node id="-196" version="1" lat="46.046124" lon="13.207391"><tag k="man_made" v="mast"/><tag k="tower:type" v="communication"/><tag k="communication:mobile_phone" v="yes"/><tag k="start_date" v="2006-10-11"/><tag k="source" v="RAFVG"/></node><node id="-197" version="1" lat="46.051211" lon="13.208661"><tag k="operator" v="Wind-Tre"/><tag k="communication:mobile_phone" v="yes"/><tag k="start_date" v="2019-06-06"/><tag k="man_made" v="mast"/><tag k="tower:type" v="communication"/><tag k="source" v="RAFVG"/></node><node id="-198" version="1" lat="45.816824" lon="13.346145"><tag k="operator" v="Vodafone Omnitel"/><tag k="communication:mobile_phone" v="yes"/><tag k="start_date" v="2017-11-10"/><tag k="man_made" v="mast"/><tag k="tower:type" v="communication"/><tag k="source" v="RAFVG"/></node><node id="-199" version="1" lat="46.072689" lon="13.214728"><tag k="operator" v="Telecom Italia Mobile"/><tag k="communication:mobile_phone" v="yes"/><tag k="start_date" v="2018-12-06"/><tag k="man_made" v="mast"/><tag k="tower:type" v="communication"/><tag k="source" v="RAFVG"/></node><node id="-200" version="1" lat="46.064725" lon="13.232648"><tag k="operator" v="Wind-Tre"/><tag k="communication:mobile_phone" v="yes"/><tag k="start_date" v="2003-02-03"/><tag k="man_made" v="mast"/><tag k="tower:type" v="communication"/><tag k="source" v="RAFVG"/></node><node id="-201" version="1" lat="46.025597" lon="13.160991"><tag k="operator" v="Vodafone Omnitel"/><tag k="communication:mobile_phone" v="yes"/><tag k="start_date" v="2014-08-27"/><tag k="man_made" v="mast"/><tag k="tower:type" v="communication"/><tag k="source" v="RAFVG"/></node><node id="-202" version="1" lat="46.511167" lon="13.308597"><tag k="operator" v="Wind-Tre"/><tag k="communication:mobile_phone" v="yes"/><tag k="start_date" v="2011-07-06"/><tag k="man_made" v="mast"/><tag k="tower:type" v="communication"/><tag k="source" v="RAFVG"/></node><node id="-203" version="1" lat="45.678792" lon="13.11183"><tag k="operator" v="Wind-Tre"/><tag k="communication:mobile_phone" v="yes"/><tag k="start_date" v="2018-03-19"/><tag k="man_made" v="mast"/><tag k="tower:type" v="communication"/><tag k="source" v="RAFVG"/></node><node id="-204" version="1" lat="45.837335" lon="13.409497"><tag k="operator" v="Telecom Italia Mobile"/><tag k="communication:mobile_phone" v="yes"/><tag k="start_date" v="2015-05-14"/><tag k="man_made" v="mast"/><tag k="tower:type" v="communication"/><tag k="source" v="RAFVG"/></node><node id="-205" version="1" lat="46.002035" lon="13.070888"><tag k="operator" v="Wind-Tre"/><tag k="communication:mobile_phone" v="yes"/><tag k="start_date" v="2013-04-10"/><tag k="man_made" v="mast"/><tag k="tower:type" v="communication"/><tag k="source" v="RAFVG"/></node><node id="-206" version="1" lat="45.952966" lon="13.024032"><tag k="operator" v="Vodafone Omnitel"/><tag k="communication:mobile_phone" v="yes"/><tag k="start_date" v="2014-03-31"/><tag k="man_made" v="mast"/><tag k="tower:type" v="communication"/><tag k="source" v="RAFVG"/></node><node id="-207" version="1" lat="45.930508" lon="13.241042"><tag k="operator" v="Wind-Tre"/><tag k="communication:mobile_phone" v="yes"/><tag k="start_date" v="2017-05-10"/><tag k="man_made" v="mast"/><tag k="tower:type" v="communication"/><tag k="source" v="RAFVG"/></node><node id="-208" version="1" lat="46.557072" lon="13.27898"><tag k="operator" v="Vodafone Omnitel"/><tag k="communication:mobile_phone" v="yes"/><tag k="start_date" v="2002-07-16"/><tag k="man_made" v="mast"/><tag k="tower:type" v="communication"/><tag k="source" v="RAFVG"/></node><node id="-209" version="1" lat="45.873484" lon="13.112697"><tag k="operator" v="Wind-Tre"/><tag k="communication:mobile_phone" v="yes"/><tag k="start_date" v="2013-07-29"/><tag k="man_made" v="mast"/><tag k="tower:type" v="communication"/><tag k="source" v="RAFVG"/></node><node id="-210" version="1" lat="46.508155" lon="13.481645"><tag k="operator" v="Wind-Tre"/><tag k="communication:mobile_phone" v="yes"/><tag k="start_date" v="2014-05-16"/><tag k="man_made" v="mast"/><tag k="tower:type" v="communication"/><tag k="source" v="RAFVG"/></node><node id="-211" version="1" lat="46.059458" lon="13.265466"><tag k="operator" v="Telecom Italia Mobile"/><tag k="communication:mobile_phone" v="yes"/><tag k="start_date" v="2017-10-31"/><tag k="man_made" v="mast"/><tag k="tower:type" v="communication"/><tag k="source" v="RAFVG"/></node><node id="-212" version="1" lat="46.550699" lon="12.861082"><tag k="operator" v="Wind-Tre"/><tag k="communication:mobile_phone" v="yes"/><tag k="start_date" v="2017-06-27"/><tag k="man_made" v="mast"/><tag k="tower:type" v="communication"/><tag k="source" v="RAFVG"/></node><node id="-213" version="1" lat="45.9298918" lon="12.946296"><tag k="operator" v="Telecom Italia Mobile"/><tag k="communication:mobile_phone" v="yes"/><tag k="start_date" v="2019-03-29"/><tag k="man_made" v="mast"/><tag k="tower:type" v="communication"/><tag k="source" v="RAFVG"/></node><node id="-214" version="1" lat="45.800693" lon="13.166209"><tag k="operator" v="Vodafone Omnitel"/><tag k="communication:mobile_phone" v="yes"/><tag k="start_date" v="2012-01-23"/><tag k="man_made" v="mast"/><tag k="tower:type" v="communication"/><tag k="source" v="RAFVG"/></node><node id="-215" version="1" lat="45.811677" lon="12.99679"><tag k="operator" v="Telecom Italia Mobile"/><tag k="fixme" v="tower"/><tag k="communication:mobile_phone" v="yes"/><tag k="start_date" v="2007-08-27"/><tag k="man_made" v="mast"/><tag k="tower:type" v="communication"/><tag k="source" v="RAFVG"/></node><node id="-216" version="1" lat="46.069573" lon="13.222808"><tag k="operator" v="Vodafone Omnitel"/><tag k="communication:mobile_phone" v="yes"/><tag k="start_date" v="2016-05-12"/><tag k="man_made" v="mast"/><tag k="tower:type" v="communication"/><tag k="source" v="RAFVG"/></node><node id="-217" version="1" lat="46.332186" lon="13.135583"><tag k="man_made" v="mast"/><tag k="tower:type" v="communication"/><tag k="communication:mobile_phone" v="yes"/><tag k="start_date" v="2003-07-15"/><tag k="source" v="RAFVG"/></node><node id="-218" version="1" lat="46.058489" lon="13.232198"><tag k="operator" v="Telecom Italia Mobile"/><tag k="communication:mobile_phone" v="yes"/><tag k="start_date" v="2017-10-31"/><tag k="man_made" v="mast"/><tag k="tower:type" v="communication"/><tag k="source" v="RAFVG"/></node><node id="-219" version="1" lat="46.054197" lon="13.230519"><tag k="operator" v="Telecom Italia Mobile"/><tag k="communication:mobile_phone" v="yes"/><tag k="start_date" v="2017-06-06"/><tag k="man_made" v="mast"/><tag k="tower:type" v="communication"/><tag k="source" v="RAFVG"/></node><node id="-220" version="1" lat="46.206669" lon="13.104003"><tag k="operator" v="Wind-Tre"/><tag k="communication:mobile_phone" v="yes"/><tag k="start_date" v="2019-03-11"/><tag k="man_made" v="mast"/><tag k="tower:type" v="communication"/><tag k="source" v="RAFVG"/></node><node id="-221" version="1" lat="46.405803" lon="13.307012"><tag k="operator" v="Wind-Tre"/><tag k="communication:mobile_phone" v="yes"/><tag k="start_date" v="2006-09-13"/><tag k="man_made" v="mast"/><tag k="tower:type" v="communication"/><tag k="source" v="RAFVG"/></node><node id="-222" version="1" lat="46.154552" lon="13.22839"><tag k="operator" v="Wind-Tre"/><tag k="communication:mobile_phone" v="yes"/><tag k="start_date" v="2009-10-16"/><tag k="man_made" v="mast"/><tag k="tower:type" v="communication"/><tag k="source" v="RAFVG"/></node><node id="-223" version="1" lat="46.122379" lon="13.180812"><tag k="operator" v="Wind-Tre"/><tag k="communication:mobile_phone" v="yes"/><tag k="start_date" v="2016-05-31"/><tag k="man_made" v="mast"/><tag k="tower:type" v="communication"/><tag k="source" v="RAFVG"/></node><node id="-224" version="1" lat="46.3838674" lon="13.1318083"><tag k="operator" v="Wind-Tre"/><tag k="fixme" v="tower"/><tag k="communication:mobile_phone" v="yes"/><tag k="start_date" v="2019-03-06"/><tag k="man_made" v="mast"/><tag k="tower:type" v="communication"/><tag k="source" v="RAFVG"/></node><node id="-225" version="1" lat="46.330771" lon="13.133359"><tag k="operator" v="Vodafone Omnitel"/><tag k="fixme" v="tower"/><tag k="communication:mobile_phone" v="yes"/><tag k="start_date" v="2011-02-11"/><tag k="man_made" v="mast"/><tag k="tower:type" v="communication"/><tag k="source" v="RAFVG"/></node><node id="-226" version="1" lat="46.12607" lon="13.219607"><tag k="operator" v="Wind-Tre"/><tag k="communication:mobile_phone" v="yes"/><tag k="start_date" v="2019-06-07"/><tag k="man_made" v="mast"/><tag k="tower:type" v="communication"/><tag k="source" v="RAFVG"/></node><node id="-227" version="1" lat="46.279132" lon="13.140066"><tag k="operator" v="Vodafone Omnitel"/><tag k="communication:mobile_phone" v="yes"/><tag k="start_date" v="2017-11-07"/><tag k="man_made" v="mast"/><tag k="tower:type" v="communication"/><tag k="source" v="RAFVG"/></node><node id="-228" version="1" lat="46.301387" lon="13.123162"><tag k="man_made" v="mast"/><tag k="tower:type" v="communication"/><tag k="communication:mobile_phone" v="yes"/><tag k="source" v="RAFVG"/></node><node id="-229" version="1" lat="46.419303" lon="12.57673"><tag k="operator" v="Telecom Italia Mobile"/><tag k="communication:mobile_phone" v="yes"/><tag k="start_date" v="2014-06-16"/><tag k="man_made" v="mast"/><tag k="tower:type" v="communication"/><tag k="source" v="RAFVG"/></node><node id="-230" version="1" lat="45.807259" lon="13.083974"><tag k="operator" v="Wind-Tre"/><tag k="communication:mobile_phone" v="yes"/><tag k="start_date" v="2019-04-08"/><tag k="man_made" v="mast"/><tag k="tower:type" v="communication"/><tag k="source" v="RAFVG"/></node><node id="-231" version="1" lat="46.17256" lon="13.140661"><tag k="operator" v="Telecom Italia Mobile"/><tag k="communication:mobile_phone" v="yes"/><tag k="start_date" v="2014-03-17"/><tag k="man_made" v="mast"/><tag k="tower:type" v="communication"/><tag k="source" v="RAFVG"/></node><node id="-232" version="1" lat="46.03695" lon="13.253231"><tag k="operator" v="Wind-Tre"/><tag k="communication:mobile_phone" v="yes"/><tag k="start_date" v="2014-09-30"/><tag k="man_made" v="mast"/><tag k="tower:type" v="communication"/><tag k="source" v="RAFVG"/></node><node id="-233" version="1" lat="46.39633" lon="13.253654"><tag k="operator" v="Vodafone Omnitel"/><tag k="fixme" v="tower"/><tag k="communication:mobile_phone" v="yes"/><tag k="start_date" v="2005-12-05"/><tag k="man_made" v="mast"/><tag k="tower:type" v="communication"/><tag k="source" v="RAFVG"/></node><node id="-234" version="1" lat="45.819209" lon="13.333868"><tag k="operator" v="Telecom Italia Mobile"/><tag k="communication:mobile_phone" v="yes"/><tag k="start_date" v="2014-05-20"/><tag k="man_made" v="mast"/><tag k="tower:type" v="communication"/><tag k="source" v="RAFVG"/></node><node id="-235" version="1" lat="46.008292" lon="13.251332"><tag k="operator" v="Vodafone Omnitel"/><tag k="communication:mobile_phone" v="yes"/><tag k="start_date" v="2015-05-26"/><tag k="man_made" v="mast"/><tag k="tower:type" v="communication"/><tag k="source" v="RAFVG"/></node><node id="-236" version="1" lat="46.456462" lon="12.760613"><tag k="operator" v="Vodafone Omnitel"/><tag k="communication:mobile_phone" v="yes"/><tag k="start_date" v="2015-06-09"/><tag k="man_made" v="mast"/><tag k="tower:type" v="communication"/><tag k="source" v="RAFVG"/></node><node id="-237" version="1" lat="46.189665" lon="13.460407"><tag k="operator" v="Telecom Italia Mobile"/><tag k="fixme" v="tower"/><tag k="communication:mobile_phone" v="yes"/><tag k="start_date" v="2018-07-20"/><tag k="man_made" v="mast"/><tag k="tower:type" v="communication"/><tag k="source" v="RAFVG"/></node><node id="-238" version="1" lat="46.010907" lon="13.156511"><tag k="operator" v="Wind-Tre"/><tag k="communication:mobile_phone" v="yes"/><tag k="start_date" v="2020-04-10"/><tag k="man_made" v="mast"/><tag k="tower:type" v="communication"/><tag k="source" v="RAFVG"/></node><node id="-239" version="1" lat="46.137662" lon="12.972355"><tag k="operator" v="Wind-Tre"/><tag k="communication:mobile_phone" v="yes"/><tag k="start_date" v="2019-03-11"/><tag k="man_made" v="mast"/><tag k="tower:type" v="communication"/><tag k="source" v="RAFVG"/></node><node id="-240" version="1" lat="46.505859" lon="12.930505"><tag k="operator" v="Wind-Tre"/><tag k="communication:mobile_phone" v="yes"/><tag k="start_date" v="2017-07-06"/><tag k="man_made" v="mast"/><tag k="tower:type" v="communication"/><tag k="source" v="RAFVG"/></node><node id="-241" version="1" lat="46.211001" lon="13.135248"><tag k="operator" v="Wind-Tre"/><tag k="communication:mobile_phone" v="yes"/><tag k="start_date" v="2019-03-28"/><tag k="man_made" v="mast"/><tag k="tower:type" v="communication"/><tag k="source" v="RAFVG"/></node><node id="-242" version="1" lat="46.164423" lon="13.001375"><tag k="operator" v="Vodafone Omnitel"/><tag k="communication:mobile_phone" v="yes"/><tag k="start_date" v="2018-03-19"/><tag k="man_made" v="mast"/><tag k="tower:type" v="communication"/><tag k="source" v="RAFVG"/></node><node id="-243" version="1" lat="45.851296" lon="13.174581"><tag k="operator" v="Telecom Italia Mobile"/><tag k="communication:mobile_phone" v="yes"/><tag k="start_date" v="2014-04-28"/><tag k="man_made" v="mast"/><tag k="tower:type" v="communication"/><tag k="source" v="RAFVG"/></node><node id="-244" version="1" lat="46.051909" lon="13.056018"><tag k="operator" v="Telecom Italia Mobile"/><tag k="communication:mobile_phone" v="yes"/><tag k="start_date" v="2014-08-04"/><tag k="man_made" v="mast"/><tag k="tower:type" v="communication"/><tag k="source" v="RAFVG"/></node><node id="-245" version="1" lat="46.161357" lon="13.164405"><tag k="operator" v="Wind-Tre"/><tag k="communication:mobile_phone" v="yes"/><tag k="start_date" v="2002-12-12"/><tag k="man_made" v="mast"/><tag k="tower:type" v="communication"/><tag k="source" v="RAFVG"/></node><node id="-246" version="1" lat="46.122288" lon="13.42529"><tag k="operator" v="Vodafone Omnitel"/><tag k="communication:mobile_phone" v="yes"/><tag k="start_date" v="2014-11-21"/><tag k="man_made" v="mast"/><tag k="tower:type" v="communication"/><tag k="source" v="RAFVG"/></node><node id="-247" version="1" lat="46.505917" lon="13.482259"><tag k="operator" v="Vodafone Omnitel"/><tag k="fixme" v="tower"/><tag k="communication:mobile_phone" v="yes"/><tag k="start_date" v="2009-10-30"/><tag k="man_made" v="mast"/><tag k="tower:type" v="communication"/><tag k="source" v="RAFVG"/></node><node id="-248" version="1" lat="46.392309" lon="12.659505"><tag k="operator" v="Wind-Tre"/><tag k="communication:mobile_phone" v="yes"/><tag k="start_date" v="2017-05-19"/><tag k="man_made" v="mast"/><tag k="tower:type" v="communication"/><tag k="source" v="RAFVG"/></node><node id="-249" version="1" lat="46.489196" lon="13.487727"><tag k="operator" v="Wind-Tre"/><tag k="communication:mobile_phone" v="yes"/><tag k="start_date" v="2014-05-16"/><tag k="man_made" v="mast"/><tag k="tower:type" v="communication"/><tag k="source" v="RAFVG"/></node><node id="-250" version="1" lat="46.06833" lon="12.995912"><tag k="operator" v="Telecom Italia Mobile"/><tag k="communication:mobile_phone" v="yes"/><tag k="start_date" v="2014-01-14"/><tag k="man_made" v="mast"/><tag k="tower:type" v="communication"/><tag k="source" v="RAFVG"/></node><node id="-251" version="1" lat="46.057245" lon="13.26808"><tag k="operator" v="Wind-Tre"/><tag k="communication:mobile_phone" v="yes"/><tag k="start_date" v="2019-05-15"/><tag k="man_made" v="mast"/><tag k="tower:type" v="communication"/><tag k="source" v="RAFVG"/></node><node id="-252" version="1" lat="46.086201" lon="13.433207"><tag k="operator" v="Vodafone Omnitel"/><tag k="communication:mobile_phone" v="yes"/><tag k="start_date" v="2014-08-04"/><tag k="man_made" v="mast"/><tag k="tower:type" v="communication"/><tag k="source" v="RAFVG"/></node><node id="-253" version="1" lat="46.09423" lon="13.428061"><tag k="operator" v="Vodafone Omnitel"/><tag k="communication:mobile_phone" v="yes"/><tag k="start_date" v="2014-11-21"/><tag k="man_made" v="mast"/><tag k="tower:type" v="communication"/><tag k="source" v="RAFVG"/></node><node id="-254" version="1" lat="46.408524" lon="12.922239"><tag k="operator" v="Vodafone Omnitel"/><tag k="communication:mobile_phone" v="yes"/><tag k="start_date" v="2011-02-04"/><tag k="man_made" v="mast"/><tag k="tower:type" v="communication"/><tag k="source" v="RAFVG"/></node><node id="-255" version="1" lat="46.044504" lon="13.128042"><tag k="operator" v="Wind-Tre"/><tag k="fixme" v="tower"/><tag k="communication:mobile_phone" v="yes"/><tag k="start_date" v="2017-05-05"/><tag k="man_made" v="mast"/><tag k="tower:type" v="communication"/><tag k="source" v="RAFVG"/></node><node id="-256" version="1" lat="45.968641" lon="12.968021"><tag k="operator" v="Wind-Tre"/><tag k="communication:mobile_phone" v="yes"/><tag k="start_date" v="2019-06-10"/><tag k="man_made" v="mast"/><tag k="tower:type" v="communication"/><tag k="source" v="RAFVG"/></node><node id="-257" version="1" lat="46.3667536" lon="13.0737278"><tag k="operator" v="Wind-Tre"/><tag k="communication:mobile_phone" v="yes"/><tag k="start_date" v="2005-01-07"/><tag k="man_made" v="mast"/><tag k="tower:type" v="communication"/><tag k="source" v="RAFVG"/></node><node id="-258" version="1" lat="46.513118" lon="13.617363"><tag k="man_made" v="mast"/><tag k="tower:type" v="communication"/><tag k="communication:mobile_phone" v="yes"/><tag k="start_date" v="2004-02-24"/><tag k="source" v="RAFVG"/></node><node id="-259" version="1" lat="46.496508" lon="13.586744"><tag k="man_made" v="mast"/><tag k="tower:type" v="communication"/><tag k="communication:mobile_phone" v="yes"/><tag k="start_date" v="2004-02-25"/><tag k="source" v="RAFVG"/></node><node id="-260" version="1" lat="45.964756" lon="12.974337"><tag k="man_made" v="mast"/><tag k="tower:type" v="communication"/><tag k="communication:mobile_phone" v="yes"/><tag k="start_date" v="2005-06-27"/><tag k="source" v="RAFVG"/></node><node id="-261" version="1" lat="45.875639" lon="13.038293"><tag k="operator" v="Vodafone Omnitel"/><tag k="communication:mobile_phone" v="yes"/><tag k="start_date" v="2015-07-17"/><tag k="man_made" v="mast"/><tag k="tower:type" v="communication"/><tag k="source" v="RAFVG"/></node><node id="-262" version="1" lat="46.112251" lon="13.296147"><tag k="operator" v="Telecom Italia Mobile"/><tag k="communication:mobile_phone" v="yes"/><tag k="start_date" v="2015-06-17"/><tag k="man_made" v="mast"/><tag k="tower:type" v="communication"/><tag k="source" v="RAFVG"/></node><node id="-263" version="1" lat="45.96118" lon="12.97937"><tag k="operator" v="Wind-Tre"/><tag k="communication:mobile_phone" v="yes"/><tag k="start_date" v="2019-06-21"/><tag k="man_made" v="mast"/><tag k="tower:type" v="communication"/><tag k="source" v="RAFVG"/></node><node id="-264" version="1" lat="45.872143" lon="13.117315"><tag k="operator" v="Vodafone Omnitel"/><tag k="communication:mobile_phone" v="yes"/><tag k="start_date" v="2015-09-09"/><tag k="man_made" v="mast"/><tag k="tower:type" v="communication"/><tag k="source" v="RAFVG"/></node><node id="-265" version="1" lat="45.822863" lon="13.335994"><tag k="operator" v="Wind-Tre"/><tag k="communication:mobile_phone" v="yes"/><tag k="start_date" v="2018-03-16"/><tag k="man_made" v="mast"/><tag k="tower:type" v="communication"/><tag k="source" v="RAFVG"/></node><node id="-266" version="1" lat="46.507224" lon="13.441889"><tag k="operator" v="Telecom Italia Mobile"/><tag k="communication:mobile_phone" v="yes"/><tag k="start_date" v="2014-10-27"/><tag k="man_made" v="mast"/><tag k="tower:type" v="communication"/><tag k="source" v="RAFVG"/></node><node id="-267" version="1" lat="46.497489" lon="13.691877"><tag k="operator" v="Vodafone Omnitel"/><tag k="fixme" v="tower"/><tag k="communication:mobile_phone" v="yes"/><tag k="start_date" v="2015-04-23"/><tag k="man_made" v="mast"/><tag k="tower:type" v="communication"/><tag k="source" v="RAFVG"/></node><node id="-268" version="1" lat="46.52413" lon="13.613322"><tag k="operator" v="Vodafone Omnitel"/><tag k="communication:mobile_phone" v="yes"/><tag k="start_date" v="2015-03-31"/><tag k="man_made" v="mast"/><tag k="tower:type" v="communication"/><tag k="source" v="RAFVG"/></node><node id="-269" version="1" lat="46.086249" lon="13.197671"><tag k="operator" v="Telecom Italia Mobile"/><tag k="communication:mobile_phone" v="yes"/><tag k="start_date" v="2017-05-08"/><tag k="man_made" v="mast"/><tag k="tower:type" v="communication"/><tag k="source" v="RAFVG"/></node><node id="-270" version="1" lat="46.095189" lon="13.206436"><tag k="operator" v="Wind-Tre"/><tag k="communication:mobile_phone" v="yes"/><tag k="start_date" v="2019-06-20"/><tag k="man_made" v="mast"/><tag k="tower:type" v="communication"/><tag k="source" v="RAFVG"/></node><node id="-271" version="1" lat="46.497971" lon="13.40757"><tag k="operator" v="Telecom Italia Mobile"/><tag k="communication:mobile_phone" v="yes"/><tag k="start_date" v="2013-12-23"/><tag k="man_made" v="mast"/><tag k="tower:type" v="communication"/><tag k="source" v="RAFVG"/></node><node id="-272" version="1" lat="45.833089" lon="13.102543"><tag k="operator" v="Telecom Italia Mobile"/><tag k="fixme" v="tower"/><tag k="communication:mobile_phone" v="yes"/><tag k="start_date" v="2014-04-03"/><tag k="man_made" v="mast"/><tag k="tower:type" v="communication"/><tag k="source" v="RAFVG"/></node><node id="-273" version="1" lat="46.077376" lon="13.273085"><tag k="man_made" v="mast"/><tag k="tower:type" v="communication"/><tag k="communication:mobile_phone" v="yes"/><tag k="start_date" v="2006-10-12"/><tag k="source" v="RAFVG"/></node><node id="-274" version="1" lat="46.070712" lon="13.236206"><tag k="operator" v="Telecom Italia Mobile"/><tag k="communication:mobile_phone" v="yes"/><tag k="start_date" v="2019-07-16"/><tag k="man_made" v="mast"/><tag k="tower:type" v="communication"/><tag k="source" v="RAFVG"/></node><node id="-275" version="1" lat="46.386944" lon="13.248355"><tag k="operator" v="Vodafone Omnitel"/><tag k="fixme" v="check position"/><tag k="communication:mobile_phone" v="yes"/><tag k="start_date" v="2017-11-07"/><tag k="man_made" v="mast"/><tag k="tower:type" v="communication"/><tag k="source" v="RAFVG"/></node><node id="-276" version="1" lat="45.928865" lon="13.395786"><tag k="operator" v="Vodafone Omnitel"/><tag k="communication:mobile_phone" v="yes"/><tag k="start_date" v="2009-07-09"/><tag k="man_made" v="mast"/><tag k="tower:type" v="communication"/><tag k="source" v="RAFVG"/></node><node id="-277" version="1" lat="45.884943" lon="13.252494"><tag k="operator" v="Telecom Italia Mobile"/><tag k="communication:mobile_phone" v="yes"/><tag k="start_date" v="2014-04-03"/><tag k="man_made" v="mast"/><tag k="tower:type" v="communication"/><tag k="source" v="RAFVG"/></node><node id="-278" version="1" lat="45.959349" lon="13.244272"><tag k="operator" v="Telecom Italia Mobile"/><tag k="communication:mobile_phone" v="yes"/><tag k="start_date" v="2019-03-05"/><tag k="man_made" v="mast"/><tag k="tower:type" v="communication"/><tag k="source" v="RAFVG"/></node><node id="-279" version="1" lat="46.08817" lon="13.195642"><tag k="operator" v="Wind-Tre"/><tag k="communication:mobile_phone" v="yes"/><tag k="start_date" v="2019-05-09"/><tag k="man_made" v="mast"/><tag k="tower:type" v="communication"/><tag k="source" v="RAFVG"/></node><node id="-280" version="1" lat="46.489341" lon="12.850106"><tag k="operator" v="Wind-Tre"/><tag k="communication:mobile_phone" v="yes"/><tag k="start_date" v="2017-07-05"/><tag k="man_made" v="mast"/><tag k="tower:type" v="communication"/><tag k="source" v="RAFVG"/></node><node id="-281" version="1" lat="45.973824" lon="13.26205"><tag k="man_made" v="mast"/><tag k="tower:type" v="communication"/><tag k="communication:mobile_phone" v="yes"/><tag k="start_date" v="2007-10-24"/><tag k="source" v="RAFVG"/></node><node id="-282" version="1" lat="46.509844" lon="13.305562"><tag k="operator" v="Telecom Italia Mobile"/><tag k="fixme" v="tower"/><tag k="communication:mobile_phone" v="yes"/><tag k="start_date" v="2017-02-07"/><tag k="man_made" v="mast"/><tag k="tower:type" v="communication"/><tag k="source" v="RAFVG"/></node><node id="-283" version="1" lat="46.150509" lon="13.346138"><tag k="operator" v="Telecom Italia Mobile"/><tag k="communication:mobile_phone" v="yes"/><tag k="start_date" v="2014-03-07"/><tag k="man_made" v="mast"/><tag k="tower:type" v="communication"/><tag k="source" v="RAFVG"/></node><node id="-284" version="1" lat="46.262893" lon="13.099309"><tag k="operator" v="Wind-Tre"/><tag k="communication:mobile_phone" v="yes"/><tag k="start_date" v="2018-12-11"/><tag k="man_made" v="mast"/><tag k="tower:type" v="communication"/><tag k="source" v="RAFVG"/></node><node id="-285" version="1" lat="46.256567" lon="13.180522"><tag k="operator" v="Telecom Italia Mobile"/><tag k="communication:mobile_phone" v="yes"/><tag k="start_date" v="2014-11-24"/><tag k="man_made" v="mast"/><tag k="tower:type" v="communication"/><tag k="source" v="RAFVG"/></node><node id="-286" version="1" lat="46.326306" lon="13.128848"><tag k="operator" v="Vodafone Omnitel"/><tag k="fixme" v="tower"/><tag k="communication:mobile_phone" v="yes"/><tag k="start_date" v="2015-07-21"/><tag k="man_made" v="mast"/><tag k="tower:type" v="communication"/><tag k="source" v="RAFVG"/></node><node id="-287" version="1" lat="46.028315" lon="13.258232"><tag k="operator" v="Telecom Italia Mobile"/><tag k="communication:mobile_phone" v="yes"/><tag k="start_date" v="2017-05-10"/><tag k="man_made" v="mast"/><tag k="tower:type" v="communication"/><tag k="source" v="RAFVG"/></node><node id="-288" version="1" lat="45.648913" lon="13.100645"><tag k="operator" v="Telecom Italia Mobile"/><tag k="communication:mobile_phone" v="yes"/><tag k="start_date" v="2017-03-13"/><tag k="man_made" v="mast"/><tag k="tower:type" v="communication"/><tag k="source" v="RAFVG"/></node><node id="-289" version="1" lat="46.055195" lon="13.242278"><tag k="man_made" v="mast"/><tag k="tower:type" v="communication"/><tag k="communication:mobile_phone" v="yes"/><tag k="start_date" v="2004-03-12"/><tag k="source" v="RAFVG"/></node><node id="-290" version="1" lat="46.099662" lon="13.206232"><tag k="operator" v="Telecom Italia Mobile"/><tag k="communication:mobile_phone" v="yes"/><tag k="start_date" v="2014-01-14"/><tag k="man_made" v="mast"/><tag k="tower:type" v="communication"/><tag k="source" v="RAFVG"/></node><node id="-291" version="1" lat="46.095702" lon="13.430836"><tag k="operator" v="Vodafone Omnitel"/><tag k="communication:mobile_phone" v="yes"/><tag k="start_date" v="2015-01-23"/><tag k="man_made" v="mast"/><tag k="tower:type" v="communication"/><tag k="source" v="RAFVG"/></node><node id="-292" version="1" lat="46.151467" lon="13.23981"><tag k="operator" v="Vodafone Omnitel"/><tag k="communication:mobile_phone" v="yes"/><tag k="start_date" v="2014-02-04"/><tag k="man_made" v="mast"/><tag k="tower:type" v="communication"/><tag k="source" v="RAFVG"/></node><node id="-293" version="1" lat="46.085954" lon="13.433419"><tag k="operator" v="Wind-Tre"/><tag k="communication:mobile_phone" v="yes"/><tag k="start_date" v="2019-04-08"/><tag k="man_made" v="mast"/><tag k="tower:type" v="communication"/><tag k="source" v="RAFVG"/></node><node id="-294" version="1" lat="45.87765" lon="13.286811"><tag k="operator" v="Telecom Italia Mobile"/><tag k="communication:mobile_phone" v="yes"/><tag k="start_date" v="2014-04-30"/><tag k="man_made" v="mast"/><tag k="tower:type" v="communication"/><tag k="source" v="RAFVG"/></node><node id="-295" version="1" lat="46.274033" lon="13.125592"><tag k="operator" v="Wind-Tre"/><tag k="communication:mobile_phone" v="yes"/><tag k="start_date" v="2019-04-02"/><tag k="man_made" v="mast"/><tag k="tower:type" v="communication"/><tag k="source" v="RAFVG"/></node><node id="-296" version="1" lat="46.087181" lon="13.23366"><tag k="operator" v="Telecom Italia Mobile"/><tag k="communication:mobile_phone" v="yes"/><tag k="start_date" v="2017-05-03"/><tag k="man_made" v="mast"/><tag k="tower:type" v="communication"/><tag k="source" v="RAFVG"/></node><node id="-297" version="1" lat="46.047264" lon="13.38572"><tag k="operator" v="Telecom Italia Mobile"/><tag k="communication:mobile_phone" v="yes"/><tag k="start_date" v="2012-06-28"/><tag k="man_made" v="mast"/><tag k="tower:type" v="communication"/><tag k="source" v="RAFVG"/></node><node id="-298" version="1" lat="46.164594" lon="13.207968"><tag k="operator" v="Wind-Tre"/><tag k="fixme" v="tower"/><tag k="communication:mobile_phone" v="yes"/><tag k="start_date" v="2010-12-01"/><tag k="man_made" v="mast"/><tag k="tower:type" v="communication"/><tag k="source" v="RAFVG"/></node><node id="-299" version="1" lat="45.690257" lon="13.143278"><tag k="operator" v="Telecom Italia Mobile"/><tag k="communication:mobile_phone" v="yes"/><tag k="start_date" v="2017-03-22"/><tag k="man_made" v="mast"/><tag k="tower:type" v="communication"/><tag k="source" v="RAFVG"/></node><node id="-300" version="1" lat="45.803209" lon="13.408601"><tag k="operator" v="Vodafone Omnitel"/><tag k="communication:mobile_phone" v="yes"/><tag k="start_date" v="2015-03-12"/><tag k="man_made" v="mast"/><tag k="tower:type" v="communication"/><tag k="source" v="RAFVG"/></node><node id="-301" version="1" lat="46.006136" lon="12.973269"><tag k="operator" v="Wind-Tre"/><tag k="communication:mobile_phone" v="yes"/><tag k="start_date" v="2019-03-11"/><tag k="man_made" v="mast"/><tag k="tower:type" v="communication"/><tag k="source" v="RAFVG"/></node><node id="-302" version="1" lat="46.390126" lon="13.477143"><tag k="operator" v="Telecom Italia Mobile"/><tag k="communication:mobile_phone" v="yes"/><tag k="start_date" v="2017-02-21"/><tag k="man_made" v="mast"/><tag k="tower:type" v="communication"/><tag k="source" v="RAFVG"/></node><node id="-303" version="1" lat="46.39637" lon="13.2535645"><tag k="operator" v="Telecom Italia Mobile"/><tag k="fixme" v="tower"/><tag k="communication:mobile_phone" v="yes"/><tag k="start_date" v="2002-06-11"/><tag k="man_made" v="mast"/><tag k="tower:type" v="communication"/><tag k="source" v="RAFVG"/></node><node id="-304" version="1" lat="46.4692063" lon="13.5713553"><tag k="operator" v="Wind-Tre"/><tag k="communication:mobile_phone" v="yes"/><tag k="start_date" v="2002-04-29"/><tag k="man_made" v="mast"/><tag k="tower:type" v="communication"/><tag k="source" v="RAFVG"/></node><node id="-305" version="1" lat="46.399519" lon="13.012877"><tag k="operator" v="Wind-Tre"/><tag k="communication:mobile_phone" v="yes"/><tag k="start_date" v="2019-06-07"/><tag k="man_made" v="mast"/><tag k="tower:type" v="communication"/><tag k="source" v="RAFVG"/></node><node id="-306" version="1" lat="46.473332" lon="13.01923"><tag k="operator" v="Wind-Tre"/><tag k="communication:mobile_phone" v="yes"/><tag k="start_date" v="2017-07-05"/><tag k="man_made" v="mast"/><tag k="tower:type" v="communication"/><tag k="source" v="RAFVG"/></node><node id="-307" version="1" lat="46.105547" lon="13.486008"><tag k="operator" v="Wind-Tre"/><tag k="communication:mobile_phone" v="yes"/><tag k="start_date" v="2011-10-11"/><tag k="man_made" v="mast"/><tag k="tower:type" v="communication"/><tag k="source" v="RAFVG"/></node><node id="-308" version="1" lat="46.460028" lon="12.692371"><tag k="operator" v="Telecom Italia Mobile"/><tag k="communication:mobile_phone" v="yes"/><tag k="start_date" v="2017-03-09"/><tag k="man_made" v="mast"/><tag k="tower:type" v="communication"/><tag k="source" v="RAFVG"/></node><node id="-309" version="1" lat="45.780643" lon="12.996033"><tag k="operator" v="Vodafone Omnitel"/><tag k="communication:mobile_phone" v="yes"/><tag k="start_date" v="2015-08-11"/><tag k="man_made" v="mast"/><tag k="tower:type" v="communication"/><tag k="source" v="RAFVG"/></node><node id="-310" version="1" lat="46.066085" lon="13.225739"><tag k="operator" v="Wind-Tre"/><tag k="communication:mobile_phone" v="yes"/><tag k="start_date" v="2019-05-15"/><tag k="man_made" v="mast"/><tag k="tower:type" v="communication"/><tag k="source" v="RAFVG"/></node><node id="-311" version="1" lat="45.683907" lon="13.12947"><tag k="operator" v="Telecom Italia Mobile"/><tag k="communication:mobile_phone" v="yes"/><tag k="start_date" v="2017-03-30"/><tag k="man_made" v="mast"/><tag k="tower:type" v="communication"/><tag k="source" v="RAFVG"/></node><node id="-312" version="1" lat="45.669614" lon="13.109242"><tag k="operator" v="Wind-Tre"/><tag k="communication:mobile_phone" v="yes"/><tag k="start_date" v="2018-04-13"/><tag k="man_made" v="mast"/><tag k="tower:type" v="communication"/><tag k="source" v="RAFVG"/></node><node id="-313" version="1" lat="46.067705" lon="13.238479"><tag k="operator" v="Telecom Italia Mobile"/><tag k="communication:mobile_phone" v="yes"/><tag k="start_date" v="2017-10-04"/><tag k="man_made" v="mast"/><tag k="tower:type" v="communication"/><tag k="source" v="RAFVG"/></node><node id="-314" version="1" lat="46.103436" lon="13.087246"><tag k="operator" v="Vodafone Omnitel"/><tag k="communication:mobile_phone" v="yes"/><tag k="start_date" v="2015-04-09"/><tag k="man_made" v="mast"/><tag k="tower:type" v="communication"/><tag k="source" v="RAFVG"/></node><node id="-315" version="1" lat="46.528967" lon="13.013427"><tag k="operator" v="Telecom Italia Mobile"/><tag k="communication:mobile_phone" v="yes"/><tag k="start_date" v="2014-04-09"/><tag k="man_made" v="mast"/><tag k="tower:type" v="communication"/><tag k="source" v="RAFVG"/></node><node id="-316" version="1" lat="46.518104" lon="12.808388"><tag k="operator" v="Wind-Tre"/><tag k="communication:mobile_phone" v="yes"/><tag k="start_date" v="2017-05-08"/><tag k="man_made" v="mast"/><tag k="tower:type" v="communication"/><tag k="source" v="RAFVG"/></node><node id="-317" version="1" lat="45.987182" lon="13.206882"><tag k="operator" v="Telecom Italia Mobile"/><tag k="communication:mobile_phone" v="yes"/><tag k="start_date" v="2015-10-23"/><tag k="man_made" v="mast"/><tag k="tower:type" v="communication"/><tag k="source" v="RAFVG"/></node><node id="-318" version="1" lat="45.935519" lon="13.089162"><tag k="operator" v="Telecom Italia Mobile"/><tag k="communication:mobile_phone" v="yes"/><tag k="start_date" v="2017-11-10"/><tag k="man_made" v="mast"/><tag k="tower:type" v="communication"/><tag k="source" v="RAFVG"/></node><node id="-319" version="1" lat="45.672332" lon="13.113349"><tag k="operator" v="Telecom Italia Mobile"/><tag k="communication:mobile_phone" v="yes"/><tag k="start_date" v="2014-07-03"/><tag k="man_made" v="mast"/><tag k="tower:type" v="communication"/><tag k="source" v="RAFVG"/></node><node id="-320" version="1" lat="46.482405" lon="13.520492"><tag k="operator" v="Vodafone Omnitel"/><tag k="communication:mobile_phone" v="yes"/><tag k="start_date" v="2013-12-23"/><tag k="man_made" v="mast"/><tag k="tower:type" v="communication"/><tag k="source" v="RAFVG"/></node><node id="-321" version="1" lat="45.979214" lon="13.196308"><tag k="operator" v="Telecom Italia Mobile"/><tag k="communication:mobile_phone" v="yes"/><tag k="start_date" v="2015-06-15"/><tag k="man_made" v="mast"/><tag k="tower:type" v="communication"/><tag k="source" v="RAFVG"/></node><node id="-322" version="1" lat="45.846349" lon="13.326842"><tag k="operator" v="Wind-Tre"/><tag k="communication:mobile_phone" v="yes"/><tag k="start_date" v="2018-03-07"/><tag k="man_made" v="mast"/><tag k="tower:type" v="communication"/><tag k="source" v="RAFVG"/></node><node id="-323" version="1" lat="46.554418" lon="13.282587"><tag k="operator" v="Telecom Italia Mobile"/><tag k="communication:mobile_phone" v="yes"/><tag k="start_date" v="2006-05-24"/><tag k="man_made" v="mast"/><tag k="tower:type" v="communication"/><tag k="source" v="RAFVG"/></node><node id="-324" version="1" lat="46.245139" lon="13.082725"><tag k="operator" v="Wind-Tre"/><tag k="communication:mobile_phone" v="yes"/><tag k="start_date" v="2017-05-10"/><tag k="man_made" v="mast"/><tag k="tower:type" v="communication"/><tag k="source" v="RAFVG"/></node><node id="-325" version="1" lat="45.761119" lon="13.161266"><tag k="operator" v="Vodafone Omnitel"/><tag k="communication:mobile_phone" v="yes"/><tag k="start_date" v="2015-07-21"/><tag k="man_made" v="mast"/><tag k="tower:type" v="communication"/><tag k="source" v="RAFVG"/></node><node id="-326" version="1" lat="46.260983" lon="13.347861"><tag k="operator" v="Wind-Tre"/><tag k="communication:mobile_phone" v="yes"/><tag k="start_date" v="2017-05-09"/><tag k="man_made" v="mast"/><tag k="tower:type" v="communication"/><tag k="source" v="RAFVG"/></node><node id="-327" version="1" lat="46.101877" lon="13.086461"><tag k="operator" v="Wind-Tre"/><tag k="communication:mobile_phone" v="yes"/><tag k="start_date" v="2019-09-02"/><tag k="man_made" v="mast"/><tag k="tower:type" v="communication"/><tag k="source" v="RAFVG"/></node><node id="-328" version="1" lat="45.90148" lon="13.233372"><tag k="operator" v="Vodafone Omnitel"/><tag k="communication:mobile_phone" v="yes"/><tag k="start_date" v="2015-12-02"/><tag k="man_made" v="mast"/><tag k="tower:type" v="communication"/><tag k="source" v="RAFVG"/></node><node id="-329" version="1" lat="45.672625" lon="13.11301"><tag k="operator" v="Iliad Italia"/><tag k="communication:mobile_phone" v="yes"/><tag k="start_date" v="2019-11-05"/><tag k="man_made" v="mast"/><tag k="tower:type" v="communication"/><tag k="source" v="RAFVG"/></node><node id="-330" version="1" lat="45.781933" lon="13.23412"><tag k="operator" v="Wind-Tre"/><tag k="communication:mobile_phone" v="yes"/><tag k="start_date" v="2020-01-27"/><tag k="man_made" v="mast"/><tag k="tower:type" v="communication"/><tag k="source" v="RAFVG"/></node><node id="-331" version="1" lat="45.968197" lon="13.324117"><tag k="operator" v="Wind-Tre"/><tag k="communication:mobile_phone" v="yes"/><tag k="start_date" v="2019-10-17"/><tag k="man_made" v="mast"/><tag k="tower:type" v="communication"/><tag k="source" v="RAFVG"/></node><node id="-332" version="1" lat="46.209755" lon="13.215642"><tag k="operator" v="Wind-Tre"/><tag k="fixme" v="check position"/><tag k="communication:mobile_phone" v="yes"/><tag k="start_date" v="2020-09-25"/><tag k="man_made" v="mast"/><tag k="tower:type" v="communication"/><tag k="source" v="RAFVG"/></node><node id="-333" version="1" lat="46.057264" lon="13.241535"><tag k="operator" v="Wind-Tre"/><tag k="communication:mobile_phone" v="yes"/><tag k="start_date" v="2020-08-27"/><tag k="man_made" v="mast"/><tag k="tower:type" v="communication"/><tag k="source" v="RAFVG"/></node><node id="-334" version="1" lat="46.51947" lon="12.675436"><tag k="operator" v="Telecom Italia Mobile"/><tag k="communication:mobile_phone" v="yes"/><tag k="start_date" v="2020-11-05"/><tag k="man_made" v="mast"/><tag k="tower:type" v="communication"/><tag k="source" v="RAFVG"/></node><node id="-335" version="1" lat="46.208184" lon="13.187786"><tag k="operator" v="Wind-Tre"/><tag k="communication:mobile_phone" v="yes"/><tag k="start_date" v="2020-04-03"/><tag k="man_made" v="mast"/><tag k="tower:type" v="communication"/><tag k="source" v="RAFVG"/></node><node id="-336" version="1" lat="45.967646" lon="12.988836"><tag k="operator" v="Iliad Italia"/><tag k="communication:mobile_phone" v="yes"/><tag k="start_date" v="2020-04-28"/><tag k="man_made" v="mast"/><tag k="tower:type" v="communication"/><tag k="source" v="RAFVG"/></node><node id="-337" version="1" lat="45.897279" lon="12.987965"><tag k="operator" v="Iliad Italia"/><tag k="communication:mobile_phone" v="yes"/><tag k="start_date" v="2020-04-27"/><tag k="man_made" v="mast"/><tag k="tower:type" v="communication"/><tag k="source" v="RAFVG"/></node><node id="-338" version="1" lat="45.690488" lon="13.136572"><tag k="operator" v="Iliad Italia"/><tag k="communication:mobile_phone" v="yes"/><tag k="start_date" v="2019-10-14"/><tag k="man_made" v="mast"/><tag k="tower:type" v="communication"/><tag k="source" v="RAFVG"/></node><node id="-339" version="1" lat="46.053519" lon="13.230278"><tag k="operator" v="Wind-Tre"/><tag k="communication:mobile_phone" v="yes"/><tag k="start_date" v="2019-09-17"/><tag k="man_made" v="mast"/><tag k="tower:type" v="communication"/><tag k="source" v="RAFVG"/></node><node id="-340" version="1" lat="45.987075" lon="13.20605"><tag k="operator" v="Wind-Tre"/><tag k="communication:mobile_phone" v="yes"/><tag k="start_date" v="2019-08-22"/><tag k="man_made" v="mast"/><tag k="tower:type" v="communication"/><tag k="source" v="RAFVG"/></node><node id="-341" version="1" lat="45.922379" lon="13.248425"><tag k="operator" v="Iliad Italia"/><tag k="communication:mobile_phone" v="yes"/><tag k="start_date" v="2020-06-26"/><tag k="man_made" v="mast"/><tag k="tower:type" v="communication"/><tag k="source" v="RAFVG"/></node><node id="-342" version="1" lat="45.905271" lon="13.295887"><tag k="operator" v="Iliad Italia"/><tag k="communication:mobile_phone" v="yes"/><tag k="start_date" v="2020-10-23"/><tag k="man_made" v="mast"/><tag k="tower:type" v="communication"/><tag k="source" v="RAFVG"/></node><node id="-343" version="1" lat="45.787077" lon="12.998555"><tag k="operator" v="Wind-Tre"/><tag k="communication:mobile_phone" v="yes"/><tag k="start_date" v="2019-03-27"/><tag k="man_made" v="mast"/><tag k="tower:type" v="communication"/><tag k="source" v="RAFVG"/></node><node id="-344" version="1" lat="46.127155" lon="13.57763"><tag k="operator" v="Telecom Italia Mobile"/><tag k="communication:mobile_phone" v="yes"/><tag k="start_date" v="2020-06-11"/><tag k="man_made" v="mast"/><tag k="tower:type" v="communication"/><tag k="source" v="RAFVG"/></node><node id="-345" version="1" lat="45.898453" lon="13.378119"><tag k="operator" v="Telecom Italia Mobile"/><tag k="fixme" v="tower"/><tag k="communication:mobile_phone" v="yes"/><tag k="start_date" v="2020-12-01"/><tag k="man_made" v="mast"/><tag k="tower:type" v="communication"/><tag k="source" v="RAFVG"/></node><node id="-346" version="1" lat="45.769044" lon="13.354618"><tag k="operator" v="Iliad Italia"/><tag k="communication:mobile_phone" v="yes"/><tag k="start_date" v="2020-05-07"/><tag k="man_made" v="mast"/><tag k="tower:type" v="communication"/><tag k="source" v="RAFVG"/></node><node id="-347" version="1" lat="45.9529884" lon="13.0240828"><tag k="operator" v="Wind-Tre"/><tag k="communication:mobile_phone" v="yes"/><tag k="start_date" v="2020-03-17"/><tag k="man_made" v="mast"/><tag k="tower:type" v="communication"/><tag k="source" v="RAFVG"/></node><node id="-348" version="1" lat="45.900101" lon="13.179344"><tag k="operator" v="Wind-Tre"/><tag k="communication:mobile_phone" v="yes"/><tag k="start_date" v="2019-12-23"/><tag k="man_made" v="mast"/><tag k="tower:type" v="communication"/><tag k="source" v="RAFVG"/></node><node id="-349" version="1" lat="46.008119" lon="13.215576"><tag k="operator" v="Wind-Tre"/><tag k="communication:mobile_phone" v="yes"/><tag k="start_date" v="2020-05-18"/><tag k="man_made" v="mast"/><tag k="tower:type" v="communication"/><tag k="source" v="RAFVG"/></node><node id="-350" version="1" lat="46.4561014" lon="13.0227202"><tag k="operator" v="Wind-Tre"/><tag k="communication:mobile_phone" v="yes"/><tag k="start_date" v="2019-08-13"/><tag k="man_made" v="mast"/><tag k="tower:type" v="communication"/><tag k="source" v="RAFVG"/></node><node id="-351" version="1" lat="46.503101" lon="13.405635"><tag k="operator" v="Telecom Italia Mobile"/><tag k="communication:mobile_phone" v="yes"/><tag k="start_date" v="2003-04-23"/><tag k="man_made" v="mast"/><tag k="tower:type" v="communication"/><tag k="source" v="RAFVG"/></node><node id="-352" version="1" lat="46.058964" lon="13.249157"><tag k="operator" v="Wind-Tre"/><tag k="communication:mobile_phone" v="yes"/><tag k="start_date" v="2019-09-24"/><tag k="man_made" v="mast"/><tag k="tower:type" v="communication"/><tag k="source" v="RAFVG"/></node><node id="-353" version="1" lat="46.094657" lon="13.244648"><tag k="operator" v="Wind-Tre"/><tag k="communication:mobile_phone" v="yes"/><tag k="start_date" v="2019-11-07"/><tag k="man_made" v="mast"/><tag k="tower:type" v="communication"/><tag k="source" v="RAFVG"/></node><node id="-354" version="1" lat="45.861876" lon="13.289944"><tag k="operator" v="Wind-Tre"/><tag k="communication:mobile_phone" v="yes"/><tag k="start_date" v="2019-05-02"/><tag k="man_made" v="mast"/><tag k="tower:type" v="communication"/><tag k="source" v="RAFVG"/></node><node id="-355" version="1" lat="45.821311" lon="13.333697"><tag k="operator" v="Wind-Tre"/><tag k="communication:mobile_phone" v="yes"/><tag k="start_date" v="2019-05-09"/><tag k="man_made" v="mast"/><tag k="tower:type" v="communication"/><tag k="source" v="RAFVG"/></node><node id="-356" version="1" lat="46.041315" lon="13.224555"><tag k="operator" v="Wind-Tre"/><tag k="communication:mobile_phone" v="yes"/><tag k="start_date" v="2019-05-09"/><tag k="man_made" v="mast"/><tag k="tower:type" v="communication"/><tag k="source" v="RAFVG"/></node><node id="-357" version="1" lat="45.817628" lon="13.133847"><tag k="operator" v="Wind-Tre"/><tag k="communication:mobile_phone" v="yes"/><tag k="start_date" v="2019-05-02"/><tag k="man_made" v="mast"/><tag k="tower:type" v="communication"/><tag k="source" v="RAFVG"/></node><node id="-358" version="1" lat="45.887458" lon="13.292678"><tag k="operator" v="Wind-Tre"/><tag k="communication:mobile_phone" v="yes"/><tag k="start_date" v="2019-10-18"/><tag k="man_made" v="mast"/><tag k="tower:type" v="communication"/><tag k="source" v="RAFVG"/></node><node id="-359" version="1" lat="46.061891" lon="13.246247"><tag k="operator" v="Wind-Tre"/><tag k="communication:mobile_phone" v="yes"/><tag k="start_date" v="2019-10-10"/><tag k="man_made" v="mast"/><tag k="tower:type" v="communication"/><tag k="source" v="RAFVG"/></node><node id="-360" version="1" lat="45.694879" lon="13.146878"><tag k="operator" v="Telecom Italia Mobile"/><tag k="communication:mobile_phone" v="yes"/><tag k="start_date" v="2019-05-15"/><tag k="man_made" v="mast"/><tag k="tower:type" v="communication"/><tag k="source" v="RAFVG"/></node><node id="-361" version="1" lat="46.048917" lon="13.250012"><tag k="operator" v="Wind-Tre"/><tag k="communication:mobile_phone" v="yes"/><tag k="start_date" v="2019-06-10"/><tag k="man_made" v="mast"/><tag k="tower:type" v="communication"/><tag k="source" v="RAFVG"/></node><node id="-362" version="1" lat="45.966959" lon="13.13871"><tag k="operator" v="Wind-Tre"/><tag k="communication:mobile_phone" v="yes"/><tag k="start_date" v="2019-12-16"/><tag k="man_made" v="mast"/><tag k="tower:type" v="communication"/><tag k="source" v="RAFVG"/></node><node id="-363" version="1" lat="46.088453" lon="13.183463"><tag k="operator" v="Wind-Tre"/><tag k="communication:mobile_phone" v="yes"/><tag k="start_date" v="2018-03-07"/><tag k="man_made" v="mast"/><tag k="tower:type" v="communication"/><tag k="source" v="RAFVG"/></node><node id="-364" version="1" lat="46.083086" lon="13.199301"><tag k="operator" v="Wind-Tre"/><tag k="communication:mobile_phone" v="yes"/><tag k="start_date" v="2019-08-02"/><tag k="man_made" v="mast"/><tag k="tower:type" v="communication"/><tag k="source" v="RAFVG"/></node><node id="-365" version="1" lat="45.928516" lon="13.153619"><tag k="operator" v="Wind-Tre"/><tag k="communication:mobile_phone" v="yes"/><tag k="start_date" v="2019-08-30"/><tag k="man_made" v="mast"/><tag k="tower:type" v="communication"/><tag k="source" v="RAFVG"/></node><node id="-366" version="1" lat="46.415339" lon="12.801019"><tag k="operator" v="Vodafone Omnitel"/><tag k="communication:mobile_phone" v="yes"/><tag k="start_date" v="2020-04-10"/><tag k="man_made" v="mast"/><tag k="tower:type" v="communication"/><tag k="source" v="RAFVG"/></node><node id="-367" version="1" lat="46.053403" lon="13.256582"><tag k="operator" v="Wind-Tre"/><tag k="communication:mobile_phone" v="yes"/><tag k="start_date" v="2019-06-14"/><tag k="man_made" v="mast"/><tag k="tower:type" v="communication"/><tag k="source" v="RAFVG"/></node><node id="-368" version="1" lat="46.018597" lon="13.227488"><tag k="operator" v="Wind-Tre"/><tag k="communication:mobile_phone" v="yes"/><tag k="start_date" v="2019-09-02"/><tag k="man_made" v="mast"/><tag k="tower:type" v="communication"/><tag k="source" v="RAFVG"/></node><node id="-369" version="1" lat="46.06749" lon="13.240219"><tag k="operator" v="Wind-Tre"/><tag k="communication:mobile_phone" v="yes"/><tag k="start_date" v="2019-08-13"/><tag k="man_made" v="mast"/><tag k="tower:type" v="communication"/><tag k="source" v="RAFVG"/></node><node id="-370" version="1" lat="46.088989" lon="13.183254"><tag k="operator" v="Telecom Italia Mobile"/><tag k="communication:mobile_phone" v="yes"/><tag k="start_date" v="2019-11-06"/><tag k="man_made" v="mast"/><tag k="tower:type" v="communication"/><tag k="source" v="RAFVG"/></node><node id="-371" version="1" lat="46.072862" lon="13.225755"><tag k="operator" v="Wind-Tre"/><tag k="communication:mobile_phone" v="yes"/><tag k="start_date" v="2019-08-13"/><tag k="man_made" v="mast"/><tag k="tower:type" v="communication"/><tag k="source" v="RAFVG"/></node><node id="-372" version="1" lat="46.098693" lon="13.213633"><tag k="operator" v="Wind-Tre"/><tag k="communication:mobile_phone" v="yes"/><tag k="start_date" v="2019-09-24"/><tag k="man_made" v="mast"/><tag k="tower:type" v="communication"/><tag k="source" v="RAFVG"/></node><node id="-373" version="1" lat="46.161358" lon="13.164692"><tag k="operator" v="Wind-Tre"/><tag k="communication:mobile_phone" v="yes"/><tag k="start_date" v="2019-05-02"/><tag k="man_made" v="mast"/><tag k="tower:type" v="communication"/><tag k="source" v="RAFVG"/></node><node id="-374" version="1" lat="45.862685" lon="13.322548"><tag k="operator" v="Telecom Italia Mobile"/><tag k="communication:mobile_phone" v="yes"/><tag k="start_date" v="2019-12-03"/><tag k="man_made" v="mast"/><tag k="tower:type" v="communication"/><tag k="source" v="RAFVG"/></node><node id="-375" version="1" lat="46.015469" lon="13.263334"><tag k="operator" v="Wind-Tre"/><tag k="communication:mobile_phone" v="yes"/><tag k="start_date" v="2019-06-10"/><tag k="man_made" v="mast"/><tag k="tower:type" v="communication"/><tag k="source" v="RAFVG"/></node><node id="-376" version="1" lat="46.062695" lon="13.234071"><tag k="operator" v="Wind-Tre"/><tag k="communication:mobile_phone" v="yes"/><tag k="start_date" v="2019-10-10"/><tag k="man_made" v="mast"/><tag k="tower:type" v="communication"/><tag k="source" v="RAFVG"/></node><node id="-377" version="1" lat="46.0566" lon="13.237264"><tag k="operator" v="Wind-Tre"/><tag k="communication:mobile_phone" v="yes"/><tag k="start_date" v="2019-09-30"/><tag k="man_made" v="mast"/><tag k="tower:type" v="communication"/><tag k="source" v="RAFVG"/></node><node id="-378" version="1" lat="45.990306" lon="13.438909"><tag k="operator" v="Wind-Tre"/><tag k="communication:mobile_phone" v="yes"/><tag k="start_date" v="2019-09-04"/><tag k="man_made" v="mast"/><tag k="tower:type" v="communication"/><tag k="source" v="RAFVG"/></node><node id="-379" version="1" lat="45.788507" lon="13.407821"><tag k="operator" v="Wind-Tre"/><tag k="communication:mobile_phone" v="yes"/><tag k="start_date" v="2019-08-22"/><tag k="man_made" v="mast"/><tag k="tower:type" v="communication"/><tag k="source" v="RAFVG"/></node><node id="-380" version="1" lat="45.860568" lon="13.312623"><tag k="operator" v="Wind-Tre"/><tag k="communication:mobile_phone" v="yes"/><tag k="start_date" v="2019-09-24"/><tag k="man_made" v="mast"/><tag k="tower:type" v="communication"/><tag k="source" v="RAFVG"/></node><node id="-381" version="1" lat="46.072081" lon="13.192533"><tag k="operator" v="Wind-Tre"/><tag k="communication:mobile_phone" v="yes"/><tag k="start_date" v="2019-09-25"/><tag k="man_made" v="mast"/><tag k="tower:type" v="communication"/><tag k="source" v="RAFVG"/></node><node id="-382" version="1" lat="46.112983" lon="13.242002"><tag k="operator" v="Wind-Tre"/><tag k="communication:mobile_phone" v="yes"/><tag k="start_date" v="2019-11-18"/><tag k="man_made" v="mast"/><tag k="tower:type" v="communication"/><tag k="source" v="RAFVG"/></node><node id="-383" version="1" lat="46.073528" lon="13.206725"><tag k="operator" v="Wind-Tre"/><tag k="communication:mobile_phone" v="yes"/><tag k="start_date" v="2019-10-11"/><tag k="man_made" v="mast"/><tag k="tower:type" v="communication"/><tag k="source" v="RAFVG"/></node><node id="-384" version="1" lat="45.928472" lon="13.277203"><tag k="operator" v="Wind-Tre"/><tag k="communication:mobile_phone" v="yes"/><tag k="start_date" v="2019-09-11"/><tag k="man_made" v="mast"/><tag k="tower:type" v="communication"/><tag k="source" v="RAFVG"/></node><node id="-385" version="1" lat="46.054644" lon="13.229229"><tag k="operator" v="Wind-Tre"/><tag k="communication:mobile_phone" v="yes"/><tag k="start_date" v="2019-10-09"/><tag k="man_made" v="mast"/><tag k="tower:type" v="communication"/><tag k="source" v="RAFVG"/></node><node id="-386" version="1" lat="45.959164" lon="13.419544"><tag k="operator" v="Wind-Tre"/><tag k="communication:mobile_phone" v="yes"/><tag k="start_date" v="2020-04-23"/><tag k="man_made" v="mast"/><tag k="tower:type" v="communication"/><tag k="source" v="RAFVG"/></node><node id="-387" version="1" lat="45.791062" lon="13.076531"><tag k="operator" v="Wind-Tre"/><tag k="communication:mobile_phone" v="yes"/><tag k="start_date" v="2020-01-29"/><tag k="man_made" v="mast"/><tag k="tower:type" v="communication"/><tag k="source" v="RAFVG"/></node><node id="-388" version="1" lat="46.075826" lon="13.229172"><tag k="operator" v="Wind-Tre"/><tag k="communication:mobile_phone" v="yes"/><tag k="start_date" v="2019-10-17"/><tag k="man_made" v="mast"/><tag k="tower:type" v="communication"/><tag k="source" v="RAFVG"/></node><node id="-389" version="1" lat="45.764029" lon="13.368922"><tag k="operator" v="Wind-Tre"/><tag k="communication:mobile_phone" v="yes"/><tag k="start_date" v="2019-09-02"/><tag k="man_made" v="mast"/><tag k="tower:type" v="communication"/><tag k="source" v="RAFVG"/></node><node id="-390" version="1" lat="46.440213" lon="13.309098"><tag k="operator" v="Wind-Tre"/><tag k="communication:mobile_phone" v="yes"/><tag k="start_date" v="2020-04-23"/><tag k="man_made" v="mast"/><tag k="tower:type" v="communication"/><tag k="source" v="RAFVG"/></node><node id="-391" version="1" lat="45.685258" lon="13.131965"><tag k="operator" v="Wind-Tre"/><tag k="communication:mobile_phone" v="yes"/><tag k="start_date" v="2019-05-15"/><tag k="man_made" v="mast"/><tag k="tower:type" v="communication"/><tag k="source" v="RAFVG"/></node><node id="-392" version="1" lat="45.874274" lon="13.352338"><tag k="operator" v="Wind-Tre"/><tag k="communication:mobile_phone" v="yes"/><tag k="start_date" v="2020-04-17"/><tag k="man_made" v="mast"/><tag k="tower:type" v="communication"/><tag k="source" v="RAFVG"/></node><node id="-393" version="1" lat="46.035294" lon="13.298669"><tag k="operator" v="Wind-Tre"/><tag k="communication:mobile_phone" v="yes"/><tag k="start_date" v="2020-04-17"/><tag k="man_made" v="mast"/><tag k="tower:type" v="communication"/><tag k="source" v="RAFVG"/></node><node id="-394" version="1" lat="45.798302" lon="13.338206"><tag k="operator" v="Wind-Tre"/><tag k="communication:mobile_phone" v="yes"/><tag k="start_date" v="2020-04-17"/><tag k="man_made" v="mast"/><tag k="tower:type" v="communication"/><tag k="source" v="RAFVG"/></node><node id="-395" version="1" lat="46.01137" lon="13.11957"><tag k="operator" v="Wind-Tre"/><tag k="communication:mobile_phone" v="yes"/><tag k="start_date" v="2020-04-17"/><tag k="man_made" v="mast"/><tag k="tower:type" v="communication"/><tag k="source" v="RAFVG"/></node><node id="-396" version="1" lat="46.13374" lon="12.969861"><tag k="operator" v="Telecom Italia Mobile"/><tag k="communication:mobile_phone" v="yes"/><tag k="start_date" v="2020-08-12"/><tag k="man_made" v="mast"/><tag k="tower:type" v="communication"/><tag k="source" v="RAFVG"/></node><node id="-397" version="1" lat="45.880333" lon="13.369212"><tag k="operator" v="Wind-Tre"/><tag k="communication:mobile_phone" v="yes"/><tag k="start_date" v="2020-04-17"/><tag k="man_made" v="mast"/><tag k="tower:type" v="communication"/><tag k="source" v="RAFVG"/></node><node id="-398" version="1" lat="45.989041" lon="13.387388"><tag k="operator" v="Wind-Tre"/><tag k="communication:mobile_phone" v="yes"/><tag k="start_date" v="2020-04-27"/><tag k="man_made" v="mast"/><tag k="tower:type" v="communication"/><tag k="source" v="RAFVG"/></node><node id="-399" version="1" lat="45.989519" lon="13.290582"><tag k="operator" v="Wind-Tre"/><tag k="communication:mobile_phone" v="yes"/><tag k="start_date" v="2018-03-26"/><tag k="man_made" v="mast"/><tag k="tower:type" v="communication"/><tag k="source" v="RAFVG"/></node><node id="-400" version="1" lat="45.830435" lon="13.19496"><tag k="operator" v="Wind-Tre"/><tag k="communication:mobile_phone" v="yes"/><tag k="start_date" v="2020-02-04"/><tag k="man_made" v="mast"/><tag k="tower:type" v="communication"/><tag k="source" v="RAFVG"/></node><node id="-401" version="1" lat="45.794796" lon="13.227773"><tag k="operator" v="Wind-Tre"/><tag k="communication:mobile_phone" v="yes"/><tag k="start_date" v="2020-02-12"/><tag k="man_made" v="mast"/><tag k="tower:type" v="communication"/><tag k="source" v="RAFVG"/></node><node id="-402" version="1" lat="45.935293" lon="13.114585"><tag k="operator" v="Wind-Tre"/><tag k="communication:mobile_phone" v="yes"/><tag k="start_date" v="2020-04-27"/><tag k="man_made" v="mast"/><tag k="tower:type" v="communication"/><tag k="source" v="RAFVG"/></node><node id="-403" version="1" lat="46.068894" lon="13.239654"><tag k="man_made" v="mast"/><tag k="tower:type" v="communication"/><tag k="communication:mobile_phone" v="yes"/><tag k="start_date" v="2018-12-04"/><tag k="source" v="RAFVG"/></node><node id="-404" version="1" lat="45.95113" lon="13.220596"><tag k="operator" v="Wind-Tre"/><tag k="communication:mobile_phone" v="yes"/><tag k="start_date" v="2019-09-11"/><tag k="man_made" v="mast"/><tag k="tower:type" v="communication"/><tag k="source" v="RAFVG"/></node><node id="-405" version="1" lat="46.101802" lon="13.226927"><tag k="operator" v="Wind-Tre"/><tag k="communication:mobile_phone" v="yes"/><tag k="start_date" v="2019-08-13"/><tag k="man_made" v="mast"/><tag k="tower:type" v="communication"/><tag k="source" v="RAFVG"/></node><node id="-406" version="1" lat="45.958935" lon="12.989354"><tag k="operator" v="Telecom Italia Mobile"/><tag k="communication:mobile_phone" v="yes"/><tag k="start_date" v="2019-09-04"/><tag k="man_made" v="mast"/><tag k="tower:type" v="communication"/><tag k="source" v="RAFVG"/></node><node id="-407" version="1" lat="45.989147" lon="13.362079"><tag k="operator" v="Wind-Tre"/><tag k="communication:mobile_phone" v="yes"/><tag k="start_date" v="2020-04-28"/><tag k="man_made" v="mast"/><tag k="tower:type" v="communication"/><tag k="source" v="RAFVG"/></node><node id="-408" version="1" lat="46.499724" lon="12.847559"><tag k="operator" v="Telecom Italia Mobile"/><tag k="communication:mobile_phone" v="yes"/><tag k="start_date" v="2020-02-04"/><tag k="man_made" v="mast"/><tag k="tower:type" v="communication"/><tag k="source" v="RAFVG"/></node><node id="-409" version="1" lat="45.943846" lon="13.172609"><tag k="operator" v="Telecom Italia Mobile"/><tag k="communication:mobile_phone" v="yes"/><tag k="start_date" v="2019-04-04"/><tag k="man_made" v="mast"/><tag k="tower:type" v="communication"/><tag k="source" v="RAFVG"/></node><node id="-410" version="1" lat="46.126382" lon="13.188321"><tag k="operator" v="Telecom Italia Mobile"/><tag k="communication:mobile_phone" v="yes"/><tag k="start_date" v="2020-04-27"/><tag k="man_made" v="mast"/><tag k="tower:type" v="communication"/><tag k="source" v="RAFVG"/></node><node id="-411" version="1" lat="45.928936" lon="13.395478"><tag k="operator" v="Wind-Tre"/><tag k="communication:mobile_phone" v="yes"/><tag k="start_date" v="2020-04-27"/><tag k="man_made" v="mast"/><tag k="tower:type" v="communication"/><tag k="source" v="RAFVG"/></node><node id="-412" version="1" lat="46.163281" lon="13.204135"><tag k="operator" v="Wind-Tre"/><tag k="communication:mobile_phone" v="yes"/><tag k="start_date" v="2020-04-28"/><tag k="man_made" v="mast"/><tag k="tower:type" v="communication"/><tag k="source" v="RAFVG"/></node><node id="-413" version="1" lat="46.510913" lon="13.335243"><tag k="operator" v="Wind-Tre"/><tag k="communication:mobile_phone" v="yes"/><tag k="start_date" v="2020-04-28"/><tag k="man_made" v="mast"/><tag k="tower:type" v="communication"/><tag k="source" v="RAFVG"/></node><node id="-414" version="1" lat="46.018748" lon="13.208055"><tag k="operator" v="Wind-Tre"/><tag k="communication:mobile_phone" v="yes"/><tag k="start_date" v="2020-04-28"/><tag k="man_made" v="mast"/><tag k="tower:type" v="communication"/><tag k="source" v="RAFVG"/></node><node id="-415" version="1" lat="46.021107" lon="13.103576"><tag k="operator" v="Wind-Tre"/><tag k="communication:mobile_phone" v="yes"/><tag k="start_date" v="2020-04-27"/><tag k="man_made" v="mast"/><tag k="tower:type" v="communication"/><tag k="source" v="RAFVG"/></node><node id="-416" version="1" lat="46.505024" lon="13.579485"><tag k="operator" v="Wind-Tre"/><tag k="fixme" v="check position"/><tag k="communication:mobile_phone" v="yes"/><tag k="start_date" v="2020-04-27"/><tag k="man_made" v="mast"/><tag k="tower:type" v="communication"/><tag k="source" v="RAFVG"/></node><node id="-417" version="1" lat="45.953345" lon="13.180279"><tag k="operator" v="Wind-Tre"/><tag k="communication:mobile_phone" v="yes"/><tag k="start_date" v="2020-04-27"/><tag k="man_made" v="mast"/><tag k="tower:type" v="communication"/><tag k="source" v="RAFVG"/></node><node id="-418" version="1" lat="46.385715" lon="13.135509"><tag k="operator" v="Telecom Italia Mobile"/><tag k="communication:mobile_phone" v="yes"/><tag k="start_date" v="2020-04-27"/><tag k="man_made" v="mast"/><tag k="tower:type" v="communication"/><tag k="source" v="RAFVG"/></node><node id="-419" version="1" lat="45.953177" lon="13.266992"><tag k="operator" v="Wind-Tre"/><tag k="fixme" v="spostare sul serbatoio"/><tag k="communication:mobile_phone" v="yes"/><tag k="start_date" v="2020-04-27"/><tag k="man_made" v="mast"/><tag k="tower:type" v="communication"/><tag k="source" v="RAFVG"/></node><node id="-420" version="1" lat="46.579699" lon="12.808386"><tag k="operator" v="Wind-Tre"/><tag k="communication:mobile_phone" v="yes"/><tag k="start_date" v="2020-04-27"/><tag k="man_made" v="mast"/><tag k="tower:type" v="communication"/><tag k="source" v="RAFVG"/></node><node id="-421" version="1" lat="46.021171" lon="13.320872"><tag k="operator" v="Wind-Tre"/><tag k="communication:mobile_phone" v="yes"/><tag k="start_date" v="2020-05-07"/><tag k="man_made" v="mast"/><tag k="tower:type" v="communication"/><tag k="source" v="RAFVG"/></node><node id="-422" version="1" lat="46.097221" lon="13.132807"><tag k="operator" v="Wind-Tre"/><tag k="communication:mobile_phone" v="yes"/><tag k="start_date" v="2020-05-04"/><tag k="man_made" v="mast"/><tag k="tower:type" v="communication"/><tag k="source" v="RAFVG"/></node><node id="-423" version="1" lat="45.84259" lon="13.138594"><tag k="operator" v="Wind-Tre"/><tag k="communication:mobile_phone" v="yes"/><tag k="start_date" v="2020-05-04"/><tag k="man_made" v="mast"/><tag k="tower:type" v="communication"/><tag k="source" v="RAFVG"/></node><node id="-424" version="1" lat="45.807758" lon="13.084904"><tag k="operator" v="Vodafone Omnitel"/><tag k="communication:mobile_phone" v="yes"/><tag k="start_date" v="2020-03-23"/><tag k="man_made" v="mast"/><tag k="tower:type" v="communication"/><tag k="source" v="RAFVG"/></node><node id="-425" version="1" lat="46.585186" lon="12.777035"><tag k="operator" v="Telecom Italia Mobile"/><tag k="communication:mobile_phone" v="yes"/><tag k="start_date" v="2020-05-04"/><tag k="man_made" v="mast"/><tag k="tower:type" v="communication"/><tag k="source" v="RAFVG"/></node><node id="-426" version="1" lat="46.405819" lon="13.015622"><tag k="operator" v="Telecom Italia Mobile"/><tag k="communication:mobile_phone" v="yes"/><tag k="start_date" v="2019-04-11"/><tag k="man_made" v="mast"/><tag k="tower:type" v="communication"/><tag k="source" v="RAFVG"/></node><node id="-427" version="1" lat="45.943796" lon="13.057702"><tag k="operator" v="Telecom Italia Mobile"/><tag k="communication:mobile_phone" v="yes"/><tag k="start_date" v="2020-05-15"/><tag k="man_made" v="mast"/><tag k="tower:type" v="communication"/><tag k="source" v="RAFVG"/></node><node id="-428" version="1" lat="46.556464" lon="12.720146"><tag k="operator" v="Wind-Tre"/><tag k="communication:mobile_phone" v="yes"/><tag k="start_date" v="2020-04-27"/><tag k="man_made" v="mast"/><tag k="tower:type" v="communication"/><tag k="source" v="RAFVG"/></node><node id="-429" version="1" lat="46.506043" lon="13.595295"><tag k="operator" v="Wind-Tre"/><tag k="communication:mobile_phone" v="yes"/><tag k="start_date" v="2020-02-27"/><tag k="man_made" v="mast"/><tag k="tower:type" v="communication"/><tag k="source" v="RAFVG"/></node><node id="-430" version="1" lat="45.738267" lon="13.039467"><tag k="operator" v="Vodafone Omnitel"/><tag k="fixme" v="tower"/><tag k="communication:mobile_phone" v="yes"/><tag k="start_date" v="2020-05-29"/><tag k="man_made" v="mast"/><tag k="tower:type" v="communication"/><tag k="source" v="RAFVG"/></node><node id="-431" version="1" lat="45.98347" lon="13.312842"><tag k="operator" v="Wind-Tre"/><tag k="communication:mobile_phone" v="yes"/><tag k="start_date" v="2019-10-17"/><tag k="man_made" v="mast"/><tag k="tower:type" v="communication"/><tag k="source" v="RAFVG"/></node><node id="-432" version="1" lat="46.085239" lon="13.324425"><tag k="operator" v="Telecom Italia Mobile"/><tag k="communication:mobile_phone" v="yes"/><tag k="start_date" v="2020-07-08"/><tag k="man_made" v="mast"/><tag k="tower:type" v="communication"/><tag k="source" v="RAFVG"/></node><node id="-433" version="1" lat="45.817148" lon="12.996871"><tag k="operator" v="Wind-Tre"/><tag k="communication:mobile_phone" v="yes"/><tag k="start_date" v="2019-04-09"/><tag k="man_made" v="mast"/><tag k="tower:type" v="communication"/><tag k="source" v="RAFVG"/></node><node id="-434" version="1" lat="46.506549" lon="13.291535"><tag k="operator" v="Wind-Tre"/><tag k="communication:mobile_phone" v="yes"/><tag k="start_date" v="2017-10-26"/><tag k="man_made" v="mast"/><tag k="tower:type" v="communication"/><tag k="source" v="RAFVG"/></node><node id="-435" version="1" lat="46.069056" lon="13.245668"><tag k="operator" v="Wind-Tre"/><tag k="communication:mobile_phone" v="yes"/><tag k="start_date" v="2020-04-28"/><tag k="man_made" v="mast"/><tag k="tower:type" v="communication"/><tag k="source" v="RAFVG"/></node><node id="-436" version="1" lat="45.986804" lon="12.9338"><tag k="operator" v="Vodafone Omnitel"/><tag k="communication:mobile_phone" v="yes"/><tag k="start_date" v="2014-07-28"/><tag k="man_made" v="mast"/><tag k="tower:type" v="communication"/><tag k="source" v="RAFVG"/></node><node id="-437" version="1" lat="46.046705" lon="13.225116"><tag k="operator" v="Wind-Tre"/><tag k="communication:mobile_phone" v="yes"/><tag k="start_date" v="2019-09-30"/><tag k="man_made" v="mast"/><tag k="tower:type" v="communication"/><tag k="source" v="RAFVG"/></node><node id="-438" version="1" lat="45.6584007" lon="13.0957407"><tag k="operator" v="Vodafone Omnitel"/><tag k="communication:mobile_phone" v="yes"/><tag k="start_date" v="2019-07-24"/><tag k="man_made" v="mast"/><tag k="tower:type" v="communication"/><tag k="source" v="RAFVG"/></node><node id="-439" version="1" lat="46.089371" lon="13.141249"><tag k="operator" v="Wind-Tre"/><tag k="communication:mobile_phone" v="yes"/><tag k="start_date" v="2019-12-12"/><tag k="man_made" v="mast"/><tag k="tower:type" v="communication"/><tag k="source" v="RAFVG"/></node><node id="-440" version="1" lat="45.864314" lon="13.204893"><tag k="operator" v="Wind-Tre"/><tag k="communication:mobile_phone" v="yes"/><tag k="start_date" v="2020-04-27"/><tag k="man_made" v="mast"/><tag k="tower:type" v="communication"/><tag k="source" v="RAFVG"/></node><node id="-441" version="1" lat="45.685893" lon="13.137689"><tag k="operator" v="Wind-Tre"/><tag k="communication:mobile_phone" v="yes"/><tag k="start_date" v="2019-05-15"/><tag k="man_made" v="mast"/><tag k="tower:type" v="communication"/><tag k="source" v="RAFVG"/></node><node id="-442" version="1" lat="45.7979788" lon="13.406716"><tag k="operator" v="Iliad Italia"/><tag k="communication:mobile_phone" v="yes"/><tag k="start_date" v="2020-04-28"/><tag k="man_made" v="mast"/><tag k="tower:type" v="communication"/><tag k="source" v="RAFVG"/></node><node id="-443" version="1" lat="45.660376" lon="13.10061"><tag k="operator" v="Wind-Tre"/><tag k="communication:mobile_phone" v="yes"/><tag k="start_date" v="2019-06-05"/><tag k="man_made" v="mast"/><tag k="tower:type" v="communication"/><tag k="source" v="RAFVG"/></node><node id="-444" version="1" lat="45.679336" lon="13.121807"><tag k="operator" v="Wind-Tre"/><tag k="communication:mobile_phone" v="yes"/><tag k="start_date" v="2019-07-23"/><tag k="man_made" v="mast"/><tag k="tower:type" v="communication"/><tag k="source" v="RAFVG"/></node><node id="-445" version="1" lat="46.073119" lon="13.252406"><tag k="operator" v="Wind-Tre"/><tag k="communication:mobile_phone" v="yes"/><tag k="start_date" v="2019-12-09"/><tag k="man_made" v="mast"/><tag k="tower:type" v="communication"/><tag k="source" v="RAFVG"/></node><node id="-446" version="1" lat="46.404662" lon="13.370662"><tag k="operator" v="Wind-Tre"/><tag k="communication:mobile_phone" v="yes"/><tag k="start_date" v="2020-03-23"/><tag k="man_made" v="mast"/><tag k="tower:type" v="communication"/><tag k="source" v="RAFVG"/></node><node id="-447" version="1" lat="45.828215" lon="13.207342"><tag k="operator" v="Wind-Tre"/><tag k="communication:mobile_phone" v="yes"/><tag k="start_date" v="2020-05-08"/><tag k="man_made" v="mast"/><tag k="tower:type" v="communication"/><tag k="source" v="RAFVG"/></node><node id="-448" version="1" lat="46.192491" lon="13.203489"><tag k="operator" v="Wind-Tre"/><tag k="communication:mobile_phone" v="yes"/><tag k="start_date" v="2020-04-03"/><tag k="man_made" v="mast"/><tag k="tower:type" v="communication"/><tag k="source" v="RAFVG"/></node><node id="-449" version="1" lat="45.906283" lon="13.313181"><tag k="operator" v="Wind-Tre"/><tag k="communication:mobile_phone" v="yes"/><tag k="start_date" v="2020-03-31"/><tag k="man_made" v="mast"/><tag k="tower:type" v="communication"/><tag k="source" v="RAFVG"/></node><node id="-450" version="1" lat="46.069625" lon="13.22271"><tag k="operator" v="Wind-Tre"/><tag k="communication:mobile_phone" v="yes"/><tag k="start_date" v="2020-03-31"/><tag k="man_made" v="mast"/><tag k="tower:type" v="communication"/><tag k="source" v="RAFVG"/></node><node id="-451" version="1" lat="46.144542" lon="12.977674"><tag k="operator" v="Wind-Tre"/><tag k="communication:mobile_phone" v="yes"/><tag k="start_date" v="2019-04-24"/><tag k="man_made" v="mast"/><tag k="tower:type" v="communication"/><tag k="source" v="RAFVG"/></node><node id="-452" version="1" lat="46.151043" lon="12.998294"><tag k="operator" v="Telecom Italia Mobile"/><tag k="communication:mobile_phone" v="yes"/><tag k="start_date" v="2019-10-17"/><tag k="man_made" v="mast"/><tag k="tower:type" v="communication"/><tag k="source" v="RAFVG"/></node><node id="-453" version="1" lat="45.869437" lon="13.383585"><tag k="operator" v="Telecom Italia Mobile"/><tag k="fixme" v="tower"/><tag k="communication:mobile_phone" v="yes"/><tag k="start_date" v="2020-05-07"/><tag k="man_made" v="mast"/><tag k="tower:type" v="communication"/><tag k="source" v="RAFVG"/></node><node id="-454" version="1" lat="46.169845" lon="12.981165"><tag k="operator" v="Wind-Tre"/><tag k="communication:mobile_phone" v="yes"/><tag k="start_date" v="2019-03-19"/><tag k="man_made" v="mast"/><tag k="tower:type" v="communication"/><tag k="source" v="RAFVG"/></node><node id="-455" version="1" lat="46.091661" lon="13.263634"><tag k="operator" v="Wind-Tre"/><tag k="communication:mobile_phone" v="yes"/><tag k="start_date" v="2020-05-26"/><tag k="man_made" v="mast"/><tag k="tower:type" v="communication"/><tag k="source" v="RAFVG"/></node><node id="-456" version="1" lat="45.90137" lon="13.232966"><tag k="operator" v="Wind-Tre"/><tag k="communication:mobile_phone" v="yes"/><tag k="start_date" v="2020-03-19"/><tag k="man_made" v="mast"/><tag k="tower:type" v="communication"/><tag k="source" v="RAFVG"/></node><node id="-457" version="1" lat="46.082649" lon="13.213302"><tag k="operator" v="Telecom Italia Mobile"/><tag k="communication:mobile_phone" v="yes"/><tag k="start_date" v="2012-09-27"/><tag k="man_made" v="mast"/><tag k="tower:type" v="communication"/><tag k="source" v="RAFVG"/></node><node id="-458" version="1" lat="46.386878" lon="13.249098"><tag k="operator" v="Wind-Tre"/><tag k="communication:mobile_phone" v="yes"/><tag k="start_date" v="2019-03-11"/><tag k="man_made" v="mast"/><tag k="tower:type" v="communication"/><tag k="source" v="RAFVG"/></node><node id="-459" version="1" lat="46.241357" lon="12.992789"><tag k="operator" v="Telecom Italia Mobile"/><tag k="communication:mobile_phone" v="yes"/><tag k="start_date" v="2017-09-20"/><tag k="man_made" v="mast"/><tag k="tower:type" v="communication"/><tag k="source" v="RAFVG"/></node><node id="-460" version="1" lat="45.889732" lon="13.308178"><tag k="operator" v="Telecom Italia Mobile"/><tag k="communication:mobile_phone" v="yes"/><tag k="start_date" v="2013-11-12"/><tag k="man_made" v="mast"/><tag k="tower:type" v="communication"/><tag k="source" v="RAFVG"/></node><node id="-461" version="1" lat="46.016248" lon="13.328571"><tag k="operator" v="Vodafone Omnitel"/><tag k="communication:mobile_phone" v="yes"/><tag k="start_date" v="2014-03-25"/><tag k="man_made" v="mast"/><tag k="tower:type" v="communication"/><tag k="source" v="RAFVG"/></node><node id="-462" version="1" lat="46.312258" lon="13.110191"><tag k="operator" v="Telecom Italia Mobile"/><tag k="communication:mobile_phone" v="yes"/><tag k="start_date" v="2014-02-27"/><tag k="man_made" v="mast"/><tag k="tower:type" v="communication"/><tag k="source" v="RAFVG"/></node><node id="-463" version="1" lat="46.396985" lon="13.026382"><tag k="operator" v="Telecom Italia Mobile"/><tag k="communication:mobile_phone" v="yes"/><tag k="start_date" v="2014-04-03"/><tag k="man_made" v="mast"/><tag k="tower:type" v="communication"/><tag k="source" v="RAFVG"/></node><node id="-464" version="1" lat="46.385366" lon="12.975568"><tag k="operator" v="Telecom Italia Mobile"/><tag k="fixme" v="unire"/><tag k="communication:mobile_phone" v="yes"/><tag k="start_date" v="2018-11-05"/><tag k="man_made" v="mast"/><tag k="tower:type" v="communication"/><tag k="source" v="RAFVG"/></node><node id="-465" version="1" lat="46.105241" lon="13.486806"><tag k="operator" v="Wind-Tre"/><tag k="communication:mobile_phone" v="yes"/><tag k="start_date" v="2017-05-09"/><tag k="man_made" v="mast"/><tag k="tower:type" v="communication"/><tag k="source" v="RAFVG"/></node><node id="-466" version="1" lat="45.900131" lon="13.328536"><tag k="operator" v="Vodafone Omnitel"/><tag k="communication:mobile_phone" v="yes"/><tag k="start_date" v="2008-03-31"/><tag k="man_made" v="mast"/><tag k="tower:type" v="communication"/><tag k="source" v="RAFVG"/></node><node id="-467" version="1" lat="46.155379" lon="13.222248"><tag k="operator" v="Telecom Italia Mobile"/><tag k="communication:mobile_phone" v="yes"/><tag k="start_date" v="2013-05-31"/><tag k="man_made" v="mast"/><tag k="tower:type" v="communication"/><tag k="source" v="RAFVG"/></node><node id="-468" version="1" lat="46.016077" lon="12.972357"><tag k="operator" v="Telecom Italia Mobile"/><tag k="communication:mobile_phone" v="yes"/><tag k="start_date" v="2013-09-17"/><tag k="man_made" v="mast"/><tag k="tower:type" v="communication"/><tag k="source" v="RAFVG"/></node><node id="-469" version="1" lat="46.241804" lon="13.155861"><tag k="operator" v="Vodafone Omnitel"/><tag k="communication:mobile_phone" v="yes"/><tag k="start_date" v="2014-12-09"/><tag k="man_made" v="mast"/><tag k="tower:type" v="communication"/><tag k="source" v="RAFVG"/></node><node id="-470" version="1" lat="46.504901" lon="13.594718"><tag k="operator" v="Vodafone Omnitel"/><tag k="communication:mobile_phone" v="yes"/><tag k="start_date" v="2015-03-25"/><tag k="man_made" v="mast"/><tag k="tower:type" v="communication"/><tag k="source" v="RAFVG"/></node><node id="-471" version="1" lat="46.158528" lon="13.009705"><tag k="operator" v="Wind-Tre"/><tag k="communication:mobile_phone" v="yes"/><tag k="start_date" v="2016-05-12"/><tag k="man_made" v="mast"/><tag k="tower:type" v="communication"/><tag k="source" v="RAFVG"/></node><node id="-472" version="1" lat="46.05343" lon="13.149905"><tag k="operator" v="Vodafone Omnitel"/><tag k="communication:mobile_phone" v="yes"/><tag k="start_date" v="2014-04-23"/><tag k="man_made" v="mast"/><tag k="tower:type" v="communication"/><tag k="source" v="RAFVG"/></node><node id="-473" version="1" lat="45.912496" lon="13.319398"><tag k="operator" v="Telecom Italia Mobile"/><tag k="communication:mobile_phone" v="yes"/><tag k="start_date" v="2014-04-22"/><tag k="man_made" v="mast"/><tag k="tower:type" v="communication"/><tag k="source" v="RAFVG"/></node><node id="-474" version="1" lat="46.186084" lon="13.299915"><tag k="operator" v="Wind-Tre"/><tag k="communication:mobile_phone" v="yes"/><tag k="start_date" v="2019-03-22"/><tag k="man_made" v="mast"/><tag k="tower:type" v="communication"/><tag k="source" v="RAFVG"/></node><node id="-475" version="1" lat="45.816534" lon="13.142075"><tag k="operator" v="Telecom Italia Mobile"/><tag k="communication:mobile_phone" v="yes"/><tag k="start_date" v="2014-04-03"/><tag k="man_made" v="mast"/><tag k="tower:type" v="communication"/><tag k="source" v="RAFVG"/></node><node id="-476" version="1" lat="46.507851" lon="13.306614"><tag k="man_made" v="mast"/><tag k="tower:type" v="communication"/><tag k="communication:mobile_phone" v="yes"/><tag k="start_date" v="2004-08-11"/><tag k="source" v="RAFVG"/></node><node id="-477" version="1" lat="46.498211" lon="13.29912"><tag k="man_made" v="mast"/><tag k="tower:type" v="communication"/><tag k="communication:mobile_phone" v="yes"/><tag k="source" v="RAFVG"/></node><node id="-478" version="1" lat="46.025639" lon="13.161147"><tag k="man_made" v="mast"/><tag k="tower:type" v="communication"/><tag k="communication:mobile_phone" v="yes"/><tag k="start_date" v="2016-05-05"/><tag k="source" v="RAFVG"/></node><node id="-479" version="1" lat="46.158979" lon="13.234823"><tag k="man_made" v="mast"/><tag k="tower:type" v="communication"/><tag k="communication:mobile_phone" v="yes"/><tag k="start_date" v="2003-07-15"/><tag k="source" v="RAFVG"/></node><node id="-480" version="1" lat="45.997321" lon="13.268435"><tag k="operator" v="Vodafone Omnitel"/><tag k="communication:mobile_phone" v="yes"/><tag k="start_date" v="2014-10-30"/><tag k="man_made" v="mast"/><tag k="tower:type" v="communication"/><tag k="source" v="RAFVG"/></node><node id="-481" version="1" lat="45.927997" lon="13.277722"><tag k="operator" v="Telecom Italia Mobile"/><tag k="fixme" v="unire"/><tag k="communication:mobile_phone" v="yes"/><tag k="start_date" v="2014-03-18"/><tag k="man_made" v="mast"/><tag k="tower:type" v="communication"/><tag k="source" v="RAFVG"/></node><node id="-482" version="1" lat="46.061343" lon="13.241844"><tag k="operator" v="Telecom Italia Mobile"/><tag k="communication:mobile_phone" v="yes"/><tag k="start_date" v="2017-05-18"/><tag k="man_made" v="mast"/><tag k="tower:type" v="communication"/><tag k="source" v="RAFVG"/></node><node id="-483" version="1" lat="46.211879" lon="13.219788"><tag k="operator" v="Vodafone Omnitel"/><tag k="communication:mobile_phone" v="yes"/><tag k="start_date" v="2016-06-30"/><tag k="man_made" v="mast"/><tag k="tower:type" v="communication"/><tag k="source" v="RAFVG"/></node><node id="-484" version="1" lat="46.013271" lon="13.110504"><tag k="man_made" v="mast"/><tag k="tower:type" v="communication"/><tag k="communication:mobile_phone" v="yes"/><tag k="start_date" v="2005-05-24"/><tag k="source" v="RAFVG"/></node><node id="-485" version="1" lat="46.314613" lon="13.056966"><tag k="operator" v="Telecom Italia Mobile"/><tag k="communication:mobile_phone" v="yes"/><tag k="start_date" v="2014-04-16"/><tag k="man_made" v="mast"/><tag k="tower:type" v="communication"/><tag k="source" v="RAFVG"/></node><node id="-486" version="1" lat="46.279093" lon="13.140136"><tag k="operator" v="Telecom Italia Mobile"/><tag k="communication:mobile_phone" v="yes"/><tag k="start_date" v="2014-09-12"/><tag k="man_made" v="mast"/><tag k="tower:type" v="communication"/><tag k="source" v="RAFVG"/></node></osm>