<?xml version="1.0" encoding="UTF-8"?><osm version="0.6" generator="Overpass API 0.7.56.9 76e5016d">
<note>The data included in this document is from www.openstreetmap.org. The data is made available under ODbL.</note>
<meta osm_base="2021-04-12T12:10:42Z" areas="2021-04-12T11:14:56Z"/>

  <node id="1343284735" lat="45.9761242" lon="13.2425463" version="2" timestamp="2014-01-27T10:50:22Z" changeset="20226602" uid="361003" user="Cascafico">
    <tag k="communication:mobile_phone" v="yes"/>
    <tag k="man_made" v="mast"/>
    <tag k="operator" v="H3G"/>
    <tag k="tower:type" v="communication"/>
  </node>
  <node id="2332759148" lat="45.9784344" lon="13.4235614" version="2" timestamp="2014-10-17T13:55:42Z" changeset="26145155" uid="1730440" user="LB_Manzano">
    <tag k="communication:mobile_phone" v="yes"/>
    <tag k="man_made" v="mast"/>
    <tag k="tower:type" v="communication"/>
  </node>
  <node id="2577032412" lat="46.0457782" lon="13.4430933" version="3" timestamp="2014-12-05T11:14:25Z" changeset="27259748" uid="361003" user="Cascafico">
    <tag k="communication:mobile_phone" v="yes"/>
    <tag k="height" v="30"/>
    <tag k="man_made" v="tower"/>
    <tag k="operator" v="Wind"/>
    <tag k="ref:cellid" v="311"/>
    <tag k="ref:lac" v="25052"/>
    <tag k="ref:mcc" v="222"/>
    <tag k="ref:mnc" v="88"/>
    <tag k="tower:type" v="communication"/>
  </node>
  <node id="2582092573" lat="46.2768417" lon="13.2688577" version="2" timestamp="2014-02-19T11:16:28Z" changeset="20654062" uid="361003" user="Cascafico">
    <tag k="communication:mobile_phone" v="yes"/>
    <tag k="man_made" v="tower"/>
    <tag k="operator" v="Telecom;Wind"/>
    <tag k="tower:type" v="communication"/>
  </node>
  <node id="2615927979" lat="46.0870840" lon="13.3786522" version="1" timestamp="2014-01-09T08:17:44Z" changeset="19895847" uid="361003" user="Cascafico">
    <tag k="communication:mobile_phone" v="yes"/>
    <tag k="man_made" v="tower"/>
    <tag k="operator" v="Telecom;Omnitel;Wind"/>
    <tag k="tower:type" v="communication"/>
  </node>
  <node id="2639531110" lat="46.0134122" lon="13.2178746" version="1" timestamp="2014-01-27T11:06:22Z" changeset="20226812" uid="361003" user="Cascafico">
    <tag k="communication:mobile_phone" v="yes"/>
    <tag k="man_made" v="mast"/>
    <tag k="operator" v="Telecom;Omnitel"/>
    <tag k="tower:type" v="communication"/>
  </node>
  <node id="2639537609" lat="46.1117582" lon="13.2048804" version="2" timestamp="2015-12-11T12:36:38Z" changeset="35883731" uid="1345232" user="paolozamp">
    <tag k="communication:mobile_phone" v="yes"/>
    <tag k="height" v="30m"/>
    <tag k="man_made" v="tower"/>
    <tag k="operator" v="Wind;H3G"/>
    <tag k="tower:type" v="communication"/>
  </node>
  <node id="2639539224" lat="46.1089199" lon="13.2103887" version="3" timestamp="2018-03-12T22:06:35Z" changeset="57126099" uid="542047" user="dromedar61">
    <tag k="communication:mobile_phone" v="yes"/>
    <tag k="man_made" v="water_tower"/>
    <tag k="operator" v="Telecom;Omnitel"/>
    <tag k="tower:type" v="communication"/>
  </node>
  <node id="2667751710" lat="46.0385802" lon="13.3103098" version="2" timestamp="2014-02-12T09:29:06Z" changeset="20518806" uid="361003" user="Cascafico">
    <tag k="communication:mobile_phone" v="yes"/>
    <tag k="man_made" v="mast"/>
    <tag k="operator" v="Omnitel"/>
    <tag k="tower:type" v="communication"/>
  </node>
  <node id="2667751711" lat="46.0562911" lon="13.3873713" version="4" timestamp="2014-12-05T11:22:52Z" changeset="27259934" uid="361003" user="Cascafico">
    <tag k="communication:mobile_phone" v="yes"/>
    <tag k="man_made" v="tower"/>
    <tag k="operator" v="Wind"/>
    <tag k="ref:lac" v="24062"/>
    <tag k="ref:mcc" v="222"/>
    <tag k="ref:mnc" v="88"/>
    <tag k="tower:type" v="communication"/>
  </node>
  <node id="2667751712" lat="46.0834780" lon="13.3028530" version="2" timestamp="2014-02-12T09:31:40Z" changeset="20518836" uid="361003" user="Cascafico">
    <tag k="communication:mobile_phone" v="yes"/>
    <tag k="man_made" v="tower"/>
    <tag k="operator" v="Wind"/>
    <tag k="tower:type" v="communication"/>
  </node>
  <node id="2791452434" lat="46.0947952" lon="13.2312647" version="1" timestamp="2014-04-14T20:28:09Z" changeset="21695323" uid="421035" user="Mattia P">
    <tag k="communication:mobile_phone" v="yes"/>
    <tag k="man_made" v="mast"/>
    <tag k="tower:type" v="communication"/>
  </node>
  <node id="3055627506" lat="45.9842551" lon="13.3776583" version="2" timestamp="2014-09-04T13:32:21Z" changeset="25226661" uid="1730440" user="LB_Manzano">
    <tag k="communication:mobile_phone" v="yes"/>
    <tag k="man_made" v="mast"/>
    <tag k="tower:type" v="communication"/>
  </node>
  <node id="3135194857" lat="45.9909918" lon="13.4397904" version="2" timestamp="2014-11-13T07:51:36Z" changeset="26750683" uid="66391" user="geozeisig">
    <tag k="communication:mobile_phone" v="yes"/>
    <tag k="man_made" v="mast"/>
    <tag k="tower:type" v="communication"/>
  </node>
  <node id="3136627006" lat="46.0315360" lon="13.3935266" version="1" timestamp="2014-10-18T11:16:14Z" changeset="26168154" uid="1730440" user="LB_Manzano">
    <tag k="communication:mobile_phone" v="yes"/>
    <tag k="man_made" v="mast"/>
    <tag k="tower:type" v="communication"/>
  </node>
  <node id="3652453128" lat="46.1120778" lon="13.2236679" version="2" timestamp="2019-06-27T07:01:33Z" changeset="71660908" uid="361003" user="Cascafico">
    <tag k="communication:mobile_phone" v="yes"/>
    <tag k="man_made" v="mast"/>
    <tag k="operator" v="Wind-Tre"/>
    <tag k="ref" v="1755"/>
    <tag k="start_date" v="2006-02-20"/>
    <tag k="tower:type" v="communication"/>
  </node>
  <node id="4177309851" lat="46.0478370" lon="13.3831101" version="1" timestamp="2016-05-10T22:57:30Z" changeset="39230036" uid="1730440" user="LB_Manzano">
    <tag k="communication:mobile_phone" v="yes"/>
    <tag k="man_made" v="mast"/>
    <tag k="tower:type" v="communication"/>
  </node>
  <node id="4224321702" lat="45.9725365" lon="13.4022749" version="1" timestamp="2016-06-03T20:09:47Z" changeset="39787032" uid="1730440" user="LB_Manzano">
    <tag k="communication:mobile_phone" v="yes"/>
    <tag k="man_made" v="mast"/>
    <tag k="tower:type" v="communication"/>
  </node>
  <node id="4248319720" lat="46.0613080" lon="13.3933623" version="1" timestamp="2016-06-17T12:10:56Z" changeset="40092094" uid="1730440" user="LB_Manzano">
    <tag k="communication:mobile_phone" v="yes"/>
    <tag k="man_made" v="mast"/>
    <tag k="tower:type" v="communication"/>
  </node>
  <node id="4629894165" lat="45.9729108" lon="13.4047076" version="1" timestamp="2017-01-24T17:59:42Z" changeset="45443613" uid="1730440" user="LB_Manzano">
    <tag k="communication:mobile_phone" v="yes"/>
    <tag k="man_made" v="mast"/>
    <tag k="tower:type" v="communication"/>
  </node>
  <node id="4711699201" lat="46.3500700" lon="13.0703100" version="2" timestamp="2019-06-20T08:56:25Z" changeset="71434546" uid="361003" user="Cascafico">
    <tag k="communication:mobile_phone" v="yes"/>
    <tag k="communication:television" v="yes"/>
    <tag k="man_made" v="tower"/>
    <tag k="operator" v="Wind-Tre"/>
    <tag k="ref" v="1158"/>
    <tag k="start_date" v="2006-04-11"/>
    <tag k="tower:type" v="communication"/>
  </node>
  <node id="4711700207" lat="46.3533800" lon="13.0570100" version="2" timestamp="2019-06-20T08:56:21Z" changeset="71434543" uid="361003" user="Cascafico">
    <tag k="communication:mobile_phone" v="yes"/>
    <tag k="communication:television" v="yes"/>
    <tag k="man_made" v="tower"/>
    <tag k="operator" v="Wind-Tre"/>
    <tag k="ref" v="1140"/>
    <tag k="start_date" v="2014-05-19"/>
    <tag k="tower:type" v="communication"/>
  </node>
  <node id="4732781744" lat="46.5015600" lon="13.5717493" version="1" timestamp="2017-03-13T20:13:49Z" changeset="46822744" uid="2966" user="jenda">
    <tag k="communication:mobile_phone" v="yes"/>
    <tag k="man_made" v="tower"/>
    <tag k="tower:type" v="communication"/>
  </node>
  <node id="5064697313" lat="46.5692471" lon="12.7296998" version="3" timestamp="2017-09-10T15:04:18Z" changeset="51910492" uid="223093" user="geow">
    <tag k="communication:mobile_phone" v="yes"/>
    <tag k="communication:television" v="yes"/>
    <tag k="man_made" v="mast"/>
    <tag k="operator" v="Rai Way"/>
    <tag k="tower:construction" v="lattice"/>
    <tag k="tower:type" v="communication"/>
  </node>
  <node id="5844362332" lat="46.0626053" lon="13.2468647" version="1" timestamp="2018-08-20T17:16:21Z" changeset="61830433" uid="3821761" user="Gabriele Dri">
    <tag k="communication:mobile_phone" v="yes"/>
    <tag k="man_made" v="mast"/>
    <tag k="operator" v="TIM S.p.A."/>
    <tag k="tower:type" v="communication"/>
  </node>
  <node id="5881961540" lat="46.0760887" lon="13.2692742" version="1" timestamp="2018-09-04T14:17:10Z" changeset="62281413" uid="2360444" user="rikmede">
    <tag k="communication:mobile_phone" v="yes"/>
    <tag k="man_made" v="mast"/>
    <tag k="tower:type" v="communication"/>
  </node>
  <node id="6493325143" lat="45.6965758" lon="13.1510172" version="2" timestamp="2019-12-11T07:24:18Z" changeset="78244674" uid="110834" user="andreagott">
    <tag k="communication:mobile_phone" v="yes"/>
    <tag k="man_made" v="mast"/>
    <tag k="operator" v="Vodafone"/>
    <tag k="tower:construction" v="mast"/>
    <tag k="tower:type" v="communication"/>
  </node>
  <node id="6557035526" lat="46.0652300" lon="13.2448000" version="1" timestamp="2019-06-19T08:37:08Z" changeset="71392771" uid="361003" user="Cascafico">
    <tag k="communication:mobile_phone" v="yes"/>
    <tag k="man_made" v="tower"/>
    <tag k="operator" v="Iliad Italia"/>
    <tag k="ref" v="1864"/>
    <tag k="start_date" v="2019-02-19"/>
    <tag k="tower:type" v="communication"/>
  </node>
  <node id="6557037777" lat="46.0763750" lon="13.2493720" version="1" timestamp="2019-06-19T08:37:53Z" changeset="71392798" uid="361003" user="Cascafico">
    <tag k="communication:mobile_phone" v="yes"/>
    <tag k="man_made" v="tower"/>
    <tag k="operator" v="Iliad Italia"/>
    <tag k="ref" v="1917"/>
    <tag k="start_date" v="2018-11-06"/>
    <tag k="tower:type" v="communication"/>
  </node>
  <node id="6559888236" lat="46.4395100" lon="12.5645000" version="1" timestamp="2019-06-20T08:41:20Z" changeset="71433714" uid="361003" user="Cascafico">
    <tag k="communication:mobile_phone" v="yes"/>
    <tag k="man_made" v="tower"/>
    <tag k="operator" v="Wind-Tre"/>
    <tag k="ref" v="181"/>
    <tag k="start_date" v="2019-04-23"/>
    <tag k="tower:type" v="communication"/>
  </node>
  <node id="6559935584" lat="46.3961900" lon="13.0148400" version="1" timestamp="2019-06-20T08:48:26Z" changeset="71434102" uid="361003" user="Cascafico">
    <tag k="communication:mobile_phone" v="yes"/>
    <tag k="man_made" v="tower"/>
    <tag k="operator" v="Wind-Tre"/>
    <tag k="ref" v="1049"/>
    <tag k="start_date" v="2018-12-28"/>
    <tag k="tower:type" v="communication"/>
  </node>
  <node id="6559936678" lat="46.3976200" lon="12.7409600" version="1" timestamp="2019-06-20T08:46:05Z" changeset="71433980" uid="361003" user="Cascafico">
    <tag k="communication:mobile_phone" v="yes"/>
    <tag k="man_made" v="tower"/>
    <tag k="operator" v="Wind-Tre"/>
    <tag k="ref" v="567"/>
    <tag k="start_date" v="2019-03-20"/>
    <tag k="tower:type" v="communication"/>
  </node>
  <node id="6559944236" lat="46.4090800" lon="12.9157300" version="1" timestamp="2019-06-20T08:47:27Z" changeset="71434050" uid="361003" user="Cascafico">
    <tag k="communication:mobile_phone" v="yes"/>
    <tag k="man_made" v="tower"/>
    <tag k="operator" v="Wind-Tre"/>
    <tag k="ref" v="829"/>
    <tag k="start_date" v="2019-04-23"/>
    <tag k="tower:type" v="communication"/>
  </node>
  <node id="6559944237" lat="46.4346700" lon="12.8768500" version="1" timestamp="2019-06-20T08:47:27Z" changeset="71434050" uid="361003" user="Cascafico">
    <tag k="communication:mobile_phone" v="yes"/>
    <tag k="man_made" v="tower"/>
    <tag k="operator" v="Wind-Tre"/>
    <tag k="ref" v="799"/>
    <tag k="start_date" v="2017-05-09"/>
    <tag k="tower:type" v="communication"/>
  </node>
  <node id="6559951385" lat="46.3854900" lon="12.9755800" version="1" timestamp="2019-06-20T08:48:26Z" changeset="71434102" uid="361003" user="Cascafico">
    <tag k="communication:mobile_phone" v="yes"/>
    <tag k="man_made" v="tower"/>
    <tag k="operator" v="Wind-Tre"/>
    <tag k="ref" v="960"/>
    <tag k="start_date" v="2014-10-27"/>
    <tag k="tower:type" v="communication"/>
  </node>
  <node id="6559975168" lat="46.2793690" lon="13.1396540" version="1" timestamp="2019-06-20T09:00:35Z" changeset="71434773" uid="361003" user="Cascafico">
    <tag k="communication:mobile_phone" v="yes"/>
    <tag k="man_made" v="tower"/>
    <tag k="operator" v="Wind-Tre"/>
    <tag k="ref" v="1470"/>
    <tag k="start_date" v="2018-04-20"/>
    <tag k="tower:type" v="communication"/>
  </node>
  <node id="6559975169" lat="46.2775700" lon="13.0658300" version="1" timestamp="2019-06-20T09:00:35Z" changeset="71434773" uid="361003" user="Cascafico">
    <tag k="communication:mobile_phone" v="yes"/>
    <tag k="man_made" v="tower"/>
    <tag k="operator" v="Wind-Tre"/>
    <tag k="ref" v="1148"/>
    <tag k="start_date" v="2019-03-15"/>
    <tag k="tower:type" v="communication"/>
  </node>
  <node id="6559975170" lat="46.3143700" lon="13.0612700" version="1" timestamp="2019-06-20T09:00:35Z" changeset="71434773" uid="361003" user="Cascafico">
    <tag k="communication:mobile_phone" v="yes"/>
    <tag k="man_made" v="tower"/>
    <tag k="operator" v="Wind-Tre"/>
    <tag k="ref" v="1142"/>
    <tag k="start_date" v="2003-11-19"/>
    <tag k="tower:type" v="communication"/>
  </node>
  <node id="6559978601" lat="46.3722700" lon="13.0757500" version="1" timestamp="2019-06-20T08:56:30Z" changeset="71434553" uid="361003" user="Cascafico">
    <tag k="communication:mobile_phone" v="yes"/>
    <tag k="man_made" v="tower"/>
    <tag k="operator" v="Wind-Tre"/>
    <tag k="ref" v="1199"/>
    <tag k="start_date" v="2017-10-04"/>
    <tag k="tower:type" v="communication"/>
  </node>
  <node id="6572137867" lat="46.1877900" lon="13.1184000" version="1" timestamp="2019-06-26T09:54:07Z" changeset="71629583" uid="361003" user="Cascafico">
    <tag k="communication:mobile_phone" v="yes"/>
    <tag k="man_made" v="tower"/>
    <tag k="operator" v="Wind-Tre"/>
    <tag k="ref" v="1321"/>
    <tag k="start_date" v="2019-05-02"/>
    <tag k="tower:type" v="communication"/>
  </node>
  <node id="6572182158" lat="46.2160300" lon="13.1199700" version="1" timestamp="2019-06-26T09:54:50Z" changeset="71629646" uid="361003" user="Cascafico">
    <tag k="communication:mobile_phone" v="yes"/>
    <tag k="man_made" v="tower"/>
    <tag k="operator" v="Wind-Tre"/>
    <tag k="ref" v="1359"/>
    <tag k="start_date" v="2015-05-15"/>
    <tag k="tower:type" v="communication"/>
  </node>
  <node id="6572198941" lat="46.2307300" lon="13.0833800" version="1" timestamp="2019-06-26T09:57:47Z" changeset="71629884" uid="361003" user="Cascafico">
    <tag k="communication:mobile_phone" v="yes"/>
    <tag k="man_made" v="tower"/>
    <tag k="operator" v="Wind-Tre"/>
    <tag k="ref" v="1223"/>
    <tag k="tower:type" v="communication"/>
  </node>
  <node id="6572198942" lat="46.2306300" lon="13.0841200" version="1" timestamp="2019-06-26T09:57:47Z" changeset="71629884" uid="361003" user="Cascafico">
    <tag k="communication:mobile_phone" v="yes"/>
    <tag k="man_made" v="tower"/>
    <tag k="operator" v="Wind-Tre"/>
    <tag k="ref" v="1224"/>
    <tag k="start_date" v="2019-04-24"/>
    <tag k="tower:type" v="communication"/>
  </node>
  <node id="6572198943" lat="46.2249800" lon="13.1275800" version="1" timestamp="2019-06-26T09:57:47Z" changeset="71629884" uid="361003" user="Cascafico">
    <tag k="communication:mobile_phone" v="yes"/>
    <tag k="man_made" v="tower"/>
    <tag k="operator" v="Wind-Tre"/>
    <tag k="ref" v="1389"/>
    <tag k="start_date" v="2019-04-08"/>
    <tag k="tower:type" v="communication"/>
  </node>
  <node id="6572218316" lat="46.1145000" lon="12.9602400" version="1" timestamp="2019-06-26T10:03:31Z" changeset="71630088" uid="361003" user="Cascafico">
    <tag k="communication:mobile_phone" v="yes"/>
    <tag k="man_made" v="tower"/>
    <tag k="operator" v="Wind-Tre"/>
    <tag k="ref" v="889"/>
    <tag k="start_date" v="2019-03-15"/>
    <tag k="tower:type" v="communication"/>
  </node>
  <node id="6572218317" lat="46.1497300" lon="12.9967300" version="1" timestamp="2019-06-26T10:03:31Z" changeset="71630088" uid="361003" user="Cascafico">
    <tag k="communication:mobile_phone" v="yes"/>
    <tag k="man_made" v="tower"/>
    <tag k="operator" v="Wind-Tre"/>
    <tag k="ref" v="1006"/>
    <tag k="start_date" v="2019-04-17"/>
    <tag k="tower:type" v="communication"/>
  </node>
  <node id="6572218318" lat="46.0861300" lon="12.9530100" version="1" timestamp="2019-06-26T10:03:31Z" changeset="71630088" uid="361003" user="Cascafico">
    <tag k="communication:mobile_phone" v="yes"/>
    <tag k="man_made" v="tower"/>
    <tag k="operator" v="Wind-Tre"/>
    <tag k="ref" v="877"/>
    <tag k="start_date" v="2019-04-24"/>
    <tag k="tower:type" v="communication"/>
  </node>
  <node id="6573940938" lat="46.5252400" lon="13.6145400" version="1" timestamp="2019-06-27T07:07:07Z" changeset="71661036" uid="361003" user="Cascafico">
    <tag k="communication:mobile_phone" v="yes"/>
    <tag k="man_made" v="tower"/>
    <tag k="operator" v="Wind-Tre"/>
    <tag k="ref" v="2818"/>
    <tag k="start_date" v="2015-02-04"/>
    <tag k="tower:type" v="communication"/>
  </node>
  <node id="6573940939" lat="46.4935100" lon="13.5677800" version="1" timestamp="2019-06-27T07:07:07Z" changeset="71661036" uid="361003" user="Cascafico">
    <tag k="communication:mobile_phone" v="yes"/>
    <tag k="man_made" v="tower"/>
    <tag k="operator" v="Wind-Tre"/>
    <tag k="ref" v="2709"/>
    <tag k="start_date" v="2014-07-07"/>
    <tag k="tower:type" v="communication"/>
  </node>
  <node id="6573940940" lat="46.4280000" lon="13.3169500" version="1" timestamp="2019-06-27T07:07:07Z" changeset="71661036" uid="361003" user="Cascafico">
    <tag k="communication:mobile_phone" v="yes"/>
    <tag k="man_made" v="tower"/>
    <tag k="operator" v="Wind-Tre"/>
    <tag k="ref" v="2162"/>
    <tag k="start_date" v=""/>
    <tag k="tower:type" v="communication"/>
  </node>
  <node id="6573940941" lat="46.4053700" lon="13.1900000" version="1" timestamp="2019-06-27T07:07:07Z" changeset="71661036" uid="361003" user="Cascafico">
    <tag k="communication:mobile_phone" v="yes"/>
    <tag k="man_made" v="tower"/>
    <tag k="operator" v="Wind-Tre"/>
    <tag k="ref" v="1636"/>
    <tag k="start_date" v="2019-03-11"/>
    <tag k="tower:type" v="communication"/>
  </node>
  <node id="6573969436" lat="46.3294200" lon="13.1323900" version="1" timestamp="2019-06-27T07:01:33Z" changeset="71660908" uid="361003" user="Cascafico">
    <tag k="communication:mobile_phone" v="yes"/>
    <tag k="man_made" v="tower"/>
    <tag k="operator" v="Wind-Tre"/>
    <tag k="ref" v="1413"/>
    <tag k="start_date" v="2018-12-28"/>
    <tag k="tower:type" v="communication"/>
  </node>
  <node id="6573969437" lat="46.1850300" lon="13.0612000" version="1" timestamp="2019-06-27T07:01:33Z" changeset="71660908" uid="361003" user="Cascafico">
    <tag k="communication:mobile_phone" v="yes"/>
    <tag k="man_made" v="tower"/>
    <tag k="operator" v="Wind-Tre"/>
    <tag k="ref" v="1114"/>
    <tag k="start_date" v="2019-04-24"/>
    <tag k="tower:type" v="communication"/>
  </node>
  <node id="6573969439" lat="46.0936400" lon="13.4206800" version="1" timestamp="2019-06-27T07:01:33Z" changeset="71660908" uid="361003" user="Cascafico">
    <tag k="communication:mobile_phone" v="yes"/>
    <tag k="man_made" v="tower"/>
    <tag k="operator" v="Wind-Tre"/>
    <tag k="ref" v="2363"/>
    <tag k="start_date" v="2006-02-13"/>
    <tag k="tower:type" v="communication"/>
  </node>
  <node id="6573986985" lat="45.6931600" lon="13.1454500" version="1" timestamp="2019-06-27T07:10:53Z" changeset="71661120" uid="361003" user="Cascafico">
    <tag k="communication:mobile_phone" v="yes"/>
    <tag k="man_made" v="tower"/>
    <tag k="operator" v="Wind-Tre"/>
    <tag k="ref" v="1391"/>
    <tag k="start_date" v=""/>
    <tag k="tower:type" v="communication"/>
  </node>
  <node id="6573986986" lat="45.6895400" lon="13.1357800" version="1" timestamp="2019-06-27T07:10:53Z" changeset="71661120" uid="361003" user="Cascafico">
    <tag k="communication:mobile_phone" v="yes"/>
    <tag k="man_made" v="tower"/>
    <tag k="operator" v="Wind-Tre"/>
    <tag k="ref" v="1337"/>
    <tag k="start_date" v="2018-03-16"/>
    <tag k="tower:type" v="communication"/>
  </node>
  <node id="6573986987" lat="45.6877100" lon="13.1230300" version="1" timestamp="2019-06-27T07:10:53Z" changeset="71661120" uid="361003" user="Cascafico">
    <tag k="communication:mobile_phone" v="yes"/>
    <tag k="man_made" v="tower"/>
    <tag k="operator" v="Wind-Tre"/>
    <tag k="ref" v="1296"/>
    <tag k="start_date" v="2018-10-05"/>
    <tag k="tower:type" v="communication"/>
  </node>
  <node id="6573986988" lat="45.6679300" lon="13.0944300" version="1" timestamp="2019-06-27T07:10:53Z" changeset="71661120" uid="361003" user="Cascafico">
    <tag k="communication:mobile_phone" v="yes"/>
    <tag k="man_made" v="tower"/>
    <tag k="operator" v="Wind-Tre"/>
    <tag k="ref" v="1171"/>
    <tag k="start_date" v="2015-03-20"/>
    <tag k="tower:type" v="communication"/>
  </node>
  <node id="6573986989" lat="45.6748800" lon="13.0949500" version="1" timestamp="2019-06-27T07:10:53Z" changeset="71661120" uid="361003" user="Cascafico">
    <tag k="communication:mobile_phone" v="yes"/>
    <tag k="man_made" v="tower"/>
    <tag k="operator" v="Wind-Tre"/>
    <tag k="ref" v="1181"/>
    <tag k="start_date" v="2019-03-26"/>
    <tag k="tower:type" v="communication"/>
  </node>
  <node id="6573986990" lat="45.6953300" lon="13.0597600" version="1" timestamp="2019-06-27T07:10:53Z" changeset="71661120" uid="361003" user="Cascafico">
    <tag k="communication:mobile_phone" v="yes"/>
    <tag k="man_made" v="tower"/>
    <tag k="operator" v="Wind-Tre"/>
    <tag k="ref" v="1087"/>
    <tag k="start_date" v="2019-04-04"/>
    <tag k="tower:type" v="communication"/>
  </node>
  <node id="6574235667" lat="45.8169400" lon="13.3298900" version="1" timestamp="2019-06-27T09:36:01Z" changeset="71665651" uid="361003" user="Cascafico">
    <tag k="communication:mobile_phone" v="yes"/>
    <tag k="man_made" v="tower"/>
    <tag k="operator" v="Wind-Tre"/>
    <tag k="ref" v="2131"/>
    <tag k="start_date" v="2019-04-24"/>
    <tag k="tower:type" v="communication"/>
  </node>
  <node id="6574294393" lat="45.9571200" lon="12.9740900" version="1" timestamp="2019-06-27T09:40:54Z" changeset="71665780" uid="361003" user="Cascafico">
    <tag k="communication:mobile_phone" v="yes"/>
    <tag k="man_made" v="tower"/>
    <tag k="operator" v="Wind-Tre"/>
    <tag k="ref" v="900"/>
    <tag k="start_date" v="2019-04-09"/>
    <tag k="tower:type" v="communication"/>
  </node>
  <node id="6574294394" lat="45.9467300" lon="13.0515800" version="1" timestamp="2019-06-27T09:40:54Z" changeset="71665780" uid="361003" user="Cascafico">
    <tag k="communication:mobile_phone" v="yes"/>
    <tag k="man_made" v="mast"/>
    <tag k="operator" v="Wind-Tre"/>
    <tag k="ref" v="1089"/>
    <tag k="start_date" v="2019-03-19"/>
    <tag k="tower:type" v="communication"/>
  </node>
  <node id="6574294395" lat="45.9252300" lon="13.1055900" version="1" timestamp="2019-06-27T09:40:54Z" changeset="71665780" uid="361003" user="Cascafico">
    <tag k="communication:mobile_phone" v="yes"/>
    <tag k="man_made" v="mast"/>
    <tag k="operator" v="Wind-Tre"/>
    <tag k="ref" v="1275"/>
    <tag k="start_date" v="2017-05-05"/>
    <tag k="tower:type" v="communication"/>
  </node>
  <node id="6574294396" lat="45.9152800" lon="13.1828400" version="1" timestamp="2019-06-27T09:40:54Z" changeset="71665780" uid="361003" user="Cascafico">
    <tag k="communication:mobile_phone" v="yes"/>
    <tag k="man_made" v="mast"/>
    <tag k="operator" v="Wind-Tre"/>
    <tag k="ref" v="1536"/>
    <tag k="start_date" v="2011-05-31"/>
    <tag k="tower:type" v="communication"/>
  </node>
  <node id="6574294397" lat="45.9032500" lon="13.2622300" version="1" timestamp="2019-06-27T09:40:54Z" changeset="71665780" uid="361003" user="Cascafico">
    <tag k="communication:mobile_phone" v="yes"/>
    <tag k="man_made" v="mast"/>
    <tag k="operator" v="Wind-Tre"/>
    <tag k="ref" v="1941"/>
    <tag k="start_date" v="2017-03-09"/>
    <tag k="tower:type" v="communication"/>
  </node>
  <node id="6574294398" lat="45.8898000" lon="13.3417600" version="1" timestamp="2019-06-27T09:40:54Z" changeset="71665780" uid="361003" user="Cascafico">
    <tag k="communication:mobile_phone" v="yes"/>
    <tag k="man_made" v="mast"/>
    <tag k="operator" v="Wind-Tre"/>
    <tag k="ref" v="2172"/>
    <tag k="start_date" v="2018-11-22"/>
    <tag k="tower:type" v="communication"/>
  </node>
  <node id="8376933521" lat="46.0212530" lon="13.3926468" version="2" timestamp="2021-02-09T17:20:07Z" changeset="98991659" uid="1730440" user="LB_Manzano">
    <tag k="communication:mobile_phone" v="yes"/>
    <tag k="man_made" v="mast"/>
    <tag k="tower:construction" v="tube"/>
    <tag k="tower:type" v="communication"/>
  </node>
  <node id="8409226877" lat="45.9882131" lon="13.3648689" version="1" timestamp="2021-02-09T17:20:07Z" changeset="98991659" uid="1730440" user="LB_Manzano">
    <tag k="communication:mobile_phone" v="yes"/>
    <tag k="man_made" v="mast"/>
    <tag k="tower:construction" v="tube"/>
    <tag k="tower:type" v="communication"/>
  </node>

</osm>